<?xml version="1.0" encoding="UTF-8"?>
<gpx version="1.1" creator="race-kilian course pack" xmlns="http://www.topografix.com/GPX/1/1"><trk><name>Bob Graham Round</name><trkseg>
<trkpt lat="54.60082" lon="-3.13506"><ele>89.1</ele></trkpt>
<trkpt lat="54.60137" lon="-3.13405"><ele>86.5</ele></trkpt>
<trkpt lat="54.60301" lon="-3.13489"><ele>80.9</ele></trkpt>
<trkpt lat="54.60541" lon="-3.13710"><ele>82.7</ele></trkpt>
<trkpt lat="54.60614" lon="-3.13664"><ele>84.4</ele></trkpt>
<trkpt lat="54.60998" lon="-3.12949"><ele>135.8</ele></trkpt>
<trkpt lat="54.61195" lon="-3.12840"><ele>172.9</ele></trkpt>
<trkpt lat="54.61349" lon="-3.12602"><ele>224.1</ele></trkpt>
<trkpt lat="54.61446" lon="-3.12496"><ele>217.7</ele></trkpt>
<trkpt lat="54.61496" lon="-3.12514"><ele>221.4</ele></trkpt>
<trkpt lat="54.61716" lon="-3.12238"><ele>274.8</ele></trkpt>
<trkpt lat="54.61726" lon="-3.12174"><ele>257.2</ele></trkpt>
<trkpt lat="54.61803" lon="-3.12151"><ele>254.4</ele></trkpt>
<trkpt lat="54.61838" lon="-3.11457"><ele>299.3</ele></trkpt>
<trkpt lat="54.61878" lon="-3.11307"><ele>302.8</ele></trkpt>
<trkpt lat="54.61991" lon="-3.11239"><ele>304.3</ele></trkpt>
<trkpt lat="54.62338" lon="-3.11405"><ele>327.4</ele></trkpt>
<trkpt lat="54.62515" lon="-3.11618"><ele>381.6</ele></trkpt>
<trkpt lat="54.62703" lon="-3.11745"><ele>452.6</ele></trkpt>
<trkpt lat="54.62798" lon="-3.11903"><ele>477.9</ele></trkpt>
<trkpt lat="54.62985" lon="-3.11885"><ele>541.4</ele></trkpt>
<trkpt lat="54.63022" lon="-3.11945"><ele>558.4</ele></trkpt>
<trkpt lat="54.63167" lon="-3.11932"><ele>609.4</ele></trkpt>
<trkpt lat="54.63325" lon="-3.12411"><ele>669.3</ele></trkpt>
<trkpt lat="54.63459" lon="-3.12619"><ele>683.1</ele></trkpt>
<trkpt lat="54.63780" lon="-3.13060"><ele>742.9</ele></trkpt>
<trkpt lat="54.64119" lon="-3.13399"><ele>760.3</ele></trkpt>
<trkpt lat="54.64224" lon="-3.13450"><ele>771.0</ele></trkpt>
<trkpt lat="54.64298" lon="-3.13583"><ele>777.7</ele></trkpt>
<trkpt lat="54.64427" lon="-3.13897"><ele>798.5</ele></trkpt>
<trkpt lat="54.64512" lon="-3.14396"><ele>869.7</ele></trkpt>
<trkpt lat="54.64680" lon="-3.14745"><ele>922.2</ele></trkpt>
<trkpt lat="54.64959" lon="-3.14740"><ele>922.3</ele></trkpt>
<trkpt lat="54.65118" lon="-3.14800"><ele>920.7</ele></trkpt>
<trkpt lat="54.65358" lon="-3.14738"><ele>902.4</ele></trkpt>
<trkpt lat="54.65557" lon="-3.14615"><ele>848.3</ele></trkpt>
<trkpt lat="54.65642" lon="-3.14439"><ele>814.1</ele></trkpt>
<trkpt lat="54.65826" lon="-3.13339"><ele>626.0</ele></trkpt>
<trkpt lat="54.65855" lon="-3.12803"><ele>544.8</ele></trkpt>
<trkpt lat="54.65906" lon="-3.12785"><ele>544.4</ele></trkpt>
<trkpt lat="54.65987" lon="-3.12488"><ele>518.8</ele></trkpt>
<trkpt lat="54.66043" lon="-3.11854"><ele>482.5</ele></trkpt>
<trkpt lat="54.66760" lon="-3.10506"><ele>588.8</ele></trkpt>
<trkpt lat="54.66879" lon="-3.10166"><ele>656.6</ele></trkpt>
<trkpt lat="54.67058" lon="-3.10119"><ele>689.1</ele></trkpt>
<trkpt lat="54.66975" lon="-3.10145"><ele>672.2</ele></trkpt>
<trkpt lat="54.66533" lon="-3.08943"><ele>403.2</ele></trkpt>
<trkpt lat="54.66095" lon="-3.08221"><ele>410.0</ele></trkpt>
<trkpt lat="54.65860" lon="-3.07576"><ele>566.5</ele></trkpt>
<trkpt lat="54.65388" lon="-3.06773"><ele>628.2</ele></trkpt>
<trkpt lat="54.65271" lon="-3.06684"><ele>629.5</ele></trkpt>
<trkpt lat="54.65165" lon="-3.06410"><ele>639.0</ele></trkpt>
<trkpt lat="54.65206" lon="-3.06354"><ele>638.1</ele></trkpt>
<trkpt lat="54.65164" lon="-3.06173"><ele>644.0</ele></trkpt>
<trkpt lat="54.64830" lon="-3.05590"><ele>682.0</ele></trkpt>
<trkpt lat="54.64722" lon="-3.04973"><ele>770.5</ele></trkpt>
<trkpt lat="54.64627" lon="-3.04921"><ele>806.2</ele></trkpt>
<trkpt lat="54.64353" lon="-3.05052"><ele>827.8</ele></trkpt>
<trkpt lat="54.64250" lon="-3.04961"><ele>831.4</ele></trkpt>
<trkpt lat="54.64093" lon="-3.04996"><ele>850.9</ele></trkpt>
<trkpt lat="54.63968" lon="-3.04968"><ele>839.1</ele></trkpt>
<trkpt lat="54.63840" lon="-3.04901"><ele>770.6</ele></trkpt>
<trkpt lat="54.63818" lon="-3.04807"><ele>743.9</ele></trkpt>
<trkpt lat="54.63672" lon="-3.04644"><ele>660.3</ele></trkpt>
<trkpt lat="54.63423" lon="-3.04490"><ele>589.3</ele></trkpt>
<trkpt lat="54.63199" lon="-3.04501"><ele>517.2</ele></trkpt>
<trkpt lat="54.63105" lon="-3.04452"><ele>485.0</ele></trkpt>
<trkpt lat="54.63061" lon="-3.04358"><ele>456.9</ele></trkpt>
<trkpt lat="54.62918" lon="-3.04656"><ele>379.8</ele></trkpt>
<trkpt lat="54.62789" lon="-3.04661"><ele>311.7</ele></trkpt>
<trkpt lat="54.62669" lon="-3.04809"><ele>249.6</ele></trkpt>
<trkpt lat="54.62440" lon="-3.04699"><ele>198.5</ele></trkpt>
<trkpt lat="54.62370" lon="-3.04734"><ele>188.3</ele></trkpt>
<trkpt lat="54.61989" lon="-3.04695"><ele>151.8</ele></trkpt>
<trkpt lat="54.61944" lon="-3.04614"><ele>148.1</ele></trkpt>
<trkpt lat="54.61862" lon="-3.04681"><ele>143.1</ele></trkpt>
<trkpt lat="54.61600" lon="-3.04638"><ele>139.8</ele></trkpt>
<trkpt lat="54.61545" lon="-3.04244"><ele>149.7</ele></trkpt>
<trkpt lat="54.61463" lon="-3.04135"><ele>166.2</ele></trkpt>
<trkpt lat="54.61443" lon="-3.04004"><ele>171.0</ele></trkpt>
<trkpt lat="54.61374" lon="-3.03978"><ele>180.1</ele></trkpt>
<trkpt lat="54.61323" lon="-3.03878"><ele>183.3</ele></trkpt>
<trkpt lat="54.61249" lon="-3.03913"><ele>185.5</ele></trkpt>
<trkpt lat="54.61016" lon="-3.03775"><ele>220.9</ele></trkpt>
<trkpt lat="54.60828" lon="-3.03817"><ele>245.8</ele></trkpt>
<trkpt lat="54.60580" lon="-3.03698"><ele>291.8</ele></trkpt>
<trkpt lat="54.60544" lon="-3.03615"><ele>303.6</ele></trkpt>
<trkpt lat="54.60208" lon="-3.03327"><ele>373.4</ele></trkpt>
<trkpt lat="54.60120" lon="-3.03102"><ele>425.1</ele></trkpt>
<trkpt lat="54.59884" lon="-3.02943"><ele>546.6</ele></trkpt>
<trkpt lat="54.59734" lon="-3.02900"><ele>628.0</ele></trkpt>
<trkpt lat="54.59310" lon="-3.03340"><ele>719.6</ele></trkpt>
<trkpt lat="54.59133" lon="-3.03444"><ele>684.7</ele></trkpt>
<trkpt lat="54.58498" lon="-3.03618"><ele>621.2</ele></trkpt>
<trkpt lat="54.58266" lon="-3.03621"><ele>628.5</ele></trkpt>
<trkpt lat="54.58103" lon="-3.03522"><ele>643.3</ele></trkpt>
<trkpt lat="54.58044" lon="-3.03550"><ele>651.2</ele></trkpt>
<trkpt lat="54.57830" lon="-3.03361"><ele>660.3</ele></trkpt>
<trkpt lat="54.57603" lon="-3.02933"><ele>734.1</ele></trkpt>
<trkpt lat="54.57501" lon="-3.02279"><ele>808.3</ele></trkpt>
<trkpt lat="54.57575" lon="-3.01966"><ele>852.8</ele></trkpt>
<trkpt lat="54.57463" lon="-3.01986"><ele>841.7</ele></trkpt>
<trkpt lat="54.57366" lon="-3.01894"><ele>833.8</ele></trkpt>
<trkpt lat="54.57173" lon="-3.02038"><ele>799.5</ele></trkpt>
<trkpt lat="54.56941" lon="-3.02358"><ele>786.5</ele></trkpt>
<trkpt lat="54.56752" lon="-3.02443"><ele>771.4</ele></trkpt>
<trkpt lat="54.56688" lon="-3.02648"><ele>783.2</ele></trkpt>
<trkpt lat="54.56687" lon="-3.02901"><ele>783.7</ele></trkpt>
<trkpt lat="54.56495" lon="-3.02089"><ele>775.0</ele></trkpt>
<trkpt lat="54.56413" lon="-3.01991"><ele>789.9</ele></trkpt>
<trkpt lat="54.56216" lon="-3.01895"><ele>831.4</ele></trkpt>
<trkpt lat="54.56139" lon="-3.01705"><ele>843.4</ele></trkpt>
<trkpt lat="54.55961" lon="-3.01983"><ele>838.7</ele></trkpt>
<trkpt lat="54.55859" lon="-3.02058"><ele>832.0</ele></trkpt>
<trkpt lat="54.55663" lon="-3.01908"><ele>770.9</ele></trkpt>
<trkpt lat="54.55423" lon="-3.01818"><ele>750.7</ele></trkpt>
<trkpt lat="54.55244" lon="-3.01847"><ele>771.7</ele></trkpt>
<trkpt lat="54.55032" lon="-3.01868"><ele>815.4</ele></trkpt>
<trkpt lat="54.54910" lon="-3.01773"><ele>843.6</ele></trkpt>
<trkpt lat="54.54832" lon="-3.01765"><ele>868.0</ele></trkpt>
<trkpt lat="54.54758" lon="-3.01757"><ele>878.0</ele></trkpt>
<trkpt lat="54.54729" lon="-3.01786"><ele>878.0</ele></trkpt>
<trkpt lat="54.54714" lon="-3.01834"><ele>869.0</ele></trkpt>
<trkpt lat="54.54661" lon="-3.01997"><ele>857.4</ele></trkpt>
<trkpt lat="54.54198" lon="-3.02480"><ele>835.7</ele></trkpt>
<trkpt lat="54.54084" lon="-3.02513"><ele>861.4</ele></trkpt>
<trkpt lat="54.53830" lon="-3.02347"><ele>820.3</ele></trkpt>
<trkpt lat="54.53019" lon="-3.02562"><ele>912.0</ele></trkpt>
<trkpt lat="54.52915" lon="-3.02449"><ele>893.3</ele></trkpt>
<trkpt lat="54.52867" lon="-3.02026"><ele>941.2</ele></trkpt>
<trkpt lat="54.52708" lon="-3.01833"><ele>946.4</ele></trkpt>
<trkpt lat="54.52686" lon="-3.01680"><ele>942.1</ele></trkpt>
<trkpt lat="54.52415" lon="-3.01709"><ele>892.0</ele></trkpt>
<trkpt lat="54.52196" lon="-3.01858"><ele>816.5</ele></trkpt>
<trkpt lat="54.51911" lon="-3.01594"><ele>888.0</ele></trkpt>
<trkpt lat="54.51879" lon="-3.01486"><ele>871.7</ele></trkpt>
<trkpt lat="54.51747" lon="-3.01515"><ele>887.2</ele></trkpt>
<trkpt lat="54.51488" lon="-3.01675"><ele>872.2</ele></trkpt>
<trkpt lat="54.51368" lon="-3.01553"><ele>865.9</ele></trkpt>
<trkpt lat="54.51271" lon="-3.01583"><ele>851.4</ele></trkpt>
<trkpt lat="54.51220" lon="-3.01505"><ele>843.3</ele></trkpt>
<trkpt lat="54.51174" lon="-3.01568"><ele>822.2</ele></trkpt>
<trkpt lat="54.50986" lon="-3.01500"><ele>818.1</ele></trkpt>
<trkpt lat="54.50883" lon="-3.01387"><ele>835.2</ele></trkpt>
<trkpt lat="54.50869" lon="-3.01123"><ele>854.5</ele></trkpt>
<trkpt lat="54.50732" lon="-3.01151"><ele>828.2</ele></trkpt>
<trkpt lat="54.50576" lon="-3.01026"><ele>804.1</ele></trkpt>
<trkpt lat="54.50498" lon="-3.01046"><ele>761.2</ele></trkpt>
<trkpt lat="54.50197" lon="-3.00700"><ele>583.6</ele></trkpt>
<trkpt lat="54.50141" lon="-3.00351"><ele>543.0</ele></trkpt>
<trkpt lat="54.49958" lon="-2.99922"><ele>609.1</ele></trkpt>
<trkpt lat="54.49982" lon="-2.99660"><ele>689.2</ele></trkpt>
<trkpt lat="54.49929" lon="-2.99277"><ele>788.3</ele></trkpt>
<trkpt lat="54.49904" lon="-2.99251"><ele>818.9</ele></trkpt>
<trkpt lat="54.49792" lon="-2.99401"><ele>848.8</ele></trkpt>
<trkpt lat="54.49716" lon="-2.99181"><ele>868.1</ele></trkpt>
<trkpt lat="54.49673" lon="-2.99557"><ele>834.6</ele></trkpt>
<trkpt lat="54.49763" lon="-3.00051"><ele>686.6</ele></trkpt>
<trkpt lat="54.49732" lon="-3.00307"><ele>621.9</ele></trkpt>
<trkpt lat="54.49618" lon="-3.00730"><ele>585.8</ele></trkpt>
<trkpt lat="54.49488" lon="-3.00996"><ele>699.8</ele></trkpt>
<trkpt lat="54.49484" lon="-3.01389"><ele>735.2</ele></trkpt>
<trkpt lat="54.49383" lon="-3.01794"><ele>722.0</ele></trkpt>
<trkpt lat="54.49594" lon="-3.03082"><ele>485.6</ele></trkpt>
<trkpt lat="54.49702" lon="-3.03420"><ele>342.9</ele></trkpt>
<trkpt lat="54.49556" lon="-3.03901"><ele>243.5</ele></trkpt>
<trkpt lat="54.49530" lon="-3.03939"><ele>236.1</ele></trkpt>
<trkpt lat="54.49507" lon="-3.03910"><ele>236.7</ele></trkpt>
<trkpt lat="54.49539" lon="-3.04018"><ele>235.9</ele></trkpt>
<trkpt lat="54.49483" lon="-3.04787"><ele>500.3</ele></trkpt>
<trkpt lat="54.49449" lon="-3.04890"><ele>509.2</ele></trkpt>
<trkpt lat="54.49229" lon="-3.05054"><ele>534.9</ele></trkpt>
<trkpt lat="54.49125" lon="-3.05235"><ele>544.7</ele></trkpt>
<trkpt lat="54.49227" lon="-3.05888"><ele>509.7</ele></trkpt>
<trkpt lat="54.49223" lon="-3.06356"><ele>492.4</ele></trkpt>
<trkpt lat="54.49176" lon="-3.06740"><ele>467.9</ele></trkpt>
<trkpt lat="54.49078" lon="-3.06970"><ele>470.9</ele></trkpt>
<trkpt lat="54.49043" lon="-3.07396"><ele>471.7</ele></trkpt>
<trkpt lat="54.48842" lon="-3.07677"><ele>480.0</ele></trkpt>
<trkpt lat="54.48551" lon="-3.07941"><ele>513.3</ele></trkpt>
<trkpt lat="54.48448" lon="-3.07944"><ele>529.8</ele></trkpt>
<trkpt lat="54.48458" lon="-3.08263"><ele>507.3</ele></trkpt>
<trkpt lat="54.48305" lon="-3.08855"><ele>489.4</ele></trkpt>
<trkpt lat="54.48139" lon="-3.09195"><ele>492.3</ele></trkpt>
<trkpt lat="54.48046" lon="-3.09753"><ele>605.4</ele></trkpt>
<trkpt lat="54.47818" lon="-3.10090"><ele>698.6</ele></trkpt>
<trkpt lat="54.47745" lon="-3.10494"><ele>728.9</ele></trkpt>
<trkpt lat="54.47771" lon="-3.10664"><ele>742.6</ele></trkpt>
<trkpt lat="54.47641" lon="-3.11063"><ele>759.0</ele></trkpt>
<trkpt lat="54.47515" lon="-3.11010"><ele>758.0</ele></trkpt>
<trkpt lat="54.47034" lon="-3.10296"><ele>710.1</ele></trkpt>
<trkpt lat="54.47076" lon="-3.10827"><ele>721.0</ele></trkpt>
<trkpt lat="54.46894" lon="-3.11202"><ele>681.8</ele></trkpt>
<trkpt lat="54.46649" lon="-3.11379"><ele>686.9</ele></trkpt>
<trkpt lat="54.46293" lon="-3.11180"><ele>711.5</ele></trkpt>
<trkpt lat="54.46199" lon="-3.11242"><ele>720.1</ele></trkpt>
<trkpt lat="54.46128" lon="-3.11207"><ele>710.4</ele></trkpt>
<trkpt lat="54.46045" lon="-3.11288"><ele>699.9</ele></trkpt>
<trkpt lat="54.45948" lon="-3.11181"><ele>694.8</ele></trkpt>
<trkpt lat="54.45809" lon="-3.11143"><ele>702.8</ele></trkpt>
<trkpt lat="54.45732" lon="-3.10960"><ele>718.7</ele></trkpt>
<trkpt lat="54.45664" lon="-3.11091"><ele>709.0</ele></trkpt>
<trkpt lat="54.45687" lon="-3.11227"><ele>657.2</ele></trkpt>
<trkpt lat="54.45623" lon="-3.11635"><ele>636.1</ele></trkpt>
<trkpt lat="54.45659" lon="-3.12138"><ele>694.1</ele></trkpt>
<trkpt lat="54.46296" lon="-3.12560"><ele>572.3</ele></trkpt>
<trkpt lat="54.46463" lon="-3.12975"><ele>539.3</ele></trkpt>
<trkpt lat="54.46375" lon="-3.14349"><ele>425.2</ele></trkpt>
<trkpt lat="54.46258" lon="-3.14591"><ele>468.2</ele></trkpt>
<trkpt lat="54.46181" lon="-3.15228"><ele>558.9</ele></trkpt>
<trkpt lat="54.46063" lon="-3.15533"><ele>586.1</ele></trkpt>
<trkpt lat="54.45804" lon="-3.15976"><ele>649.5</ele></trkpt>
<trkpt lat="54.45815" lon="-3.16225"><ele>612.2</ele></trkpt>
<trkpt lat="54.45734" lon="-3.16339"><ele>614.2</ele></trkpt>
<trkpt lat="54.45636" lon="-3.16291"><ele>626.6</ele></trkpt>
<trkpt lat="54.45563" lon="-3.16387"><ele>664.8</ele></trkpt>
<trkpt lat="54.45116" lon="-3.16568"><ele>848.7</ele></trkpt>
<trkpt lat="54.44988" lon="-3.16686"><ele>853.2</ele></trkpt>
<trkpt lat="54.44824" lon="-3.16650"><ele>894.7</ele></trkpt>
<trkpt lat="54.45022" lon="-3.16755"><ele>838.6</ele></trkpt>
<trkpt lat="54.45166" lon="-3.16913"><ele>807.6</ele></trkpt>
<trkpt lat="54.45391" lon="-3.16975"><ele>803.8</ele></trkpt>
<trkpt lat="54.45457" lon="-3.17423"><ele>793.0</ele></trkpt>
<trkpt lat="54.45733" lon="-3.17894"><ele>881.4</ele></trkpt>
<trkpt lat="54.45760" lon="-3.18030"><ele>856.7</ele></trkpt>
<trkpt lat="54.45842" lon="-3.18112"><ele>846.8</ele></trkpt>
<trkpt lat="54.46068" lon="-3.18159"><ele>803.6</ele></trkpt>
<trkpt lat="54.46166" lon="-3.18302"><ele>773.6</ele></trkpt>
<trkpt lat="54.46261" lon="-3.18546"><ele>761.3</ele></trkpt>
<trkpt lat="54.46305" lon="-3.19107"><ele>820.1</ele></trkpt>
<trkpt lat="54.46460" lon="-3.19446"><ele>897.8</ele></trkpt>
<trkpt lat="54.46250" lon="-3.19676"><ele>868.1</ele></trkpt>
<trkpt lat="54.45974" lon="-3.19779"><ele>883.2</ele></trkpt>
<trkpt lat="54.45901" lon="-3.19932"><ele>904.1</ele></trkpt>
<trkpt lat="54.45805" lon="-3.19938"><ele>905.6</ele></trkpt>
<trkpt lat="54.45727" lon="-3.20018"><ele>914.6</ele></trkpt>
<trkpt lat="54.45571" lon="-3.19984"><ele>922.5</ele></trkpt>
<trkpt lat="54.45736" lon="-3.20330"><ele>887.7</ele></trkpt>
<trkpt lat="54.45739" lon="-3.20682"><ele>920.2</ele></trkpt>
<trkpt lat="54.45625" lon="-3.20913"><ele>880.2</ele></trkpt>
<trkpt lat="54.45457" lon="-3.21044"><ele>959.1</ele></trkpt>
<trkpt lat="54.45349" lon="-3.21267"><ele>947.1</ele></trkpt>
<trkpt lat="54.45235" lon="-3.21825"><ele>864.9</ele></trkpt>
<trkpt lat="54.45087" lon="-3.22026"><ele>861.6</ele></trkpt>
<trkpt lat="54.45122" lon="-3.22171"><ele>810.0</ele></trkpt>
<trkpt lat="54.45095" lon="-3.22438"><ele>826.0</ele></trkpt>
<trkpt lat="54.45047" lon="-3.22286"><ele>918.2</ele></trkpt>
<trkpt lat="54.44980" lon="-3.22270"><ele>939.9</ele></trkpt>
<trkpt lat="54.44756" lon="-3.22480"><ele>961.7</ele></trkpt>
<trkpt lat="54.44927" lon="-3.23244"><ele>736.8</ele></trkpt>
<trkpt lat="54.44982" lon="-3.23837"><ele>598.1</ele></trkpt>
<trkpt lat="54.45065" lon="-3.24038"><ele>560.7</ele></trkpt>
<trkpt lat="54.44987" lon="-3.24254"><ele>539.7</ele></trkpt>
<trkpt lat="54.45209" lon="-3.24415"><ele>382.9</ele></trkpt>
<trkpt lat="54.45477" lon="-3.24729"><ele>223.0</ele></trkpt>
<trkpt lat="54.45441" lon="-3.25396"><ele>139.7</ele></trkpt>
<trkpt lat="54.45590" lon="-3.26281"><ele>68.5</ele></trkpt>
<trkpt lat="54.45538" lon="-3.26517"><ele>62.7</ele></trkpt>
<trkpt lat="54.45647" lon="-3.26875"><ele>95.6</ele></trkpt>
<trkpt lat="54.45735" lon="-3.26912"><ele>121.5</ele></trkpt>
<trkpt lat="54.45781" lon="-3.26997"><ele>149.9</ele></trkpt>
<trkpt lat="54.45928" lon="-3.27051"><ele>233.5</ele></trkpt>
<trkpt lat="54.46053" lon="-3.27189"><ele>346.2</ele></trkpt>
<trkpt lat="54.46163" lon="-3.27194"><ele>402.3</ele></trkpt>
<trkpt lat="54.46252" lon="-3.27296"><ele>459.0</ele></trkpt>
<trkpt lat="54.46325" lon="-3.27286"><ele>504.7</ele></trkpt>
<trkpt lat="54.46440" lon="-3.27372"><ele>563.3</ele></trkpt>
<trkpt lat="54.46485" lon="-3.27430"><ele>583.6</ele></trkpt>
<trkpt lat="54.46491" lon="-3.27620"><ele>613.1</ele></trkpt>
<trkpt lat="54.46810" lon="-3.27478"><ele>582.3</ele></trkpt>
<trkpt lat="54.46959" lon="-3.27564"><ele>543.0</ele></trkpt>
<trkpt lat="54.47300" lon="-3.27461"><ele>496.0</ele></trkpt>
<trkpt lat="54.47465" lon="-3.27549"><ele>477.0</ele></trkpt>
<trkpt lat="54.47564" lon="-3.27767"><ele>509.6</ele></trkpt>
<trkpt lat="54.47687" lon="-3.28502"><ele>658.3</ele></trkpt>
<trkpt lat="54.47803" lon="-3.28693"><ele>709.4</ele></trkpt>
<trkpt lat="54.48076" lon="-3.28947"><ele>793.7</ele></trkpt>
<trkpt lat="54.48162" lon="-3.28977"><ele>800.3</ele></trkpt>
<trkpt lat="54.48288" lon="-3.28924"><ele>813.0</ele></trkpt>
<trkpt lat="54.48359" lon="-3.28982"><ele>821.8</ele></trkpt>
<trkpt lat="54.48788" lon="-3.29560"><ele>763.1</ele></trkpt>
<trkpt lat="54.49109" lon="-3.30173"><ele>836.6</ele></trkpt>
<trkpt lat="54.49321" lon="-3.30238"><ele>808.7</ele></trkpt>
<trkpt lat="54.49171" lon="-3.30240"><ele>823.1</ele></trkpt>
<trkpt lat="54.49086" lon="-3.29728"><ele>802.7</ele></trkpt>
<trkpt lat="54.49251" lon="-3.29341"><ele>798.1</ele></trkpt>
<trkpt lat="54.49278" lon="-3.28791"><ele>792.4</ele></trkpt>
<trkpt lat="54.49723" lon="-3.28156"><ele>888.3</ele></trkpt>
<trkpt lat="54.49551" lon="-3.27332"><ele>779.3</ele></trkpt>
<trkpt lat="54.49558" lon="-3.27017"><ele>748.7</ele></trkpt>
<trkpt lat="54.49354" lon="-3.26545"><ele>733.6</ele></trkpt>
<trkpt lat="54.49345" lon="-3.26207"><ele>685.3</ele></trkpt>
<trkpt lat="54.49417" lon="-3.25902"><ele>604.1</ele></trkpt>
<trkpt lat="54.49318" lon="-3.25312"><ele>576.3</ele></trkpt>
<trkpt lat="54.49147" lon="-3.24939"><ele>544.3</ele></trkpt>
<trkpt lat="54.49034" lon="-3.24834"><ele>589.2</ele></trkpt>
<trkpt lat="54.48802" lon="-3.24678"><ele>715.4</ele></trkpt>
<trkpt lat="54.48523" lon="-3.24603"><ele>763.3</ele></trkpt>
<trkpt lat="54.48334" lon="-3.24407"><ele>796.9</ele></trkpt>
<trkpt lat="54.48321" lon="-3.24203"><ele>780.0</ele></trkpt>
<trkpt lat="54.48388" lon="-3.24089"><ele>763.1</ele></trkpt>
<trkpt lat="54.48422" lon="-3.23840"><ele>757.0</ele></trkpt>
<trkpt lat="54.48403" lon="-3.23566"><ele>754.8</ele></trkpt>
<trkpt lat="54.48509" lon="-3.23372"><ele>745.2</ele></trkpt>
<trkpt lat="54.48552" lon="-3.23068"><ele>672.7</ele></trkpt>
<trkpt lat="54.48510" lon="-3.22835"><ele>619.6</ele></trkpt>
<trkpt lat="54.48537" lon="-3.22448"><ele>669.6</ele></trkpt>
<trkpt lat="54.48500" lon="-3.22333"><ele>678.9</ele></trkpt>
<trkpt lat="54.48345" lon="-3.22194"><ele>821.0</ele></trkpt>
<trkpt lat="54.48315" lon="-3.22024"><ele>864.9</ele></trkpt>
<trkpt lat="54.48193" lon="-3.21891"><ele>892.0</ele></trkpt>
<trkpt lat="54.48203" lon="-3.21613"><ele>820.6</ele></trkpt>
<trkpt lat="54.48413" lon="-3.21441"><ele>751.8</ele></trkpt>
<trkpt lat="54.48444" lon="-3.21349"><ele>765.0</ele></trkpt>
<trkpt lat="54.48563" lon="-3.21366"><ele>797.3</ele></trkpt>
<trkpt lat="54.48808" lon="-3.21235"><ele>746.6</ele></trkpt>
<trkpt lat="54.49258" lon="-3.21376"><ele>651.9</ele></trkpt>
<trkpt lat="54.49680" lon="-3.21361"><ele>711.7</ele></trkpt>
<trkpt lat="54.49737" lon="-3.21321"><ele>709.7</ele></trkpt>
<trkpt lat="54.49729" lon="-3.21264"><ele>708.1</ele></trkpt>
<trkpt lat="54.49762" lon="-3.21291"><ele>705.4</ele></trkpt>
<trkpt lat="54.49824" lon="-3.21242"><ele>698.0</ele></trkpt>
<trkpt lat="54.50251" lon="-3.20828"><ele>692.3</ele></trkpt>
<trkpt lat="54.50346" lon="-3.20658"><ele>675.0</ele></trkpt>
<trkpt lat="54.50601" lon="-3.20594"><ele>585.6</ele></trkpt>
<trkpt lat="54.50689" lon="-3.20523"><ele>544.3</ele></trkpt>
<trkpt lat="54.50778" lon="-3.20285"><ele>507.7</ele></trkpt>
<trkpt lat="54.50981" lon="-3.20255"><ele>423.1</ele></trkpt>
<trkpt lat="54.51104" lon="-3.20110"><ele>369.6</ele></trkpt>
<trkpt lat="54.51118" lon="-3.19839"><ele>355.7</ele></trkpt>
<trkpt lat="54.51237" lon="-3.19887"><ele>387.6</ele></trkpt>
<trkpt lat="54.51398" lon="-3.19786"><ele>436.2</ele></trkpt>
<trkpt lat="54.51536" lon="-3.19781"><ele>480.4</ele></trkpt>
<trkpt lat="54.51744" lon="-3.19865"><ele>544.5</ele></trkpt>
<trkpt lat="54.51815" lon="-3.19751"><ele>564.9</ele></trkpt>
<trkpt lat="54.51954" lon="-3.19814"><ele>599.1</ele></trkpt>
<trkpt lat="54.52144" lon="-3.20011"><ele>635.9</ele></trkpt>
<trkpt lat="54.52432" lon="-3.20056"><ele>690.3</ele></trkpt>
<trkpt lat="54.52715" lon="-3.20211"><ele>751.6</ele></trkpt>
<trkpt lat="54.52840" lon="-3.20765"><ele>685.6</ele></trkpt>
<trkpt lat="54.53108" lon="-3.21477"><ele>653.4</ele></trkpt>
<trkpt lat="54.53238" lon="-3.21511"><ele>671.1</ele></trkpt>
<trkpt lat="54.53557" lon="-3.21464"><ele>704.6</ele></trkpt>
<trkpt lat="54.53766" lon="-3.21372"><ele>721.9</ele></trkpt>
<trkpt lat="54.53698" lon="-3.21389"><ele>717.6</ele></trkpt>
<trkpt lat="54.53531" lon="-3.21743"><ele>650.4</ele></trkpt>
<trkpt lat="54.53578" lon="-3.21956"><ele>603.4</ele></trkpt>
<trkpt lat="54.53446" lon="-3.22595"><ele>568.7</ele></trkpt>
<trkpt lat="54.53546" lon="-3.22894"><ele>584.5</ele></trkpt>
<trkpt lat="54.53723" lon="-3.23191"><ele>663.8</ele></trkpt>
<trkpt lat="54.54080" lon="-3.23521"><ele>732.3</ele></trkpt>
<trkpt lat="54.54175" lon="-3.23241"><ele>730.5</ele></trkpt>
<trkpt lat="54.54495" lon="-3.22761"><ele>662.2</ele></trkpt>
<trkpt lat="54.54591" lon="-3.22390"><ele>587.2</ele></trkpt>
<trkpt lat="54.54690" lon="-3.22267"><ele>558.1</ele></trkpt>
<trkpt lat="54.54784" lon="-3.21987"><ele>504.6</ele></trkpt>
<trkpt lat="54.54880" lon="-3.21994"><ele>456.2</ele></trkpt>
<trkpt lat="54.54995" lon="-3.21827"><ele>401.4</ele></trkpt>
<trkpt lat="54.54969" lon="-3.21543"><ele>321.8</ele></trkpt>
<trkpt lat="54.55036" lon="-3.21424"><ele>287.0</ele></trkpt>
<trkpt lat="54.55433" lon="-3.20983"><ele>226.8</ele></trkpt>
<trkpt lat="54.55492" lon="-3.20725"><ele>230.5</ele></trkpt>
<trkpt lat="54.55665" lon="-3.20527"><ele>211.5</ele></trkpt>
<trkpt lat="54.55948" lon="-3.20402"><ele>208.0</ele></trkpt>
<trkpt lat="54.56218" lon="-3.20109"><ele>187.3</ele></trkpt>
<trkpt lat="54.56282" lon="-3.19933"><ele>167.5</ele></trkpt>
<trkpt lat="54.56433" lon="-3.18892"><ele>142.8</ele></trkpt>
<trkpt lat="54.56603" lon="-3.18423"><ele>165.4</ele></trkpt>
<trkpt lat="54.56643" lon="-3.18373"><ele>165.2</ele></trkpt>
<trkpt lat="54.57212" lon="-3.18265"><ele>119.4</ele></trkpt>
<trkpt lat="54.57473" lon="-3.18092"><ele>130.3</ele></trkpt>
<trkpt lat="54.57613" lon="-3.18093"><ele>127.0</ele></trkpt>
<trkpt lat="54.57743" lon="-3.18221"><ele>117.5</ele></trkpt>
<trkpt lat="54.58138" lon="-3.18045"><ele>93.1</ele></trkpt>
<trkpt lat="54.58226" lon="-3.17763"><ele>93.9</ele></trkpt>
<trkpt lat="54.58267" lon="-3.17392"><ele>93.4</ele></trkpt>
<trkpt lat="54.58505" lon="-3.16930"><ele>97.5</ele></trkpt>
<trkpt lat="54.58799" lon="-3.16726"><ele>119.5</ele></trkpt>
<trkpt lat="54.58867" lon="-3.16745"><ele>121.2</ele></trkpt>
<trkpt lat="54.59241" lon="-3.16262"><ele>97.6</ele></trkpt>
<trkpt lat="54.59362" lon="-3.16003"><ele>101.4</ele></trkpt>
<trkpt lat="54.59532" lon="-3.15890"><ele>78.4</ele></trkpt>
<trkpt lat="54.59590" lon="-3.15942"><ele>77.1</ele></trkpt>
<trkpt lat="54.59808" lon="-3.15831"><ele>79.2</ele></trkpt>
<trkpt lat="54.59935" lon="-3.15850"><ele>78.1</ele></trkpt>
<trkpt lat="54.59996" lon="-3.15936"><ele>92.6</ele></trkpt>
<trkpt lat="54.60078" lon="-3.15928"><ele>80.4</ele></trkpt>
<trkpt lat="54.60358" lon="-3.15646"><ele>72.2</ele></trkpt>
<trkpt lat="54.60419" lon="-3.14982"><ele>76.2</ele></trkpt>
<trkpt lat="54.60377" lon="-3.14370"><ele>77.7</ele></trkpt>
<trkpt lat="54.60282" lon="-3.14203"><ele>78.4</ele></trkpt>
</trkseg></trk></gpx>
