<?xml version="1.0" encoding="UTF-8"?>
<gpx version="1.1" creator="race-kilian course pack" xmlns="http://www.topografix.com/GPX/1/1"><trk><name>Pikes Peak Marathon</name><trkseg>
<trkpt lat="38.85753" lon="-104.91241"><ele>1927.0</ele></trkpt>
<trkpt lat="38.85708" lon="-104.91469"><ele>1936.0</ele></trkpt>
<trkpt lat="38.85708" lon="-104.91505"><ele>1937.0</ele></trkpt>
<trkpt lat="38.85722" lon="-104.91561"><ele>1936.0</ele></trkpt>
<trkpt lat="38.85789" lon="-104.91738"><ele>1942.0</ele></trkpt>
<trkpt lat="38.85856" lon="-104.91819"><ele>1943.0</ele></trkpt>
<trkpt lat="38.85867" lon="-104.91845"><ele>1945.0</ele></trkpt>
<trkpt lat="38.85874" lon="-104.91870"><ele>1945.0</ele></trkpt>
<trkpt lat="38.85887" lon="-104.91967"><ele>1944.0</ele></trkpt>
<trkpt lat="38.85876" lon="-104.92001"><ele>1945.0</ele></trkpt>
<trkpt lat="38.85847" lon="-104.92056"><ele>1949.0</ele></trkpt>
<trkpt lat="38.85835" lon="-104.92116"><ele>1951.0</ele></trkpt>
<trkpt lat="38.85832" lon="-104.92168"><ele>1954.0</ele></trkpt>
<trkpt lat="38.85842" lon="-104.92266"><ele>1964.0</ele></trkpt>
<trkpt lat="38.85854" lon="-104.92340"><ele>1964.0</ele></trkpt>
<trkpt lat="38.85850" lon="-104.92355"><ele>1965.0</ele></trkpt>
<trkpt lat="38.85794" lon="-104.92464"><ele>1971.0</ele></trkpt>
<trkpt lat="38.85758" lon="-104.92628"><ele>1979.0</ele></trkpt>
<trkpt lat="38.85735" lon="-104.92714"><ele>1982.0</ele></trkpt>
<trkpt lat="38.85728" lon="-104.92726"><ele>1983.0</ele></trkpt>
<trkpt lat="38.85673" lon="-104.92789"><ele>1993.0</ele></trkpt>
<trkpt lat="38.85664" lon="-104.92812"><ele>1995.0</ele></trkpt>
<trkpt lat="38.85659" lon="-104.92915"><ele>1995.0</ele></trkpt>
<trkpt lat="38.85655" lon="-104.92943"><ele>1999.0</ele></trkpt>
<trkpt lat="38.85620" lon="-104.93031"><ele>2000.0</ele></trkpt>
<trkpt lat="38.85575" lon="-104.93167"><ele>2012.0</ele></trkpt>
<trkpt lat="38.85553" lon="-104.93227"><ele>2017.0</ele></trkpt>
<trkpt lat="38.85522" lon="-104.93274"><ele>2022.0</ele></trkpt>
<trkpt lat="38.85471" lon="-104.93334"><ele>2028.0</ele></trkpt>
<trkpt lat="38.85457" lon="-104.93367"><ele>2036.0</ele></trkpt>
<trkpt lat="38.85424" lon="-104.93407"><ele>2045.0</ele></trkpt>
<trkpt lat="38.85383" lon="-104.93465"><ele>2063.0</ele></trkpt>
<trkpt lat="38.85363" lon="-104.93483"><ele>2067.0</ele></trkpt>
<trkpt lat="38.85338" lon="-104.93513"><ele>2074.0</ele></trkpt>
<trkpt lat="38.85292" lon="-104.93599"><ele>2083.0</ele></trkpt>
<trkpt lat="38.85276" lon="-104.93659"><ele>2086.0</ele></trkpt>
<trkpt lat="38.85256" lon="-104.93680"><ele>2091.0</ele></trkpt>
<trkpt lat="38.85242" lon="-104.93715"><ele>2096.0</ele></trkpt>
<trkpt lat="38.85241" lon="-104.93742"><ele>2099.0</ele></trkpt>
<trkpt lat="38.85228" lon="-104.93767"><ele>2104.0</ele></trkpt>
<trkpt lat="38.85203" lon="-104.93798"><ele>2117.0</ele></trkpt>
<trkpt lat="38.85163" lon="-104.93835"><ele>2128.0</ele></trkpt>
<trkpt lat="38.85106" lon="-104.93896"><ele>2143.0</ele></trkpt>
<trkpt lat="38.85086" lon="-104.93920"><ele>2155.0</ele></trkpt>
<trkpt lat="38.85077" lon="-104.93939"><ele>2162.0</ele></trkpt>
<trkpt lat="38.85166" lon="-104.93910"><ele>2136.0</ele></trkpt>
<trkpt lat="38.85201" lon="-104.93894"><ele>2136.0</ele></trkpt>
<trkpt lat="38.85256" lon="-104.93860"><ele>2137.0</ele></trkpt>
<trkpt lat="38.85272" lon="-104.93861"><ele>2140.0</ele></trkpt>
<trkpt lat="38.85315" lon="-104.93830"><ele>2139.0</ele></trkpt>
<trkpt lat="38.85341" lon="-104.93824"><ele>2147.0</ele></trkpt>
<trkpt lat="38.85353" lon="-104.93810"><ele>2147.0</ele></trkpt>
<trkpt lat="38.85370" lon="-104.93804"><ele>2152.0</ele></trkpt>
<trkpt lat="38.85380" lon="-104.93787"><ele>2149.0</ele></trkpt>
<trkpt lat="38.85406" lon="-104.93769"><ele>2154.0</ele></trkpt>
<trkpt lat="38.85412" lon="-104.93743"><ele>2151.0</ele></trkpt>
<trkpt lat="38.85453" lon="-104.93759"><ele>2168.0</ele></trkpt>
<trkpt lat="38.85466" lon="-104.93771"><ele>2173.0</ele></trkpt>
<trkpt lat="38.85480" lon="-104.93797"><ele>2181.0</ele></trkpt>
<trkpt lat="38.85481" lon="-104.93812"><ele>2185.0</ele></trkpt>
<trkpt lat="38.85495" lon="-104.93828"><ele>2189.0</ele></trkpt>
<trkpt lat="38.85502" lon="-104.93846"><ele>2195.0</ele></trkpt>
<trkpt lat="38.85479" lon="-104.93837"><ele>2192.0</ele></trkpt>
<trkpt lat="38.85461" lon="-104.93845"><ele>2194.0</ele></trkpt>
<trkpt lat="38.85446" lon="-104.93841"><ele>2190.0</ele></trkpt>
<trkpt lat="38.85416" lon="-104.93886"><ele>2201.0</ele></trkpt>
<trkpt lat="38.85392" lon="-104.93900"><ele>2200.0</ele></trkpt>
<trkpt lat="38.85422" lon="-104.93896"><ele>2208.0</ele></trkpt>
<trkpt lat="38.85443" lon="-104.93882"><ele>2206.0</ele></trkpt>
<trkpt lat="38.85488" lon="-104.93919"><ele>2223.0</ele></trkpt>
<trkpt lat="38.85520" lon="-104.93937"><ele>2231.0</ele></trkpt>
<trkpt lat="38.85498" lon="-104.93953"><ele>2239.0</ele></trkpt>
<trkpt lat="38.85477" lon="-104.93952"><ele>2239.0</ele></trkpt>
<trkpt lat="38.85459" lon="-104.93940"><ele>2234.0</ele></trkpt>
<trkpt lat="38.85469" lon="-104.93962"><ele>2244.0</ele></trkpt>
<trkpt lat="38.85480" lon="-104.93973"><ele>2249.0</ele></trkpt>
<trkpt lat="38.85495" lon="-104.93986"><ele>2256.0</ele></trkpt>
<trkpt lat="38.85507" lon="-104.94004"><ele>2268.0</ele></trkpt>
<trkpt lat="38.85518" lon="-104.94013"><ele>2275.0</ele></trkpt>
<trkpt lat="38.85531" lon="-104.94011"><ele>2274.0</ele></trkpt>
<trkpt lat="38.85559" lon="-104.94030"><ele>2275.0</ele></trkpt>
<trkpt lat="38.85597" lon="-104.94041"><ele>2272.0</ele></trkpt>
<trkpt lat="38.85584" lon="-104.94045"><ele>2274.0</ele></trkpt>
<trkpt lat="38.85572" lon="-104.94042"><ele>2276.0</ele></trkpt>
<trkpt lat="38.85546" lon="-104.94055"><ele>2286.0</ele></trkpt>
<trkpt lat="38.85534" lon="-104.94054"><ele>2288.0</ele></trkpt>
<trkpt lat="38.85553" lon="-104.94071"><ele>2290.0</ele></trkpt>
<trkpt lat="38.85566" lon="-104.94070"><ele>2286.0</ele></trkpt>
<trkpt lat="38.85558" lon="-104.94081"><ele>2292.0</ele></trkpt>
<trkpt lat="38.85545" lon="-104.94081"><ele>2295.0</ele></trkpt>
<trkpt lat="38.85509" lon="-104.94070"><ele>2302.0</ele></trkpt>
<trkpt lat="38.85449" lon="-104.94037"><ele>2293.0</ele></trkpt>
<trkpt lat="38.85487" lon="-104.94073"><ele>2312.0</ele></trkpt>
<trkpt lat="38.85517" lon="-104.94110"><ele>2315.0</ele></trkpt>
<trkpt lat="38.85572" lon="-104.94154"><ele>2322.0</ele></trkpt>
<trkpt lat="38.85591" lon="-104.94178"><ele>2333.0</ele></trkpt>
<trkpt lat="38.85625" lon="-104.94178"><ele>2333.0</ele></trkpt>
<trkpt lat="38.85605" lon="-104.94190"><ele>2343.0</ele></trkpt>
<trkpt lat="38.85582" lon="-104.94196"><ele>2344.0</ele></trkpt>
<trkpt lat="38.85617" lon="-104.94205"><ele>2354.0</ele></trkpt>
<trkpt lat="38.85766" lon="-104.94247"><ele>2379.0</ele></trkpt>
<trkpt lat="38.85786" lon="-104.94239"><ele>2377.0</ele></trkpt>
<trkpt lat="38.85771" lon="-104.94257"><ele>2384.0</ele></trkpt>
<trkpt lat="38.85754" lon="-104.94257"><ele>2382.0</ele></trkpt>
<trkpt lat="38.85737" lon="-104.94261"><ele>2386.0</ele></trkpt>
<trkpt lat="38.85717" lon="-104.94267"><ele>2391.0</ele></trkpt>
<trkpt lat="38.85703" lon="-104.94277"><ele>2400.0</ele></trkpt>
<trkpt lat="38.85668" lon="-104.94271"><ele>2402.0</ele></trkpt>
<trkpt lat="38.85626" lon="-104.94282"><ele>2408.0</ele></trkpt>
<trkpt lat="38.85606" lon="-104.94299"><ele>2415.0</ele></trkpt>
<trkpt lat="38.85577" lon="-104.94302"><ele>2415.0</ele></trkpt>
<trkpt lat="38.85554" lon="-104.94287"><ele>2410.0</ele></trkpt>
<trkpt lat="38.85521" lon="-104.94267"><ele>2417.0</ele></trkpt>
<trkpt lat="38.85474" lon="-104.94262"><ele>2416.0</ele></trkpt>
<trkpt lat="38.85479" lon="-104.94300"><ele>2434.0</ele></trkpt>
<trkpt lat="38.85478" lon="-104.94333"><ele>2442.0</ele></trkpt>
<trkpt lat="38.85492" lon="-104.94393"><ele>2454.0</ele></trkpt>
<trkpt lat="38.85468" lon="-104.94398"><ele>2449.0</ele></trkpt>
<trkpt lat="38.85463" lon="-104.94416"><ele>2450.0</ele></trkpt>
<trkpt lat="38.85475" lon="-104.94406"><ele>2453.0</ele></trkpt>
<trkpt lat="38.85516" lon="-104.94417"><ele>2463.0</ele></trkpt>
<trkpt lat="38.85536" lon="-104.94389"><ele>2459.0</ele></trkpt>
<trkpt lat="38.85539" lon="-104.94410"><ele>2466.0</ele></trkpt>
<trkpt lat="38.85524" lon="-104.94442"><ele>2472.0</ele></trkpt>
<trkpt lat="38.85511" lon="-104.94448"><ele>2471.0</ele></trkpt>
<trkpt lat="38.85502" lon="-104.94465"><ele>2475.0</ele></trkpt>
<trkpt lat="38.85495" lon="-104.94523"><ele>2484.0</ele></trkpt>
<trkpt lat="38.85491" lon="-104.94555"><ele>2486.0</ele></trkpt>
<trkpt lat="38.85506" lon="-104.94577"><ele>2495.0</ele></trkpt>
<trkpt lat="38.85524" lon="-104.94603"><ele>2504.0</ele></trkpt>
<trkpt lat="38.85540" lon="-104.94523"><ele>2508.0</ele></trkpt>
<trkpt lat="38.85548" lon="-104.94512"><ele>2508.0</ele></trkpt>
<trkpt lat="38.85550" lon="-104.94529"><ele>2513.0</ele></trkpt>
<trkpt lat="38.85564" lon="-104.94559"><ele>2521.0</ele></trkpt>
<trkpt lat="38.85578" lon="-104.94612"><ele>2525.0</ele></trkpt>
<trkpt lat="38.85606" lon="-104.94666"><ele>2530.0</ele></trkpt>
<trkpt lat="38.85625" lon="-104.94682"><ele>2539.0</ele></trkpt>
<trkpt lat="38.85628" lon="-104.94736"><ele>2545.0</ele></trkpt>
<trkpt lat="38.85639" lon="-104.94756"><ele>2551.0</ele></trkpt>
<trkpt lat="38.85626" lon="-104.94765"><ele>2550.0</ele></trkpt>
<trkpt lat="38.85603" lon="-104.94759"><ele>2545.0</ele></trkpt>
<trkpt lat="38.85589" lon="-104.94747"><ele>2541.0</ele></trkpt>
<trkpt lat="38.85574" lon="-104.94752"><ele>2543.0</ele></trkpt>
<trkpt lat="38.85544" lon="-104.94756"><ele>2547.0</ele></trkpt>
<trkpt lat="38.85535" lon="-104.94766"><ele>2550.0</ele></trkpt>
<trkpt lat="38.85534" lon="-104.94808"><ele>2562.0</ele></trkpt>
<trkpt lat="38.85524" lon="-104.94843"><ele>2565.0</ele></trkpt>
<trkpt lat="38.85533" lon="-104.94871"><ele>2572.0</ele></trkpt>
<trkpt lat="38.85529" lon="-104.94894"><ele>2574.0</ele></trkpt>
<trkpt lat="38.85533" lon="-104.94910"><ele>2578.0</ele></trkpt>
<trkpt lat="38.85532" lon="-104.94950"><ele>2576.0</ele></trkpt>
<trkpt lat="38.85569" lon="-104.94993"><ele>2584.0</ele></trkpt>
<trkpt lat="38.85596" lon="-104.95041"><ele>2593.0</ele></trkpt>
<trkpt lat="38.85601" lon="-104.95060"><ele>2594.0</ele></trkpt>
<trkpt lat="38.85625" lon="-104.95108"><ele>2602.0</ele></trkpt>
<trkpt lat="38.85624" lon="-104.95156"><ele>2600.0</ele></trkpt>
<trkpt lat="38.85633" lon="-104.95194"><ele>2604.0</ele></trkpt>
<trkpt lat="38.85628" lon="-104.95234"><ele>2602.0</ele></trkpt>
<trkpt lat="38.85636" lon="-104.95265"><ele>2608.0</ele></trkpt>
<trkpt lat="38.85636" lon="-104.95282"><ele>2609.0</ele></trkpt>
<trkpt lat="38.85617" lon="-104.95323"><ele>2608.0</ele></trkpt>
<trkpt lat="38.85613" lon="-104.95355"><ele>2613.0</ele></trkpt>
<trkpt lat="38.85618" lon="-104.95382"><ele>2620.0</ele></trkpt>
<trkpt lat="38.85630" lon="-104.95403"><ele>2626.0</ele></trkpt>
<trkpt lat="38.85646" lon="-104.95374"><ele>2629.0</ele></trkpt>
<trkpt lat="38.85652" lon="-104.95361"><ele>2630.0</ele></trkpt>
<trkpt lat="38.85661" lon="-104.95405"><ele>2639.0</ele></trkpt>
<trkpt lat="38.85663" lon="-104.95423"><ele>2642.0</ele></trkpt>
<trkpt lat="38.85651" lon="-104.95447"><ele>2638.0</ele></trkpt>
<trkpt lat="38.85649" lon="-104.95475"><ele>2638.0</ele></trkpt>
<trkpt lat="38.85657" lon="-104.95543"><ele>2644.0</ele></trkpt>
<trkpt lat="38.85652" lon="-104.95631"><ele>2648.0</ele></trkpt>
<trkpt lat="38.85657" lon="-104.95652"><ele>2655.0</ele></trkpt>
<trkpt lat="38.85646" lon="-104.95690"><ele>2661.0</ele></trkpt>
<trkpt lat="38.85643" lon="-104.95715"><ele>2668.0</ele></trkpt>
<trkpt lat="38.85650" lon="-104.95740"><ele>2673.0</ele></trkpt>
<trkpt lat="38.85667" lon="-104.95757"><ele>2675.0</ele></trkpt>
<trkpt lat="38.85660" lon="-104.95799"><ele>2673.0</ele></trkpt>
<trkpt lat="38.85624" lon="-104.95859"><ele>2685.0</ele></trkpt>
<trkpt lat="38.85608" lon="-104.95893"><ele>2695.0</ele></trkpt>
<trkpt lat="38.85627" lon="-104.95892"><ele>2690.0</ele></trkpt>
<trkpt lat="38.85604" lon="-104.95943"><ele>2702.0</ele></trkpt>
<trkpt lat="38.85590" lon="-104.96025"><ele>2713.0</ele></trkpt>
<trkpt lat="38.85549" lon="-104.96087"><ele>2726.0</ele></trkpt>
<trkpt lat="38.85573" lon="-104.96080"><ele>2724.0</ele></trkpt>
<trkpt lat="38.85606" lon="-104.96065"><ele>2720.0</ele></trkpt>
<trkpt lat="38.85623" lon="-104.96054"><ele>2717.0</ele></trkpt>
<trkpt lat="38.85634" lon="-104.96058"><ele>2717.0</ele></trkpt>
<trkpt lat="38.85598" lon="-104.96103"><ele>2728.0</ele></trkpt>
<trkpt lat="38.85612" lon="-104.96110"><ele>2729.0</ele></trkpt>
<trkpt lat="38.85605" lon="-104.96136"><ele>2731.0</ele></trkpt>
<trkpt lat="38.85555" lon="-104.96238"><ele>2748.0</ele></trkpt>
<trkpt lat="38.85528" lon="-104.96275"><ele>2753.0</ele></trkpt>
<trkpt lat="38.85479" lon="-104.96326"><ele>2768.0</ele></trkpt>
<trkpt lat="38.85461" lon="-104.96381"><ele>2775.0</ele></trkpt>
<trkpt lat="38.85453" lon="-104.96393"><ele>2777.0</ele></trkpt>
<trkpt lat="38.85426" lon="-104.96402"><ele>2783.0</ele></trkpt>
<trkpt lat="38.85416" lon="-104.96407"><ele>2785.0</ele></trkpt>
<trkpt lat="38.85391" lon="-104.96490"><ele>2792.0</ele></trkpt>
<trkpt lat="38.85382" lon="-104.96620"><ele>2794.0</ele></trkpt>
<trkpt lat="38.85374" lon="-104.96682"><ele>2794.0</ele></trkpt>
<trkpt lat="38.85352" lon="-104.96783"><ele>2804.0</ele></trkpt>
<trkpt lat="38.85349" lon="-104.96832"><ele>2810.0</ele></trkpt>
<trkpt lat="38.85351" lon="-104.96858"><ele>2815.0</ele></trkpt>
<trkpt lat="38.85349" lon="-104.96908"><ele>2819.0</ele></trkpt>
<trkpt lat="38.85358" lon="-104.96936"><ele>2820.0</ele></trkpt>
<trkpt lat="38.85363" lon="-104.96962"><ele>2821.0</ele></trkpt>
<trkpt lat="38.85359" lon="-104.96981"><ele>2824.0</ele></trkpt>
<trkpt lat="38.85360" lon="-104.96997"><ele>2825.0</ele></trkpt>
<trkpt lat="38.85354" lon="-104.97026"><ele>2829.0</ele></trkpt>
<trkpt lat="38.85354" lon="-104.97045"><ele>2830.0</ele></trkpt>
<trkpt lat="38.85365" lon="-104.97164"><ele>2837.0</ele></trkpt>
<trkpt lat="38.85377" lon="-104.97248"><ele>2843.0</ele></trkpt>
<trkpt lat="38.85398" lon="-104.97307"><ele>2847.0</ele></trkpt>
<trkpt lat="38.85399" lon="-104.97324"><ele>2848.0</ele></trkpt>
<trkpt lat="38.85409" lon="-104.97353"><ele>2849.0</ele></trkpt>
<trkpt lat="38.85442" lon="-104.97417"><ele>2852.0</ele></trkpt>
<trkpt lat="38.85442" lon="-104.97441"><ele>2853.0</ele></trkpt>
<trkpt lat="38.85433" lon="-104.97499"><ele>2852.0</ele></trkpt>
<trkpt lat="38.85421" lon="-104.97558"><ele>2852.0</ele></trkpt>
<trkpt lat="38.85415" lon="-104.97584"><ele>2852.0</ele></trkpt>
<trkpt lat="38.85397" lon="-104.97620"><ele>2852.0</ele></trkpt>
<trkpt lat="38.85376" lon="-104.97770"><ele>2848.0</ele></trkpt>
<trkpt lat="38.85376" lon="-104.97820"><ele>2849.0</ele></trkpt>
<trkpt lat="38.85370" lon="-104.97842"><ele>2851.0</ele></trkpt>
<trkpt lat="38.85356" lon="-104.97858"><ele>2855.0</ele></trkpt>
<trkpt lat="38.85350" lon="-104.97878"><ele>2857.0</ele></trkpt>
<trkpt lat="38.85329" lon="-104.97905"><ele>2861.0</ele></trkpt>
<trkpt lat="38.85324" lon="-104.97923"><ele>2861.0</ele></trkpt>
<trkpt lat="38.85314" lon="-104.97940"><ele>2862.0</ele></trkpt>
<trkpt lat="38.85298" lon="-104.97949"><ele>2866.0</ele></trkpt>
<trkpt lat="38.85281" lon="-104.97976"><ele>2870.0</ele></trkpt>
<trkpt lat="38.85264" lon="-104.97988"><ele>2873.0</ele></trkpt>
<trkpt lat="38.85256" lon="-104.97999"><ele>2874.0</ele></trkpt>
<trkpt lat="38.85219" lon="-104.98030"><ele>2878.0</ele></trkpt>
<trkpt lat="38.85205" lon="-104.98055"><ele>2882.0</ele></trkpt>
<trkpt lat="38.85191" lon="-104.98069"><ele>2883.0</ele></trkpt>
<trkpt lat="38.85182" lon="-104.98083"><ele>2885.0</ele></trkpt>
<trkpt lat="38.85172" lon="-104.98114"><ele>2886.0</ele></trkpt>
<trkpt lat="38.85163" lon="-104.98123"><ele>2886.0</ele></trkpt>
<trkpt lat="38.85139" lon="-104.98150"><ele>2886.0</ele></trkpt>
<trkpt lat="38.85125" lon="-104.98214"><ele>2885.0</ele></trkpt>
<trkpt lat="38.85133" lon="-104.98255"><ele>2888.0</ele></trkpt>
<trkpt lat="38.85131" lon="-104.98291"><ele>2892.0</ele></trkpt>
<trkpt lat="38.85086" lon="-104.98334"><ele>2903.0</ele></trkpt>
<trkpt lat="38.85063" lon="-104.98340"><ele>2908.0</ele></trkpt>
<trkpt lat="38.85010" lon="-104.98339"><ele>2916.0</ele></trkpt>
<trkpt lat="38.84967" lon="-104.98294"><ele>2917.0</ele></trkpt>
<trkpt lat="38.84954" lon="-104.98313"><ele>2917.0</ele></trkpt>
<trkpt lat="38.84945" lon="-104.98334"><ele>2917.0</ele></trkpt>
<trkpt lat="38.84938" lon="-104.98391"><ele>2922.0</ele></trkpt>
<trkpt lat="38.84931" lon="-104.98408"><ele>2920.0</ele></trkpt>
<trkpt lat="38.84943" lon="-104.98479"><ele>2925.0</ele></trkpt>
<trkpt lat="38.84938" lon="-104.98510"><ele>2924.0</ele></trkpt>
<trkpt lat="38.84940" lon="-104.98585"><ele>2923.0</ele></trkpt>
<trkpt lat="38.84960" lon="-104.98707"><ele>2921.0</ele></trkpt>
<trkpt lat="38.84974" lon="-104.98734"><ele>2923.0</ele></trkpt>
<trkpt lat="38.84985" lon="-104.98749"><ele>2925.0</ele></trkpt>
<trkpt lat="38.84989" lon="-104.98766"><ele>2925.0</ele></trkpt>
<trkpt lat="38.84990" lon="-104.98820"><ele>2924.0</ele></trkpt>
<trkpt lat="38.85008" lon="-104.98886"><ele>2929.0</ele></trkpt>
<trkpt lat="38.85006" lon="-104.98901"><ele>2930.0</ele></trkpt>
<trkpt lat="38.84959" lon="-104.98941"><ele>2929.0</ele></trkpt>
<trkpt lat="38.84942" lon="-104.98963"><ele>2928.0</ele></trkpt>
<trkpt lat="38.84935" lon="-104.98978"><ele>2928.0</ele></trkpt>
<trkpt lat="38.84942" lon="-104.99017"><ele>2936.0</ele></trkpt>
<trkpt lat="38.84942" lon="-104.99047"><ele>2941.0</ele></trkpt>
<trkpt lat="38.84937" lon="-104.99074"><ele>2946.0</ele></trkpt>
<trkpt lat="38.84904" lon="-104.99084"><ele>2940.0</ele></trkpt>
<trkpt lat="38.84894" lon="-104.99092"><ele>2938.0</ele></trkpt>
<trkpt lat="38.84897" lon="-104.99145"><ele>2945.0</ele></trkpt>
<trkpt lat="38.84895" lon="-104.99174"><ele>2948.0</ele></trkpt>
<trkpt lat="38.84878" lon="-104.99202"><ele>2946.0</ele></trkpt>
<trkpt lat="38.84864" lon="-104.99244"><ele>2946.0</ele></trkpt>
<trkpt lat="38.84866" lon="-104.99292"><ele>2947.0</ele></trkpt>
<trkpt lat="38.84875" lon="-104.99338"><ele>2947.0</ele></trkpt>
<trkpt lat="38.84873" lon="-104.99379"><ele>2950.0</ele></trkpt>
<trkpt lat="38.84875" lon="-104.99415"><ele>2956.0</ele></trkpt>
<trkpt lat="38.84871" lon="-104.99430"><ele>2956.0</ele></trkpt>
<trkpt lat="38.84856" lon="-104.99433"><ele>2955.0</ele></trkpt>
<trkpt lat="38.84840" lon="-104.99429"><ele>2953.0</ele></trkpt>
<trkpt lat="38.84830" lon="-104.99440"><ele>2954.0</ele></trkpt>
<trkpt lat="38.84824" lon="-104.99485"><ele>2959.0</ele></trkpt>
<trkpt lat="38.84827" lon="-104.99542"><ele>2967.0</ele></trkpt>
<trkpt lat="38.84813" lon="-104.99621"><ele>2976.0</ele></trkpt>
<trkpt lat="38.84823" lon="-104.99647"><ele>2979.0</ele></trkpt>
<trkpt lat="38.84813" lon="-104.99688"><ele>2984.0</ele></trkpt>
<trkpt lat="38.84816" lon="-104.99702"><ele>2986.0</ele></trkpt>
<trkpt lat="38.84815" lon="-104.99734"><ele>2990.0</ele></trkpt>
<trkpt lat="38.84808" lon="-104.99754"><ele>2992.0</ele></trkpt>
<trkpt lat="38.84796" lon="-104.99793"><ele>2995.0</ele></trkpt>
<trkpt lat="38.84806" lon="-104.99822"><ele>3000.0</ele></trkpt>
<trkpt lat="38.84788" lon="-104.99938"><ele>3016.0</ele></trkpt>
<trkpt lat="38.84780" lon="-104.99954"><ele>3018.0</ele></trkpt>
<trkpt lat="38.84771" lon="-104.99997"><ele>3024.0</ele></trkpt>
<trkpt lat="38.84773" lon="-105.00037"><ele>3030.0</ele></trkpt>
<trkpt lat="38.84764" lon="-105.00067"><ele>3033.0</ele></trkpt>
<trkpt lat="38.84741" lon="-105.00122"><ele>3041.0</ele></trkpt>
<trkpt lat="38.84708" lon="-105.00216"><ele>3054.0</ele></trkpt>
<trkpt lat="38.84724" lon="-105.00209"><ele>3058.0</ele></trkpt>
<trkpt lat="38.84709" lon="-105.00300"><ele>3070.0</ele></trkpt>
<trkpt lat="38.84674" lon="-105.00344"><ele>3071.0</ele></trkpt>
<trkpt lat="38.84662" lon="-105.00348"><ele>3070.0</ele></trkpt>
<trkpt lat="38.84657" lon="-105.00387"><ele>3073.0</ele></trkpt>
<trkpt lat="38.84645" lon="-105.00419"><ele>3074.0</ele></trkpt>
<trkpt lat="38.84664" lon="-105.00447"><ele>3081.0</ele></trkpt>
<trkpt lat="38.84693" lon="-105.00469"><ele>3085.0</ele></trkpt>
<trkpt lat="38.84697" lon="-105.00482"><ele>3086.0</ele></trkpt>
<trkpt lat="38.84750" lon="-105.00561"><ele>3092.0</ele></trkpt>
<trkpt lat="38.84753" lon="-105.00588"><ele>3097.0</ele></trkpt>
<trkpt lat="38.84759" lon="-105.00609"><ele>3099.0</ele></trkpt>
<trkpt lat="38.84750" lon="-105.00653"><ele>3102.0</ele></trkpt>
<trkpt lat="38.84743" lon="-105.00667"><ele>3103.0</ele></trkpt>
<trkpt lat="38.84745" lon="-105.00685"><ele>3105.0</ele></trkpt>
<trkpt lat="38.84729" lon="-105.00717"><ele>3111.0</ele></trkpt>
<trkpt lat="38.84703" lon="-105.00737"><ele>3114.0</ele></trkpt>
<trkpt lat="38.84696" lon="-105.00752"><ele>3115.0</ele></trkpt>
<trkpt lat="38.84656" lon="-105.00761"><ele>3115.0</ele></trkpt>
<trkpt lat="38.84631" lon="-105.00774"><ele>3117.0</ele></trkpt>
<trkpt lat="38.84637" lon="-105.00814"><ele>3122.0</ele></trkpt>
<trkpt lat="38.84625" lon="-105.00832"><ele>3125.0</ele></trkpt>
<trkpt lat="38.84591" lon="-105.00906"><ele>3139.0</ele></trkpt>
<trkpt lat="38.84578" lon="-105.00916"><ele>3141.0</ele></trkpt>
<trkpt lat="38.84598" lon="-105.00948"><ele>3147.0</ele></trkpt>
<trkpt lat="38.84584" lon="-105.00961"><ele>3149.0</ele></trkpt>
<trkpt lat="38.84570" lon="-105.00991"><ele>3153.0</ele></trkpt>
<trkpt lat="38.84555" lon="-105.01009"><ele>3155.0</ele></trkpt>
<trkpt lat="38.84567" lon="-105.01033"><ele>3159.0</ele></trkpt>
<trkpt lat="38.84529" lon="-105.01065"><ele>3163.0</ele></trkpt>
<trkpt lat="38.84524" lon="-105.01089"><ele>3165.0</ele></trkpt>
<trkpt lat="38.84530" lon="-105.01114"><ele>3165.0</ele></trkpt>
<trkpt lat="38.84546" lon="-105.01141"><ele>3169.0</ele></trkpt>
<trkpt lat="38.84571" lon="-105.01171"><ele>3175.0</ele></trkpt>
<trkpt lat="38.84585" lon="-105.01164"><ele>3176.0</ele></trkpt>
<trkpt lat="38.84610" lon="-105.01168"><ele>3178.0</ele></trkpt>
<trkpt lat="38.84640" lon="-105.01193"><ele>3184.0</ele></trkpt>
<trkpt lat="38.84672" lon="-105.01260"><ele>3193.0</ele></trkpt>
<trkpt lat="38.84681" lon="-105.01332"><ele>3206.0</ele></trkpt>
<trkpt lat="38.84732" lon="-105.01336"><ele>3205.0</ele></trkpt>
<trkpt lat="38.84762" lon="-105.01353"><ele>3209.0</ele></trkpt>
<trkpt lat="38.84742" lon="-105.01365"><ele>3212.0</ele></trkpt>
<trkpt lat="38.84702" lon="-105.01402"><ele>3221.0</ele></trkpt>
<trkpt lat="38.84690" lon="-105.01425"><ele>3226.0</ele></trkpt>
<trkpt lat="38.84661" lon="-105.01456"><ele>3233.0</ele></trkpt>
<trkpt lat="38.84636" lon="-105.01459"><ele>3233.0</ele></trkpt>
<trkpt lat="38.84647" lon="-105.01470"><ele>3235.0</ele></trkpt>
<trkpt lat="38.84672" lon="-105.01483"><ele>3240.0</ele></trkpt>
<trkpt lat="38.84718" lon="-105.01493"><ele>3245.0</ele></trkpt>
<trkpt lat="38.84745" lon="-105.01507"><ele>3247.0</ele></trkpt>
<trkpt lat="38.84799" lon="-105.01544"><ele>3261.0</ele></trkpt>
<trkpt lat="38.84865" lon="-105.01572"><ele>3269.0</ele></trkpt>
<trkpt lat="38.84960" lon="-105.01656"><ele>3285.0</ele></trkpt>
<trkpt lat="38.84984" lon="-105.01672"><ele>3289.0</ele></trkpt>
<trkpt lat="38.85011" lon="-105.01701"><ele>3297.0</ele></trkpt>
<trkpt lat="38.85031" lon="-105.01714"><ele>3298.0</ele></trkpt>
<trkpt lat="38.84968" lon="-105.01703"><ele>3305.0</ele></trkpt>
<trkpt lat="38.84876" lon="-105.01703"><ele>3318.0</ele></trkpt>
<trkpt lat="38.84793" lon="-105.01731"><ele>3338.0</ele></trkpt>
<trkpt lat="38.84776" lon="-105.01731"><ele>3338.0</ele></trkpt>
<trkpt lat="38.84762" lon="-105.01737"><ele>3342.0</ele></trkpt>
<trkpt lat="38.84708" lon="-105.01746"><ele>3348.0</ele></trkpt>
<trkpt lat="38.84654" lon="-105.01769"><ele>3356.0</ele></trkpt>
<trkpt lat="38.84620" lon="-105.01795"><ele>3365.0</ele></trkpt>
<trkpt lat="38.84553" lon="-105.01833"><ele>3374.0</ele></trkpt>
<trkpt lat="38.84537" lon="-105.01848"><ele>3378.0</ele></trkpt>
<trkpt lat="38.84523" lon="-105.01868"><ele>3383.0</ele></trkpt>
<trkpt lat="38.84495" lon="-105.01884"><ele>3386.0</ele></trkpt>
<trkpt lat="38.84456" lon="-105.01913"><ele>3392.0</ele></trkpt>
<trkpt lat="38.84421" lon="-105.01966"><ele>3407.0</ele></trkpt>
<trkpt lat="38.84401" lon="-105.01987"><ele>3414.0</ele></trkpt>
<trkpt lat="38.84357" lon="-105.02005"><ele>3419.0</ele></trkpt>
<trkpt lat="38.84339" lon="-105.02021"><ele>3427.0</ele></trkpt>
<trkpt lat="38.84298" lon="-105.02074"><ele>3445.0</ele></trkpt>
<trkpt lat="38.84226" lon="-105.02125"><ele>3457.0</ele></trkpt>
<trkpt lat="38.84281" lon="-105.02135"><ele>3460.0</ele></trkpt>
<trkpt lat="38.84370" lon="-105.02121"><ele>3475.0</ele></trkpt>
<trkpt lat="38.84329" lon="-105.02147"><ele>3473.0</ele></trkpt>
<trkpt lat="38.84279" lon="-105.02193"><ele>3481.0</ele></trkpt>
<trkpt lat="38.84263" lon="-105.02197"><ele>3479.0</ele></trkpt>
<trkpt lat="38.84239" lon="-105.02238"><ele>3492.0</ele></trkpt>
<trkpt lat="38.84214" lon="-105.02265"><ele>3498.0</ele></trkpt>
<trkpt lat="38.84184" lon="-105.02287"><ele>3503.0</ele></trkpt>
<trkpt lat="38.84201" lon="-105.02290"><ele>3506.0</ele></trkpt>
<trkpt lat="38.84256" lon="-105.02279"><ele>3511.0</ele></trkpt>
<trkpt lat="38.84289" lon="-105.02264"><ele>3515.0</ele></trkpt>
<trkpt lat="38.84344" lon="-105.02246"><ele>3524.0</ele></trkpt>
<trkpt lat="38.84326" lon="-105.02272"><ele>3530.0</ele></trkpt>
<trkpt lat="38.84307" lon="-105.02291"><ele>3532.0</ele></trkpt>
<trkpt lat="38.84290" lon="-105.02316"><ele>3537.0</ele></trkpt>
<trkpt lat="38.84246" lon="-105.02365"><ele>3545.0</ele></trkpt>
<trkpt lat="38.84207" lon="-105.02425"><ele>3558.0</ele></trkpt>
<trkpt lat="38.84236" lon="-105.02423"><ele>3564.0</ele></trkpt>
<trkpt lat="38.84219" lon="-105.02445"><ele>3570.0</ele></trkpt>
<trkpt lat="38.84244" lon="-105.02433"><ele>3572.0</ele></trkpt>
<trkpt lat="38.84267" lon="-105.02411"><ele>3568.0</ele></trkpt>
<trkpt lat="38.84284" lon="-105.02411"><ele>3573.0</ele></trkpt>
<trkpt lat="38.84308" lon="-105.02403"><ele>3576.0</ele></trkpt>
<trkpt lat="38.84291" lon="-105.02429"><ele>3582.0</ele></trkpt>
<trkpt lat="38.84268" lon="-105.02472"><ele>3593.0</ele></trkpt>
<trkpt lat="38.84248" lon="-105.02496"><ele>3596.0</ele></trkpt>
<trkpt lat="38.84237" lon="-105.02521"><ele>3602.0</ele></trkpt>
<trkpt lat="38.84199" lon="-105.02560"><ele>3602.0</ele></trkpt>
<trkpt lat="38.84235" lon="-105.02551"><ele>3612.0</ele></trkpt>
<trkpt lat="38.84229" lon="-105.02575"><ele>3617.0</ele></trkpt>
<trkpt lat="38.84217" lon="-105.02595"><ele>3619.0</ele></trkpt>
<trkpt lat="38.84257" lon="-105.02591"><ele>3631.0</ele></trkpt>
<trkpt lat="38.84240" lon="-105.02611"><ele>3631.0</ele></trkpt>
<trkpt lat="38.84257" lon="-105.02615"><ele>3637.0</ele></trkpt>
<trkpt lat="38.84242" lon="-105.02638"><ele>3638.0</ele></trkpt>
<trkpt lat="38.84226" lon="-105.02673"><ele>3643.0</ele></trkpt>
<trkpt lat="38.84248" lon="-105.02663"><ele>3647.0</ele></trkpt>
<trkpt lat="38.84238" lon="-105.02687"><ele>3649.0</ele></trkpt>
<trkpt lat="38.84273" lon="-105.02663"><ele>3653.0</ele></trkpt>
<trkpt lat="38.84287" lon="-105.02652"><ele>3655.0</ele></trkpt>
<trkpt lat="38.84302" lon="-105.02639"><ele>3657.0</ele></trkpt>
<trkpt lat="38.84306" lon="-105.02666"><ele>3664.0</ele></trkpt>
<trkpt lat="38.84285" lon="-105.02734"><ele>3674.0</ele></trkpt>
<trkpt lat="38.84326" lon="-105.02694"><ele>3681.0</ele></trkpt>
<trkpt lat="38.84340" lon="-105.02688"><ele>3685.0</ele></trkpt>
<trkpt lat="38.84383" lon="-105.02658"><ele>3691.0</ele></trkpt>
<trkpt lat="38.84378" lon="-105.02681"><ele>3697.0</ele></trkpt>
<trkpt lat="38.84402" lon="-105.02653"><ele>3696.0</ele></trkpt>
<trkpt lat="38.84415" lon="-105.02642"><ele>3696.0</ele></trkpt>
<trkpt lat="38.84426" lon="-105.02638"><ele>3698.0</ele></trkpt>
<trkpt lat="38.84461" lon="-105.02608"><ele>3697.0</ele></trkpt>
<trkpt lat="38.84495" lon="-105.02613"><ele>3706.0</ele></trkpt>
<trkpt lat="38.84517" lon="-105.02624"><ele>3710.0</ele></trkpt>
<trkpt lat="38.84486" lon="-105.02640"><ele>3712.0</ele></trkpt>
<trkpt lat="38.84467" lon="-105.02650"><ele>3712.0</ele></trkpt>
<trkpt lat="38.84420" lon="-105.02708"><ele>3721.0</ele></trkpt>
<trkpt lat="38.84405" lon="-105.02738"><ele>3726.0</ele></trkpt>
<trkpt lat="38.84406" lon="-105.02757"><ele>3731.0</ele></trkpt>
<trkpt lat="38.84439" lon="-105.02736"><ele>3735.0</ele></trkpt>
<trkpt lat="38.84434" lon="-105.02753"><ele>3740.0</ele></trkpt>
<trkpt lat="38.84421" lon="-105.02772"><ele>3740.0</ele></trkpt>
<trkpt lat="38.84452" lon="-105.02756"><ele>3746.0</ele></trkpt>
<trkpt lat="38.84438" lon="-105.02789"><ele>3752.0</ele></trkpt>
<trkpt lat="38.84470" lon="-105.02770"><ele>3755.0</ele></trkpt>
<trkpt lat="38.84495" lon="-105.02760"><ele>3755.0</ele></trkpt>
<trkpt lat="38.84517" lon="-105.02760"><ele>3758.0</ele></trkpt>
<trkpt lat="38.84537" lon="-105.02764"><ele>3762.0</ele></trkpt>
<trkpt lat="38.84533" lon="-105.02784"><ele>3770.0</ele></trkpt>
<trkpt lat="38.84516" lon="-105.02795"><ele>3771.0</ele></trkpt>
<trkpt lat="38.84503" lon="-105.02811"><ele>3775.0</ele></trkpt>
<trkpt lat="38.84518" lon="-105.02814"><ele>3779.0</ele></trkpt>
<trkpt lat="38.84510" lon="-105.02824"><ele>3781.0</ele></trkpt>
<trkpt lat="38.84524" lon="-105.02823"><ele>3784.0</ele></trkpt>
<trkpt lat="38.84501" lon="-105.02840"><ele>3785.0</ele></trkpt>
<trkpt lat="38.84500" lon="-105.02860"><ele>3792.0</ele></trkpt>
<trkpt lat="38.84492" lon="-105.02899"><ele>3798.0</ele></trkpt>
<trkpt lat="38.84488" lon="-105.02933"><ele>3803.0</ele></trkpt>
<trkpt lat="38.84491" lon="-105.02950"><ele>3807.0</ele></trkpt>
<trkpt lat="38.84490" lon="-105.02970"><ele>3811.0</ele></trkpt>
<trkpt lat="38.84474" lon="-105.02993"><ele>3813.0</ele></trkpt>
<trkpt lat="38.84480" lon="-105.03014"><ele>3816.0</ele></trkpt>
<trkpt lat="38.84490" lon="-105.03026"><ele>3819.0</ele></trkpt>
<trkpt lat="38.84477" lon="-105.03064"><ele>3820.0</ele></trkpt>
<trkpt lat="38.84502" lon="-105.03053"><ele>3824.0</ele></trkpt>
<trkpt lat="38.84524" lon="-105.03047"><ele>3828.0</ele></trkpt>
<trkpt lat="38.84552" lon="-105.03026"><ele>3830.0</ele></trkpt>
<trkpt lat="38.84488" lon="-105.03106"><ele>3834.0</ele></trkpt>
<trkpt lat="38.84596" lon="-105.03074"><ele>3850.0</ele></trkpt>
<trkpt lat="38.84638" lon="-105.03068"><ele>3858.0</ele></trkpt>
<trkpt lat="38.84665" lon="-105.03049"><ele>3856.0</ele></trkpt>
<trkpt lat="38.84696" lon="-105.03047"><ele>3859.0</ele></trkpt>
<trkpt lat="38.84696" lon="-105.03064"><ele>3863.0</ele></trkpt>
<trkpt lat="38.84724" lon="-105.03068"><ele>3866.0</ele></trkpt>
<trkpt lat="38.84692" lon="-105.03103"><ele>3873.0</ele></trkpt>
<trkpt lat="38.84649" lon="-105.03161"><ele>3880.0</ele></trkpt>
<trkpt lat="38.84627" lon="-105.03177"><ele>3882.0</ele></trkpt>
<trkpt lat="38.84615" lon="-105.03194"><ele>3887.0</ele></trkpt>
<trkpt lat="38.84600" lon="-105.03209"><ele>3893.0</ele></trkpt>
<trkpt lat="38.84609" lon="-105.03238"><ele>3903.0</ele></trkpt>
<trkpt lat="38.84620" lon="-105.03249"><ele>3907.0</ele></trkpt>
<trkpt lat="38.84594" lon="-105.03263"><ele>3909.0</ele></trkpt>
<trkpt lat="38.84576" lon="-105.03266"><ele>3910.0</ele></trkpt>
<trkpt lat="38.84549" lon="-105.03301"><ele>3926.0</ele></trkpt>
<trkpt lat="38.84504" lon="-105.03332"><ele>3929.0</ele></trkpt>
<trkpt lat="38.84517" lon="-105.03335"><ele>3935.0</ele></trkpt>
<trkpt lat="38.84437" lon="-105.03360"><ele>3927.0</ele></trkpt>
<trkpt lat="38.84424" lon="-105.03372"><ele>3931.0</ele></trkpt>
<trkpt lat="38.84445" lon="-105.03374"><ele>3938.0</ele></trkpt>
<trkpt lat="38.84404" lon="-105.03406"><ele>3947.0</ele></trkpt>
<trkpt lat="38.84371" lon="-105.03446"><ele>3961.0</ele></trkpt>
<trkpt lat="38.84301" lon="-105.03497"><ele>3964.0</ele></trkpt>
<trkpt lat="38.84263" lon="-105.03519"><ele>3968.0</ele></trkpt>
<trkpt lat="38.84249" lon="-105.03543"><ele>3976.0</ele></trkpt>
<trkpt lat="38.84224" lon="-105.03566"><ele>3979.0</ele></trkpt>
<trkpt lat="38.84182" lon="-105.03614"><ele>3989.0</ele></trkpt>
<trkpt lat="38.84173" lon="-105.03622"><ele>3991.0</ele></trkpt>
<trkpt lat="38.84154" lon="-105.03631"><ele>3992.0</ele></trkpt>
<trkpt lat="38.84065" lon="-105.03689"><ele>4007.0</ele></trkpt>
<trkpt lat="38.84028" lon="-105.03703"><ele>4013.0</ele></trkpt>
<trkpt lat="38.83995" lon="-105.03702"><ele>4012.0</ele></trkpt>
<trkpt lat="38.83978" lon="-105.03695"><ele>4015.0</ele></trkpt>
<trkpt lat="38.83958" lon="-105.03682"><ele>4018.0</ele></trkpt>
<trkpt lat="38.83938" lon="-105.03676"><ele>4021.0</ele></trkpt>
<trkpt lat="38.83877" lon="-105.03628"><ele>4020.0</ele></trkpt>
<trkpt lat="38.83867" lon="-105.03623"><ele>4018.0</ele></trkpt>
<trkpt lat="38.83853" lon="-105.03622"><ele>4013.0</ele></trkpt>
<trkpt lat="38.83895" lon="-105.03707"><ele>4043.0</ele></trkpt>
<trkpt lat="38.83856" lon="-105.03675"><ele>4036.0</ele></trkpt>
<trkpt lat="38.83833" lon="-105.03652"><ele>4021.0</ele></trkpt>
<trkpt lat="38.83836" lon="-105.03673"><ele>4032.0</ele></trkpt>
<trkpt lat="38.83889" lon="-105.03745"><ele>4064.0</ele></trkpt>
<trkpt lat="38.83872" lon="-105.03735"><ele>4062.0</ele></trkpt>
<trkpt lat="38.83876" lon="-105.03749"><ele>4068.0</ele></trkpt>
<trkpt lat="38.83893" lon="-105.03779"><ele>4083.0</ele></trkpt>
<trkpt lat="38.83879" lon="-105.03774"><ele>4081.0</ele></trkpt>
<trkpt lat="38.83908" lon="-105.03802"><ele>4086.0</ele></trkpt>
<trkpt lat="38.83888" lon="-105.03798"><ele>4091.0</ele></trkpt>
<trkpt lat="38.83926" lon="-105.03834"><ele>4092.0</ele></trkpt>
<trkpt lat="38.83938" lon="-105.03853"><ele>4094.0</ele></trkpt>
<trkpt lat="38.83956" lon="-105.03892"><ele>4106.0</ele></trkpt>
<trkpt lat="38.83971" lon="-105.03903"><ele>4108.0</ele></trkpt>
<trkpt lat="38.84047" lon="-105.03918"><ele>4123.0</ele></trkpt>
<trkpt lat="38.84074" lon="-105.03921"><ele>4127.0</ele></trkpt>
<trkpt lat="38.84146" lon="-105.03918"><ele>4150.0</ele></trkpt>
<trkpt lat="38.84116" lon="-105.03940"><ele>4149.0</ele></trkpt>
<trkpt lat="38.84092" lon="-105.03952"><ele>4146.0</ele></trkpt>
<trkpt lat="38.84049" lon="-105.03966"><ele>4148.0</ele></trkpt>
<trkpt lat="38.83997" lon="-105.03977"><ele>4151.0</ele></trkpt>
<trkpt lat="38.83975" lon="-105.03991"><ele>4156.0</ele></trkpt>
<trkpt lat="38.83947" lon="-105.03987"><ele>4154.0</ele></trkpt>
<trkpt lat="38.83929" lon="-105.03975"><ele>4152.0</ele></trkpt>
<trkpt lat="38.83963" lon="-105.04009"><ele>4166.0</ele></trkpt>
<trkpt lat="38.83975" lon="-105.04012"><ele>4167.0</ele></trkpt>
<trkpt lat="38.84004" lon="-105.04003"><ele>4162.0</ele></trkpt>
<trkpt lat="38.84008" lon="-105.04016"><ele>4169.0</ele></trkpt>
<trkpt lat="38.83999" lon="-105.04028"><ele>4172.0</ele></trkpt>
<trkpt lat="38.84023" lon="-105.04028"><ele>4181.0</ele></trkpt>
<trkpt lat="38.84012" lon="-105.04040"><ele>4191.0</ele></trkpt>
<trkpt lat="38.83999" lon="-105.04053"><ele>4203.0</ele></trkpt>
<trkpt lat="38.84025" lon="-105.04055"><ele>4213.0</ele></trkpt>
<trkpt lat="38.84043" lon="-105.04045"><ele>4207.0</ele></trkpt>
<trkpt lat="38.84075" lon="-105.04038"><ele>4212.0</ele></trkpt>
<trkpt lat="38.84087" lon="-105.04045"><ele>4221.0</ele></trkpt>
<trkpt lat="38.84106" lon="-105.04042"><ele>4227.0</ele></trkpt>
<trkpt lat="38.84123" lon="-105.04036"><ele>4228.0</ele></trkpt>
<trkpt lat="38.84139" lon="-105.04036"><ele>4231.0</ele></trkpt>
<trkpt lat="38.84139" lon="-105.04053"><ele>4240.0</ele></trkpt>
<trkpt lat="38.84119" lon="-105.04074"><ele>4246.0</ele></trkpt>
<trkpt lat="38.84134" lon="-105.04072"><ele>4248.0</ele></trkpt>
<trkpt lat="38.84107" lon="-105.04089"><ele>4249.0</ele></trkpt>
<trkpt lat="38.84136" lon="-105.04091"><ele>4255.0</ele></trkpt>
<trkpt lat="38.84129" lon="-105.04102"><ele>4256.0</ele></trkpt>
<trkpt lat="38.84112" lon="-105.04107"><ele>4255.0</ele></trkpt>
<trkpt lat="38.84102" lon="-105.04119"><ele>4259.0</ele></trkpt>
<trkpt lat="38.84112" lon="-105.04107"><ele>4255.0</ele></trkpt>
<trkpt lat="38.84129" lon="-105.04102"><ele>4256.0</ele></trkpt>
<trkpt lat="38.84136" lon="-105.04091"><ele>4255.0</ele></trkpt>
<trkpt lat="38.84107" lon="-105.04089"><ele>4249.0</ele></trkpt>
<trkpt lat="38.84134" lon="-105.04072"><ele>4248.0</ele></trkpt>
<trkpt lat="38.84119" lon="-105.04074"><ele>4246.0</ele></trkpt>
<trkpt lat="38.84139" lon="-105.04053"><ele>4240.0</ele></trkpt>
<trkpt lat="38.84139" lon="-105.04036"><ele>4231.0</ele></trkpt>
<trkpt lat="38.84123" lon="-105.04036"><ele>4228.0</ele></trkpt>
<trkpt lat="38.84106" lon="-105.04042"><ele>4227.0</ele></trkpt>
<trkpt lat="38.84087" lon="-105.04045"><ele>4221.0</ele></trkpt>
<trkpt lat="38.84075" lon="-105.04038"><ele>4212.0</ele></trkpt>
<trkpt lat="38.84043" lon="-105.04045"><ele>4207.0</ele></trkpt>
<trkpt lat="38.84025" lon="-105.04055"><ele>4213.0</ele></trkpt>
<trkpt lat="38.83999" lon="-105.04053"><ele>4203.0</ele></trkpt>
<trkpt lat="38.84012" lon="-105.04040"><ele>4191.0</ele></trkpt>
<trkpt lat="38.84023" lon="-105.04028"><ele>4181.0</ele></trkpt>
<trkpt lat="38.83999" lon="-105.04028"><ele>4172.0</ele></trkpt>
<trkpt lat="38.84008" lon="-105.04016"><ele>4169.0</ele></trkpt>
<trkpt lat="38.84004" lon="-105.04003"><ele>4162.0</ele></trkpt>
<trkpt lat="38.83975" lon="-105.04012"><ele>4167.0</ele></trkpt>
<trkpt lat="38.83963" lon="-105.04009"><ele>4166.0</ele></trkpt>
<trkpt lat="38.83929" lon="-105.03975"><ele>4152.0</ele></trkpt>
<trkpt lat="38.83947" lon="-105.03987"><ele>4154.0</ele></trkpt>
<trkpt lat="38.83975" lon="-105.03991"><ele>4156.0</ele></trkpt>
<trkpt lat="38.83997" lon="-105.03977"><ele>4151.0</ele></trkpt>
<trkpt lat="38.84049" lon="-105.03966"><ele>4148.0</ele></trkpt>
<trkpt lat="38.84092" lon="-105.03952"><ele>4146.0</ele></trkpt>
<trkpt lat="38.84116" lon="-105.03940"><ele>4149.0</ele></trkpt>
<trkpt lat="38.84146" lon="-105.03918"><ele>4150.0</ele></trkpt>
<trkpt lat="38.84074" lon="-105.03921"><ele>4127.0</ele></trkpt>
<trkpt lat="38.84047" lon="-105.03918"><ele>4123.0</ele></trkpt>
<trkpt lat="38.83971" lon="-105.03903"><ele>4108.0</ele></trkpt>
<trkpt lat="38.83956" lon="-105.03892"><ele>4106.0</ele></trkpt>
<trkpt lat="38.83938" lon="-105.03853"><ele>4094.0</ele></trkpt>
<trkpt lat="38.83926" lon="-105.03834"><ele>4092.0</ele></trkpt>
<trkpt lat="38.83888" lon="-105.03798"><ele>4091.0</ele></trkpt>
<trkpt lat="38.83908" lon="-105.03802"><ele>4086.0</ele></trkpt>
<trkpt lat="38.83879" lon="-105.03774"><ele>4081.0</ele></trkpt>
<trkpt lat="38.83893" lon="-105.03779"><ele>4083.0</ele></trkpt>
<trkpt lat="38.83876" lon="-105.03749"><ele>4068.0</ele></trkpt>
<trkpt lat="38.83872" lon="-105.03735"><ele>4062.0</ele></trkpt>
<trkpt lat="38.83889" lon="-105.03745"><ele>4064.0</ele></trkpt>
<trkpt lat="38.83836" lon="-105.03673"><ele>4032.0</ele></trkpt>
<trkpt lat="38.83833" lon="-105.03652"><ele>4021.0</ele></trkpt>
<trkpt lat="38.83856" lon="-105.03675"><ele>4036.0</ele></trkpt>
<trkpt lat="38.83895" lon="-105.03707"><ele>4043.0</ele></trkpt>
<trkpt lat="38.83853" lon="-105.03622"><ele>4013.0</ele></trkpt>
<trkpt lat="38.83867" lon="-105.03623"><ele>4018.0</ele></trkpt>
<trkpt lat="38.83877" lon="-105.03628"><ele>4020.0</ele></trkpt>
<trkpt lat="38.83938" lon="-105.03676"><ele>4021.0</ele></trkpt>
<trkpt lat="38.83958" lon="-105.03682"><ele>4018.0</ele></trkpt>
<trkpt lat="38.83978" lon="-105.03695"><ele>4015.0</ele></trkpt>
<trkpt lat="38.83995" lon="-105.03702"><ele>4012.0</ele></trkpt>
<trkpt lat="38.84028" lon="-105.03703"><ele>4013.0</ele></trkpt>
<trkpt lat="38.84065" lon="-105.03689"><ele>4007.0</ele></trkpt>
<trkpt lat="38.84154" lon="-105.03631"><ele>3992.0</ele></trkpt>
<trkpt lat="38.84173" lon="-105.03622"><ele>3991.0</ele></trkpt>
<trkpt lat="38.84182" lon="-105.03614"><ele>3989.0</ele></trkpt>
<trkpt lat="38.84224" lon="-105.03566"><ele>3979.0</ele></trkpt>
<trkpt lat="38.84249" lon="-105.03543"><ele>3976.0</ele></trkpt>
<trkpt lat="38.84263" lon="-105.03519"><ele>3968.0</ele></trkpt>
<trkpt lat="38.84301" lon="-105.03497"><ele>3964.0</ele></trkpt>
<trkpt lat="38.84371" lon="-105.03446"><ele>3961.0</ele></trkpt>
<trkpt lat="38.84404" lon="-105.03406"><ele>3947.0</ele></trkpt>
<trkpt lat="38.84445" lon="-105.03374"><ele>3938.0</ele></trkpt>
<trkpt lat="38.84424" lon="-105.03372"><ele>3931.0</ele></trkpt>
<trkpt lat="38.84437" lon="-105.03360"><ele>3927.0</ele></trkpt>
<trkpt lat="38.84517" lon="-105.03335"><ele>3935.0</ele></trkpt>
<trkpt lat="38.84504" lon="-105.03332"><ele>3929.0</ele></trkpt>
<trkpt lat="38.84549" lon="-105.03301"><ele>3926.0</ele></trkpt>
<trkpt lat="38.84576" lon="-105.03266"><ele>3910.0</ele></trkpt>
<trkpt lat="38.84594" lon="-105.03263"><ele>3909.0</ele></trkpt>
<trkpt lat="38.84620" lon="-105.03249"><ele>3907.0</ele></trkpt>
<trkpt lat="38.84609" lon="-105.03238"><ele>3903.0</ele></trkpt>
<trkpt lat="38.84600" lon="-105.03209"><ele>3893.0</ele></trkpt>
<trkpt lat="38.84615" lon="-105.03194"><ele>3887.0</ele></trkpt>
<trkpt lat="38.84627" lon="-105.03177"><ele>3882.0</ele></trkpt>
<trkpt lat="38.84649" lon="-105.03161"><ele>3880.0</ele></trkpt>
<trkpt lat="38.84692" lon="-105.03103"><ele>3873.0</ele></trkpt>
<trkpt lat="38.84724" lon="-105.03068"><ele>3866.0</ele></trkpt>
<trkpt lat="38.84696" lon="-105.03064"><ele>3863.0</ele></trkpt>
<trkpt lat="38.84696" lon="-105.03047"><ele>3859.0</ele></trkpt>
<trkpt lat="38.84665" lon="-105.03049"><ele>3856.0</ele></trkpt>
<trkpt lat="38.84638" lon="-105.03068"><ele>3858.0</ele></trkpt>
<trkpt lat="38.84596" lon="-105.03074"><ele>3850.0</ele></trkpt>
<trkpt lat="38.84488" lon="-105.03106"><ele>3834.0</ele></trkpt>
<trkpt lat="38.84552" lon="-105.03026"><ele>3830.0</ele></trkpt>
<trkpt lat="38.84524" lon="-105.03047"><ele>3828.0</ele></trkpt>
<trkpt lat="38.84502" lon="-105.03053"><ele>3824.0</ele></trkpt>
<trkpt lat="38.84477" lon="-105.03064"><ele>3820.0</ele></trkpt>
<trkpt lat="38.84490" lon="-105.03026"><ele>3819.0</ele></trkpt>
<trkpt lat="38.84480" lon="-105.03014"><ele>3816.0</ele></trkpt>
<trkpt lat="38.84474" lon="-105.02993"><ele>3813.0</ele></trkpt>
<trkpt lat="38.84490" lon="-105.02970"><ele>3811.0</ele></trkpt>
<trkpt lat="38.84491" lon="-105.02950"><ele>3807.0</ele></trkpt>
<trkpt lat="38.84488" lon="-105.02933"><ele>3803.0</ele></trkpt>
<trkpt lat="38.84492" lon="-105.02899"><ele>3798.0</ele></trkpt>
<trkpt lat="38.84500" lon="-105.02860"><ele>3792.0</ele></trkpt>
<trkpt lat="38.84501" lon="-105.02840"><ele>3785.0</ele></trkpt>
<trkpt lat="38.84524" lon="-105.02823"><ele>3784.0</ele></trkpt>
<trkpt lat="38.84510" lon="-105.02824"><ele>3781.0</ele></trkpt>
<trkpt lat="38.84518" lon="-105.02814"><ele>3779.0</ele></trkpt>
<trkpt lat="38.84503" lon="-105.02811"><ele>3775.0</ele></trkpt>
<trkpt lat="38.84516" lon="-105.02795"><ele>3771.0</ele></trkpt>
<trkpt lat="38.84533" lon="-105.02784"><ele>3770.0</ele></trkpt>
<trkpt lat="38.84537" lon="-105.02764"><ele>3762.0</ele></trkpt>
<trkpt lat="38.84517" lon="-105.02760"><ele>3758.0</ele></trkpt>
<trkpt lat="38.84495" lon="-105.02760"><ele>3755.0</ele></trkpt>
<trkpt lat="38.84470" lon="-105.02770"><ele>3755.0</ele></trkpt>
<trkpt lat="38.84438" lon="-105.02789"><ele>3752.0</ele></trkpt>
<trkpt lat="38.84452" lon="-105.02756"><ele>3746.0</ele></trkpt>
<trkpt lat="38.84421" lon="-105.02772"><ele>3740.0</ele></trkpt>
<trkpt lat="38.84434" lon="-105.02753"><ele>3740.0</ele></trkpt>
<trkpt lat="38.84439" lon="-105.02736"><ele>3735.0</ele></trkpt>
<trkpt lat="38.84406" lon="-105.02757"><ele>3731.0</ele></trkpt>
<trkpt lat="38.84405" lon="-105.02738"><ele>3726.0</ele></trkpt>
<trkpt lat="38.84420" lon="-105.02708"><ele>3721.0</ele></trkpt>
<trkpt lat="38.84467" lon="-105.02650"><ele>3712.0</ele></trkpt>
<trkpt lat="38.84486" lon="-105.02640"><ele>3712.0</ele></trkpt>
<trkpt lat="38.84517" lon="-105.02624"><ele>3710.0</ele></trkpt>
<trkpt lat="38.84495" lon="-105.02613"><ele>3706.0</ele></trkpt>
<trkpt lat="38.84461" lon="-105.02608"><ele>3697.0</ele></trkpt>
<trkpt lat="38.84426" lon="-105.02638"><ele>3698.0</ele></trkpt>
<trkpt lat="38.84415" lon="-105.02642"><ele>3696.0</ele></trkpt>
<trkpt lat="38.84402" lon="-105.02653"><ele>3696.0</ele></trkpt>
<trkpt lat="38.84378" lon="-105.02681"><ele>3697.0</ele></trkpt>
<trkpt lat="38.84383" lon="-105.02658"><ele>3691.0</ele></trkpt>
<trkpt lat="38.84340" lon="-105.02688"><ele>3685.0</ele></trkpt>
<trkpt lat="38.84326" lon="-105.02694"><ele>3681.0</ele></trkpt>
<trkpt lat="38.84285" lon="-105.02734"><ele>3674.0</ele></trkpt>
<trkpt lat="38.84306" lon="-105.02666"><ele>3664.0</ele></trkpt>
<trkpt lat="38.84302" lon="-105.02639"><ele>3657.0</ele></trkpt>
<trkpt lat="38.84287" lon="-105.02652"><ele>3655.0</ele></trkpt>
<trkpt lat="38.84273" lon="-105.02663"><ele>3653.0</ele></trkpt>
<trkpt lat="38.84238" lon="-105.02687"><ele>3649.0</ele></trkpt>
<trkpt lat="38.84248" lon="-105.02663"><ele>3647.0</ele></trkpt>
<trkpt lat="38.84226" lon="-105.02673"><ele>3643.0</ele></trkpt>
<trkpt lat="38.84242" lon="-105.02638"><ele>3638.0</ele></trkpt>
<trkpt lat="38.84257" lon="-105.02615"><ele>3637.0</ele></trkpt>
<trkpt lat="38.84240" lon="-105.02611"><ele>3631.0</ele></trkpt>
<trkpt lat="38.84257" lon="-105.02591"><ele>3631.0</ele></trkpt>
<trkpt lat="38.84217" lon="-105.02595"><ele>3619.0</ele></trkpt>
<trkpt lat="38.84229" lon="-105.02575"><ele>3617.0</ele></trkpt>
<trkpt lat="38.84235" lon="-105.02551"><ele>3612.0</ele></trkpt>
<trkpt lat="38.84199" lon="-105.02560"><ele>3602.0</ele></trkpt>
<trkpt lat="38.84237" lon="-105.02521"><ele>3602.0</ele></trkpt>
<trkpt lat="38.84248" lon="-105.02496"><ele>3596.0</ele></trkpt>
<trkpt lat="38.84268" lon="-105.02472"><ele>3593.0</ele></trkpt>
<trkpt lat="38.84291" lon="-105.02429"><ele>3582.0</ele></trkpt>
<trkpt lat="38.84308" lon="-105.02403"><ele>3576.0</ele></trkpt>
<trkpt lat="38.84284" lon="-105.02411"><ele>3573.0</ele></trkpt>
<trkpt lat="38.84267" lon="-105.02411"><ele>3568.0</ele></trkpt>
<trkpt lat="38.84244" lon="-105.02433"><ele>3572.0</ele></trkpt>
<trkpt lat="38.84219" lon="-105.02445"><ele>3570.0</ele></trkpt>
<trkpt lat="38.84236" lon="-105.02423"><ele>3564.0</ele></trkpt>
<trkpt lat="38.84207" lon="-105.02425"><ele>3558.0</ele></trkpt>
<trkpt lat="38.84246" lon="-105.02365"><ele>3545.0</ele></trkpt>
<trkpt lat="38.84290" lon="-105.02316"><ele>3537.0</ele></trkpt>
<trkpt lat="38.84307" lon="-105.02291"><ele>3532.0</ele></trkpt>
<trkpt lat="38.84326" lon="-105.02272"><ele>3530.0</ele></trkpt>
<trkpt lat="38.84344" lon="-105.02246"><ele>3524.0</ele></trkpt>
<trkpt lat="38.84289" lon="-105.02264"><ele>3515.0</ele></trkpt>
<trkpt lat="38.84256" lon="-105.02279"><ele>3511.0</ele></trkpt>
<trkpt lat="38.84201" lon="-105.02290"><ele>3506.0</ele></trkpt>
<trkpt lat="38.84184" lon="-105.02287"><ele>3503.0</ele></trkpt>
<trkpt lat="38.84214" lon="-105.02265"><ele>3498.0</ele></trkpt>
<trkpt lat="38.84239" lon="-105.02238"><ele>3492.0</ele></trkpt>
<trkpt lat="38.84263" lon="-105.02197"><ele>3479.0</ele></trkpt>
<trkpt lat="38.84279" lon="-105.02193"><ele>3481.0</ele></trkpt>
<trkpt lat="38.84329" lon="-105.02147"><ele>3473.0</ele></trkpt>
<trkpt lat="38.84370" lon="-105.02121"><ele>3475.0</ele></trkpt>
<trkpt lat="38.84281" lon="-105.02135"><ele>3460.0</ele></trkpt>
<trkpt lat="38.84226" lon="-105.02125"><ele>3457.0</ele></trkpt>
<trkpt lat="38.84298" lon="-105.02074"><ele>3445.0</ele></trkpt>
<trkpt lat="38.84339" lon="-105.02021"><ele>3427.0</ele></trkpt>
<trkpt lat="38.84357" lon="-105.02005"><ele>3419.0</ele></trkpt>
<trkpt lat="38.84401" lon="-105.01987"><ele>3414.0</ele></trkpt>
<trkpt lat="38.84421" lon="-105.01966"><ele>3407.0</ele></trkpt>
<trkpt lat="38.84456" lon="-105.01913"><ele>3392.0</ele></trkpt>
<trkpt lat="38.84495" lon="-105.01884"><ele>3386.0</ele></trkpt>
<trkpt lat="38.84523" lon="-105.01868"><ele>3383.0</ele></trkpt>
<trkpt lat="38.84537" lon="-105.01848"><ele>3378.0</ele></trkpt>
<trkpt lat="38.84553" lon="-105.01833"><ele>3374.0</ele></trkpt>
<trkpt lat="38.84620" lon="-105.01795"><ele>3365.0</ele></trkpt>
<trkpt lat="38.84654" lon="-105.01769"><ele>3356.0</ele></trkpt>
<trkpt lat="38.84708" lon="-105.01746"><ele>3348.0</ele></trkpt>
<trkpt lat="38.84762" lon="-105.01737"><ele>3342.0</ele></trkpt>
<trkpt lat="38.84776" lon="-105.01731"><ele>3338.0</ele></trkpt>
<trkpt lat="38.84793" lon="-105.01731"><ele>3338.0</ele></trkpt>
<trkpt lat="38.84876" lon="-105.01703"><ele>3318.0</ele></trkpt>
<trkpt lat="38.84968" lon="-105.01703"><ele>3305.0</ele></trkpt>
<trkpt lat="38.85031" lon="-105.01714"><ele>3298.0</ele></trkpt>
<trkpt lat="38.85011" lon="-105.01701"><ele>3297.0</ele></trkpt>
<trkpt lat="38.84984" lon="-105.01672"><ele>3289.0</ele></trkpt>
<trkpt lat="38.84960" lon="-105.01656"><ele>3285.0</ele></trkpt>
<trkpt lat="38.84865" lon="-105.01572"><ele>3269.0</ele></trkpt>
<trkpt lat="38.84799" lon="-105.01544"><ele>3261.0</ele></trkpt>
<trkpt lat="38.84745" lon="-105.01507"><ele>3247.0</ele></trkpt>
<trkpt lat="38.84718" lon="-105.01493"><ele>3245.0</ele></trkpt>
<trkpt lat="38.84672" lon="-105.01483"><ele>3240.0</ele></trkpt>
<trkpt lat="38.84647" lon="-105.01470"><ele>3235.0</ele></trkpt>
<trkpt lat="38.84636" lon="-105.01459"><ele>3233.0</ele></trkpt>
<trkpt lat="38.84661" lon="-105.01456"><ele>3233.0</ele></trkpt>
<trkpt lat="38.84690" lon="-105.01425"><ele>3226.0</ele></trkpt>
<trkpt lat="38.84702" lon="-105.01402"><ele>3221.0</ele></trkpt>
<trkpt lat="38.84742" lon="-105.01365"><ele>3212.0</ele></trkpt>
<trkpt lat="38.84762" lon="-105.01353"><ele>3209.0</ele></trkpt>
<trkpt lat="38.84732" lon="-105.01336"><ele>3205.0</ele></trkpt>
<trkpt lat="38.84681" lon="-105.01332"><ele>3206.0</ele></trkpt>
<trkpt lat="38.84672" lon="-105.01260"><ele>3193.0</ele></trkpt>
<trkpt lat="38.84640" lon="-105.01193"><ele>3184.0</ele></trkpt>
<trkpt lat="38.84610" lon="-105.01168"><ele>3178.0</ele></trkpt>
<trkpt lat="38.84585" lon="-105.01164"><ele>3176.0</ele></trkpt>
<trkpt lat="38.84571" lon="-105.01171"><ele>3175.0</ele></trkpt>
<trkpt lat="38.84546" lon="-105.01141"><ele>3169.0</ele></trkpt>
<trkpt lat="38.84530" lon="-105.01114"><ele>3165.0</ele></trkpt>
<trkpt lat="38.84524" lon="-105.01089"><ele>3165.0</ele></trkpt>
<trkpt lat="38.84529" lon="-105.01065"><ele>3163.0</ele></trkpt>
<trkpt lat="38.84567" lon="-105.01033"><ele>3159.0</ele></trkpt>
<trkpt lat="38.84555" lon="-105.01009"><ele>3155.0</ele></trkpt>
<trkpt lat="38.84570" lon="-105.00991"><ele>3153.0</ele></trkpt>
<trkpt lat="38.84584" lon="-105.00961"><ele>3149.0</ele></trkpt>
<trkpt lat="38.84598" lon="-105.00948"><ele>3147.0</ele></trkpt>
<trkpt lat="38.84578" lon="-105.00916"><ele>3141.0</ele></trkpt>
<trkpt lat="38.84591" lon="-105.00906"><ele>3139.0</ele></trkpt>
<trkpt lat="38.84625" lon="-105.00832"><ele>3125.0</ele></trkpt>
<trkpt lat="38.84637" lon="-105.00814"><ele>3122.0</ele></trkpt>
<trkpt lat="38.84631" lon="-105.00774"><ele>3117.0</ele></trkpt>
<trkpt lat="38.84656" lon="-105.00761"><ele>3115.0</ele></trkpt>
<trkpt lat="38.84696" lon="-105.00752"><ele>3115.0</ele></trkpt>
<trkpt lat="38.84703" lon="-105.00737"><ele>3114.0</ele></trkpt>
<trkpt lat="38.84729" lon="-105.00717"><ele>3111.0</ele></trkpt>
<trkpt lat="38.84745" lon="-105.00685"><ele>3105.0</ele></trkpt>
<trkpt lat="38.84743" lon="-105.00667"><ele>3103.0</ele></trkpt>
<trkpt lat="38.84750" lon="-105.00653"><ele>3102.0</ele></trkpt>
<trkpt lat="38.84759" lon="-105.00609"><ele>3099.0</ele></trkpt>
<trkpt lat="38.84753" lon="-105.00588"><ele>3097.0</ele></trkpt>
<trkpt lat="38.84750" lon="-105.00561"><ele>3092.0</ele></trkpt>
<trkpt lat="38.84697" lon="-105.00482"><ele>3086.0</ele></trkpt>
<trkpt lat="38.84693" lon="-105.00469"><ele>3085.0</ele></trkpt>
<trkpt lat="38.84664" lon="-105.00447"><ele>3081.0</ele></trkpt>
<trkpt lat="38.84645" lon="-105.00419"><ele>3074.0</ele></trkpt>
<trkpt lat="38.84657" lon="-105.00387"><ele>3073.0</ele></trkpt>
<trkpt lat="38.84662" lon="-105.00348"><ele>3070.0</ele></trkpt>
<trkpt lat="38.84674" lon="-105.00344"><ele>3071.0</ele></trkpt>
<trkpt lat="38.84709" lon="-105.00300"><ele>3070.0</ele></trkpt>
<trkpt lat="38.84724" lon="-105.00209"><ele>3058.0</ele></trkpt>
<trkpt lat="38.84708" lon="-105.00216"><ele>3054.0</ele></trkpt>
<trkpt lat="38.84741" lon="-105.00122"><ele>3041.0</ele></trkpt>
<trkpt lat="38.84764" lon="-105.00067"><ele>3033.0</ele></trkpt>
<trkpt lat="38.84773" lon="-105.00037"><ele>3030.0</ele></trkpt>
<trkpt lat="38.84771" lon="-104.99997"><ele>3024.0</ele></trkpt>
<trkpt lat="38.84780" lon="-104.99954"><ele>3018.0</ele></trkpt>
<trkpt lat="38.84788" lon="-104.99938"><ele>3016.0</ele></trkpt>
<trkpt lat="38.84806" lon="-104.99822"><ele>3000.0</ele></trkpt>
<trkpt lat="38.84796" lon="-104.99793"><ele>2995.0</ele></trkpt>
<trkpt lat="38.84808" lon="-104.99754"><ele>2992.0</ele></trkpt>
<trkpt lat="38.84815" lon="-104.99734"><ele>2990.0</ele></trkpt>
<trkpt lat="38.84816" lon="-104.99702"><ele>2986.0</ele></trkpt>
<trkpt lat="38.84813" lon="-104.99688"><ele>2984.0</ele></trkpt>
<trkpt lat="38.84823" lon="-104.99647"><ele>2979.0</ele></trkpt>
<trkpt lat="38.84813" lon="-104.99621"><ele>2976.0</ele></trkpt>
<trkpt lat="38.84827" lon="-104.99542"><ele>2967.0</ele></trkpt>
<trkpt lat="38.84824" lon="-104.99485"><ele>2959.0</ele></trkpt>
<trkpt lat="38.84830" lon="-104.99440"><ele>2954.0</ele></trkpt>
<trkpt lat="38.84840" lon="-104.99429"><ele>2953.0</ele></trkpt>
<trkpt lat="38.84856" lon="-104.99433"><ele>2955.0</ele></trkpt>
<trkpt lat="38.84871" lon="-104.99430"><ele>2956.0</ele></trkpt>
<trkpt lat="38.84875" lon="-104.99415"><ele>2956.0</ele></trkpt>
<trkpt lat="38.84873" lon="-104.99379"><ele>2950.0</ele></trkpt>
<trkpt lat="38.84875" lon="-104.99338"><ele>2947.0</ele></trkpt>
<trkpt lat="38.84866" lon="-104.99292"><ele>2947.0</ele></trkpt>
<trkpt lat="38.84864" lon="-104.99244"><ele>2946.0</ele></trkpt>
<trkpt lat="38.84878" lon="-104.99202"><ele>2946.0</ele></trkpt>
<trkpt lat="38.84895" lon="-104.99174"><ele>2948.0</ele></trkpt>
<trkpt lat="38.84897" lon="-104.99145"><ele>2945.0</ele></trkpt>
<trkpt lat="38.84894" lon="-104.99092"><ele>2938.0</ele></trkpt>
<trkpt lat="38.84904" lon="-104.99084"><ele>2940.0</ele></trkpt>
<trkpt lat="38.84937" lon="-104.99074"><ele>2946.0</ele></trkpt>
<trkpt lat="38.84942" lon="-104.99047"><ele>2941.0</ele></trkpt>
<trkpt lat="38.84942" lon="-104.99017"><ele>2936.0</ele></trkpt>
<trkpt lat="38.84935" lon="-104.98978"><ele>2928.0</ele></trkpt>
<trkpt lat="38.84942" lon="-104.98963"><ele>2928.0</ele></trkpt>
<trkpt lat="38.84959" lon="-104.98941"><ele>2929.0</ele></trkpt>
<trkpt lat="38.85006" lon="-104.98901"><ele>2930.0</ele></trkpt>
<trkpt lat="38.85008" lon="-104.98886"><ele>2929.0</ele></trkpt>
<trkpt lat="38.84990" lon="-104.98820"><ele>2924.0</ele></trkpt>
<trkpt lat="38.84989" lon="-104.98766"><ele>2925.0</ele></trkpt>
<trkpt lat="38.84985" lon="-104.98749"><ele>2925.0</ele></trkpt>
<trkpt lat="38.84974" lon="-104.98734"><ele>2923.0</ele></trkpt>
<trkpt lat="38.84960" lon="-104.98707"><ele>2921.0</ele></trkpt>
<trkpt lat="38.84940" lon="-104.98585"><ele>2923.0</ele></trkpt>
<trkpt lat="38.84938" lon="-104.98510"><ele>2924.0</ele></trkpt>
<trkpt lat="38.84943" lon="-104.98479"><ele>2925.0</ele></trkpt>
<trkpt lat="38.84931" lon="-104.98408"><ele>2920.0</ele></trkpt>
<trkpt lat="38.84938" lon="-104.98391"><ele>2922.0</ele></trkpt>
<trkpt lat="38.84945" lon="-104.98334"><ele>2917.0</ele></trkpt>
<trkpt lat="38.84954" lon="-104.98313"><ele>2917.0</ele></trkpt>
<trkpt lat="38.84967" lon="-104.98294"><ele>2917.0</ele></trkpt>
<trkpt lat="38.85010" lon="-104.98339"><ele>2916.0</ele></trkpt>
<trkpt lat="38.85063" lon="-104.98340"><ele>2908.0</ele></trkpt>
<trkpt lat="38.85086" lon="-104.98334"><ele>2903.0</ele></trkpt>
<trkpt lat="38.85131" lon="-104.98291"><ele>2892.0</ele></trkpt>
<trkpt lat="38.85133" lon="-104.98255"><ele>2888.0</ele></trkpt>
<trkpt lat="38.85125" lon="-104.98214"><ele>2885.0</ele></trkpt>
<trkpt lat="38.85139" lon="-104.98150"><ele>2886.0</ele></trkpt>
<trkpt lat="38.85163" lon="-104.98123"><ele>2886.0</ele></trkpt>
<trkpt lat="38.85172" lon="-104.98114"><ele>2886.0</ele></trkpt>
<trkpt lat="38.85182" lon="-104.98083"><ele>2885.0</ele></trkpt>
<trkpt lat="38.85191" lon="-104.98069"><ele>2883.0</ele></trkpt>
<trkpt lat="38.85205" lon="-104.98055"><ele>2882.0</ele></trkpt>
<trkpt lat="38.85219" lon="-104.98030"><ele>2878.0</ele></trkpt>
<trkpt lat="38.85256" lon="-104.97999"><ele>2874.0</ele></trkpt>
<trkpt lat="38.85264" lon="-104.97988"><ele>2873.0</ele></trkpt>
<trkpt lat="38.85281" lon="-104.97976"><ele>2870.0</ele></trkpt>
<trkpt lat="38.85298" lon="-104.97949"><ele>2866.0</ele></trkpt>
<trkpt lat="38.85314" lon="-104.97940"><ele>2862.0</ele></trkpt>
<trkpt lat="38.85324" lon="-104.97923"><ele>2861.0</ele></trkpt>
<trkpt lat="38.85329" lon="-104.97905"><ele>2861.0</ele></trkpt>
<trkpt lat="38.85350" lon="-104.97878"><ele>2857.0</ele></trkpt>
<trkpt lat="38.85356" lon="-104.97858"><ele>2855.0</ele></trkpt>
<trkpt lat="38.85370" lon="-104.97842"><ele>2851.0</ele></trkpt>
<trkpt lat="38.85376" lon="-104.97820"><ele>2849.0</ele></trkpt>
<trkpt lat="38.85376" lon="-104.97770"><ele>2848.0</ele></trkpt>
<trkpt lat="38.85397" lon="-104.97620"><ele>2852.0</ele></trkpt>
<trkpt lat="38.85415" lon="-104.97584"><ele>2852.0</ele></trkpt>
<trkpt lat="38.85421" lon="-104.97558"><ele>2852.0</ele></trkpt>
<trkpt lat="38.85433" lon="-104.97499"><ele>2852.0</ele></trkpt>
<trkpt lat="38.85442" lon="-104.97441"><ele>2853.0</ele></trkpt>
<trkpt lat="38.85442" lon="-104.97417"><ele>2852.0</ele></trkpt>
<trkpt lat="38.85409" lon="-104.97353"><ele>2849.0</ele></trkpt>
<trkpt lat="38.85399" lon="-104.97324"><ele>2848.0</ele></trkpt>
<trkpt lat="38.85398" lon="-104.97307"><ele>2847.0</ele></trkpt>
<trkpt lat="38.85377" lon="-104.97248"><ele>2843.0</ele></trkpt>
<trkpt lat="38.85365" lon="-104.97164"><ele>2837.0</ele></trkpt>
<trkpt lat="38.85354" lon="-104.97045"><ele>2830.0</ele></trkpt>
<trkpt lat="38.85354" lon="-104.97026"><ele>2829.0</ele></trkpt>
<trkpt lat="38.85360" lon="-104.96997"><ele>2825.0</ele></trkpt>
<trkpt lat="38.85359" lon="-104.96981"><ele>2824.0</ele></trkpt>
<trkpt lat="38.85363" lon="-104.96962"><ele>2821.0</ele></trkpt>
<trkpt lat="38.85358" lon="-104.96936"><ele>2820.0</ele></trkpt>
<trkpt lat="38.85349" lon="-104.96908"><ele>2819.0</ele></trkpt>
<trkpt lat="38.85351" lon="-104.96858"><ele>2815.0</ele></trkpt>
<trkpt lat="38.85349" lon="-104.96832"><ele>2810.0</ele></trkpt>
<trkpt lat="38.85352" lon="-104.96783"><ele>2804.0</ele></trkpt>
<trkpt lat="38.85374" lon="-104.96682"><ele>2794.0</ele></trkpt>
<trkpt lat="38.85382" lon="-104.96620"><ele>2794.0</ele></trkpt>
<trkpt lat="38.85391" lon="-104.96490"><ele>2792.0</ele></trkpt>
<trkpt lat="38.85416" lon="-104.96407"><ele>2785.0</ele></trkpt>
<trkpt lat="38.85426" lon="-104.96402"><ele>2783.0</ele></trkpt>
<trkpt lat="38.85453" lon="-104.96393"><ele>2777.0</ele></trkpt>
<trkpt lat="38.85461" lon="-104.96381"><ele>2775.0</ele></trkpt>
<trkpt lat="38.85479" lon="-104.96326"><ele>2768.0</ele></trkpt>
<trkpt lat="38.85528" lon="-104.96275"><ele>2753.0</ele></trkpt>
<trkpt lat="38.85555" lon="-104.96238"><ele>2748.0</ele></trkpt>
<trkpt lat="38.85605" lon="-104.96136"><ele>2731.0</ele></trkpt>
<trkpt lat="38.85612" lon="-104.96110"><ele>2729.0</ele></trkpt>
<trkpt lat="38.85598" lon="-104.96103"><ele>2728.0</ele></trkpt>
<trkpt lat="38.85634" lon="-104.96058"><ele>2717.0</ele></trkpt>
<trkpt lat="38.85623" lon="-104.96054"><ele>2717.0</ele></trkpt>
<trkpt lat="38.85606" lon="-104.96065"><ele>2720.0</ele></trkpt>
<trkpt lat="38.85573" lon="-104.96080"><ele>2724.0</ele></trkpt>
<trkpt lat="38.85549" lon="-104.96087"><ele>2726.0</ele></trkpt>
<trkpt lat="38.85590" lon="-104.96025"><ele>2713.0</ele></trkpt>
<trkpt lat="38.85604" lon="-104.95943"><ele>2702.0</ele></trkpt>
<trkpt lat="38.85627" lon="-104.95892"><ele>2690.0</ele></trkpt>
<trkpt lat="38.85608" lon="-104.95893"><ele>2695.0</ele></trkpt>
<trkpt lat="38.85624" lon="-104.95859"><ele>2685.0</ele></trkpt>
<trkpt lat="38.85660" lon="-104.95799"><ele>2673.0</ele></trkpt>
<trkpt lat="38.85667" lon="-104.95757"><ele>2675.0</ele></trkpt>
<trkpt lat="38.85650" lon="-104.95740"><ele>2673.0</ele></trkpt>
<trkpt lat="38.85643" lon="-104.95715"><ele>2668.0</ele></trkpt>
<trkpt lat="38.85646" lon="-104.95690"><ele>2661.0</ele></trkpt>
<trkpt lat="38.85657" lon="-104.95652"><ele>2655.0</ele></trkpt>
<trkpt lat="38.85652" lon="-104.95631"><ele>2648.0</ele></trkpt>
<trkpt lat="38.85657" lon="-104.95543"><ele>2644.0</ele></trkpt>
<trkpt lat="38.85649" lon="-104.95475"><ele>2638.0</ele></trkpt>
<trkpt lat="38.85651" lon="-104.95447"><ele>2638.0</ele></trkpt>
<trkpt lat="38.85663" lon="-104.95423"><ele>2642.0</ele></trkpt>
<trkpt lat="38.85661" lon="-104.95405"><ele>2639.0</ele></trkpt>
<trkpt lat="38.85652" lon="-104.95361"><ele>2630.0</ele></trkpt>
<trkpt lat="38.85646" lon="-104.95374"><ele>2629.0</ele></trkpt>
<trkpt lat="38.85630" lon="-104.95403"><ele>2626.0</ele></trkpt>
<trkpt lat="38.85618" lon="-104.95382"><ele>2620.0</ele></trkpt>
<trkpt lat="38.85613" lon="-104.95355"><ele>2613.0</ele></trkpt>
<trkpt lat="38.85617" lon="-104.95323"><ele>2608.0</ele></trkpt>
<trkpt lat="38.85636" lon="-104.95282"><ele>2609.0</ele></trkpt>
<trkpt lat="38.85636" lon="-104.95265"><ele>2608.0</ele></trkpt>
<trkpt lat="38.85628" lon="-104.95234"><ele>2602.0</ele></trkpt>
<trkpt lat="38.85633" lon="-104.95194"><ele>2604.0</ele></trkpt>
<trkpt lat="38.85624" lon="-104.95156"><ele>2600.0</ele></trkpt>
<trkpt lat="38.85625" lon="-104.95108"><ele>2602.0</ele></trkpt>
<trkpt lat="38.85601" lon="-104.95060"><ele>2594.0</ele></trkpt>
<trkpt lat="38.85596" lon="-104.95041"><ele>2593.0</ele></trkpt>
<trkpt lat="38.85569" lon="-104.94993"><ele>2584.0</ele></trkpt>
<trkpt lat="38.85532" lon="-104.94950"><ele>2576.0</ele></trkpt>
<trkpt lat="38.85533" lon="-104.94910"><ele>2578.0</ele></trkpt>
<trkpt lat="38.85529" lon="-104.94894"><ele>2574.0</ele></trkpt>
<trkpt lat="38.85533" lon="-104.94871"><ele>2572.0</ele></trkpt>
<trkpt lat="38.85524" lon="-104.94843"><ele>2565.0</ele></trkpt>
<trkpt lat="38.85534" lon="-104.94808"><ele>2562.0</ele></trkpt>
<trkpt lat="38.85535" lon="-104.94766"><ele>2550.0</ele></trkpt>
<trkpt lat="38.85544" lon="-104.94756"><ele>2547.0</ele></trkpt>
<trkpt lat="38.85574" lon="-104.94752"><ele>2543.0</ele></trkpt>
<trkpt lat="38.85589" lon="-104.94747"><ele>2541.0</ele></trkpt>
<trkpt lat="38.85603" lon="-104.94759"><ele>2545.0</ele></trkpt>
<trkpt lat="38.85626" lon="-104.94765"><ele>2550.0</ele></trkpt>
<trkpt lat="38.85639" lon="-104.94756"><ele>2551.0</ele></trkpt>
<trkpt lat="38.85628" lon="-104.94736"><ele>2545.0</ele></trkpt>
<trkpt lat="38.85625" lon="-104.94682"><ele>2539.0</ele></trkpt>
<trkpt lat="38.85606" lon="-104.94666"><ele>2530.0</ele></trkpt>
<trkpt lat="38.85578" lon="-104.94612"><ele>2525.0</ele></trkpt>
<trkpt lat="38.85564" lon="-104.94559"><ele>2521.0</ele></trkpt>
<trkpt lat="38.85550" lon="-104.94529"><ele>2513.0</ele></trkpt>
<trkpt lat="38.85548" lon="-104.94512"><ele>2508.0</ele></trkpt>
<trkpt lat="38.85540" lon="-104.94523"><ele>2508.0</ele></trkpt>
<trkpt lat="38.85524" lon="-104.94603"><ele>2504.0</ele></trkpt>
<trkpt lat="38.85506" lon="-104.94577"><ele>2495.0</ele></trkpt>
<trkpt lat="38.85491" lon="-104.94555"><ele>2486.0</ele></trkpt>
<trkpt lat="38.85495" lon="-104.94523"><ele>2484.0</ele></trkpt>
<trkpt lat="38.85502" lon="-104.94465"><ele>2475.0</ele></trkpt>
<trkpt lat="38.85511" lon="-104.94448"><ele>2471.0</ele></trkpt>
<trkpt lat="38.85524" lon="-104.94442"><ele>2472.0</ele></trkpt>
<trkpt lat="38.85539" lon="-104.94410"><ele>2466.0</ele></trkpt>
<trkpt lat="38.85536" lon="-104.94389"><ele>2459.0</ele></trkpt>
<trkpt lat="38.85516" lon="-104.94417"><ele>2463.0</ele></trkpt>
<trkpt lat="38.85475" lon="-104.94406"><ele>2453.0</ele></trkpt>
<trkpt lat="38.85463" lon="-104.94416"><ele>2450.0</ele></trkpt>
<trkpt lat="38.85468" lon="-104.94398"><ele>2449.0</ele></trkpt>
<trkpt lat="38.85492" lon="-104.94393"><ele>2454.0</ele></trkpt>
<trkpt lat="38.85478" lon="-104.94333"><ele>2442.0</ele></trkpt>
<trkpt lat="38.85479" lon="-104.94300"><ele>2434.0</ele></trkpt>
<trkpt lat="38.85474" lon="-104.94262"><ele>2416.0</ele></trkpt>
<trkpt lat="38.85521" lon="-104.94267"><ele>2417.0</ele></trkpt>
<trkpt lat="38.85554" lon="-104.94287"><ele>2410.0</ele></trkpt>
<trkpt lat="38.85577" lon="-104.94302"><ele>2415.0</ele></trkpt>
<trkpt lat="38.85606" lon="-104.94299"><ele>2415.0</ele></trkpt>
<trkpt lat="38.85626" lon="-104.94282"><ele>2408.0</ele></trkpt>
<trkpt lat="38.85668" lon="-104.94271"><ele>2402.0</ele></trkpt>
<trkpt lat="38.85703" lon="-104.94277"><ele>2400.0</ele></trkpt>
<trkpt lat="38.85717" lon="-104.94267"><ele>2391.0</ele></trkpt>
<trkpt lat="38.85737" lon="-104.94261"><ele>2386.0</ele></trkpt>
<trkpt lat="38.85754" lon="-104.94257"><ele>2382.0</ele></trkpt>
<trkpt lat="38.85771" lon="-104.94257"><ele>2384.0</ele></trkpt>
<trkpt lat="38.85786" lon="-104.94239"><ele>2377.0</ele></trkpt>
<trkpt lat="38.85766" lon="-104.94247"><ele>2379.0</ele></trkpt>
<trkpt lat="38.85617" lon="-104.94205"><ele>2354.0</ele></trkpt>
<trkpt lat="38.85582" lon="-104.94196"><ele>2344.0</ele></trkpt>
<trkpt lat="38.85605" lon="-104.94190"><ele>2343.0</ele></trkpt>
<trkpt lat="38.85625" lon="-104.94178"><ele>2333.0</ele></trkpt>
<trkpt lat="38.85591" lon="-104.94178"><ele>2333.0</ele></trkpt>
<trkpt lat="38.85572" lon="-104.94154"><ele>2322.0</ele></trkpt>
<trkpt lat="38.85517" lon="-104.94110"><ele>2315.0</ele></trkpt>
<trkpt lat="38.85487" lon="-104.94073"><ele>2312.0</ele></trkpt>
<trkpt lat="38.85449" lon="-104.94037"><ele>2293.0</ele></trkpt>
<trkpt lat="38.85509" lon="-104.94070"><ele>2302.0</ele></trkpt>
<trkpt lat="38.85545" lon="-104.94081"><ele>2295.0</ele></trkpt>
<trkpt lat="38.85558" lon="-104.94081"><ele>2292.0</ele></trkpt>
<trkpt lat="38.85566" lon="-104.94070"><ele>2286.0</ele></trkpt>
<trkpt lat="38.85553" lon="-104.94071"><ele>2290.0</ele></trkpt>
<trkpt lat="38.85534" lon="-104.94054"><ele>2288.0</ele></trkpt>
<trkpt lat="38.85546" lon="-104.94055"><ele>2286.0</ele></trkpt>
<trkpt lat="38.85572" lon="-104.94042"><ele>2276.0</ele></trkpt>
<trkpt lat="38.85584" lon="-104.94045"><ele>2274.0</ele></trkpt>
<trkpt lat="38.85597" lon="-104.94041"><ele>2272.0</ele></trkpt>
<trkpt lat="38.85559" lon="-104.94030"><ele>2275.0</ele></trkpt>
<trkpt lat="38.85531" lon="-104.94011"><ele>2274.0</ele></trkpt>
<trkpt lat="38.85518" lon="-104.94013"><ele>2275.0</ele></trkpt>
<trkpt lat="38.85507" lon="-104.94004"><ele>2268.0</ele></trkpt>
<trkpt lat="38.85495" lon="-104.93986"><ele>2256.0</ele></trkpt>
<trkpt lat="38.85480" lon="-104.93973"><ele>2249.0</ele></trkpt>
<trkpt lat="38.85469" lon="-104.93962"><ele>2244.0</ele></trkpt>
<trkpt lat="38.85459" lon="-104.93940"><ele>2234.0</ele></trkpt>
<trkpt lat="38.85477" lon="-104.93952"><ele>2239.0</ele></trkpt>
<trkpt lat="38.85498" lon="-104.93953"><ele>2239.0</ele></trkpt>
<trkpt lat="38.85520" lon="-104.93937"><ele>2231.0</ele></trkpt>
<trkpt lat="38.85488" lon="-104.93919"><ele>2223.0</ele></trkpt>
<trkpt lat="38.85443" lon="-104.93882"><ele>2206.0</ele></trkpt>
<trkpt lat="38.85422" lon="-104.93896"><ele>2208.0</ele></trkpt>
<trkpt lat="38.85392" lon="-104.93900"><ele>2200.0</ele></trkpt>
<trkpt lat="38.85416" lon="-104.93886"><ele>2201.0</ele></trkpt>
<trkpt lat="38.85446" lon="-104.93841"><ele>2190.0</ele></trkpt>
<trkpt lat="38.85461" lon="-104.93845"><ele>2194.0</ele></trkpt>
<trkpt lat="38.85479" lon="-104.93837"><ele>2192.0</ele></trkpt>
<trkpt lat="38.85502" lon="-104.93846"><ele>2195.0</ele></trkpt>
<trkpt lat="38.85495" lon="-104.93828"><ele>2189.0</ele></trkpt>
<trkpt lat="38.85481" lon="-104.93812"><ele>2185.0</ele></trkpt>
<trkpt lat="38.85480" lon="-104.93797"><ele>2181.0</ele></trkpt>
<trkpt lat="38.85466" lon="-104.93771"><ele>2173.0</ele></trkpt>
<trkpt lat="38.85453" lon="-104.93759"><ele>2168.0</ele></trkpt>
<trkpt lat="38.85412" lon="-104.93743"><ele>2151.0</ele></trkpt>
<trkpt lat="38.85406" lon="-104.93769"><ele>2154.0</ele></trkpt>
<trkpt lat="38.85380" lon="-104.93787"><ele>2149.0</ele></trkpt>
<trkpt lat="38.85370" lon="-104.93804"><ele>2152.0</ele></trkpt>
<trkpt lat="38.85353" lon="-104.93810"><ele>2147.0</ele></trkpt>
<trkpt lat="38.85341" lon="-104.93824"><ele>2147.0</ele></trkpt>
<trkpt lat="38.85315" lon="-104.93830"><ele>2139.0</ele></trkpt>
<trkpt lat="38.85272" lon="-104.93861"><ele>2140.0</ele></trkpt>
<trkpt lat="38.85256" lon="-104.93860"><ele>2137.0</ele></trkpt>
<trkpt lat="38.85201" lon="-104.93894"><ele>2136.0</ele></trkpt>
<trkpt lat="38.85166" lon="-104.93910"><ele>2136.0</ele></trkpt>
<trkpt lat="38.85077" lon="-104.93939"><ele>2162.0</ele></trkpt>
<trkpt lat="38.85086" lon="-104.93920"><ele>2155.0</ele></trkpt>
<trkpt lat="38.85106" lon="-104.93896"><ele>2143.0</ele></trkpt>
<trkpt lat="38.85163" lon="-104.93835"><ele>2128.0</ele></trkpt>
<trkpt lat="38.85203" lon="-104.93798"><ele>2117.0</ele></trkpt>
<trkpt lat="38.85228" lon="-104.93767"><ele>2104.0</ele></trkpt>
<trkpt lat="38.85241" lon="-104.93742"><ele>2099.0</ele></trkpt>
<trkpt lat="38.85242" lon="-104.93715"><ele>2096.0</ele></trkpt>
<trkpt lat="38.85256" lon="-104.93680"><ele>2091.0</ele></trkpt>
<trkpt lat="38.85276" lon="-104.93659"><ele>2086.0</ele></trkpt>
<trkpt lat="38.85292" lon="-104.93599"><ele>2083.0</ele></trkpt>
<trkpt lat="38.85338" lon="-104.93513"><ele>2074.0</ele></trkpt>
<trkpt lat="38.85363" lon="-104.93483"><ele>2067.0</ele></trkpt>
<trkpt lat="38.85383" lon="-104.93465"><ele>2063.0</ele></trkpt>
<trkpt lat="38.85424" lon="-104.93407"><ele>2045.0</ele></trkpt>
<trkpt lat="38.85457" lon="-104.93367"><ele>2036.0</ele></trkpt>
<trkpt lat="38.85471" lon="-104.93334"><ele>2028.0</ele></trkpt>
<trkpt lat="38.85522" lon="-104.93274"><ele>2022.0</ele></trkpt>
<trkpt lat="38.85553" lon="-104.93227"><ele>2017.0</ele></trkpt>
<trkpt lat="38.85575" lon="-104.93167"><ele>2012.0</ele></trkpt>
<trkpt lat="38.85620" lon="-104.93031"><ele>2000.0</ele></trkpt>
<trkpt lat="38.85655" lon="-104.92943"><ele>1999.0</ele></trkpt>
<trkpt lat="38.85659" lon="-104.92915"><ele>1995.0</ele></trkpt>
<trkpt lat="38.85664" lon="-104.92812"><ele>1995.0</ele></trkpt>
<trkpt lat="38.85673" lon="-104.92789"><ele>1993.0</ele></trkpt>
<trkpt lat="38.85728" lon="-104.92726"><ele>1983.0</ele></trkpt>
<trkpt lat="38.85735" lon="-104.92714"><ele>1982.0</ele></trkpt>
<trkpt lat="38.85758" lon="-104.92628"><ele>1979.0</ele></trkpt>
<trkpt lat="38.85794" lon="-104.92464"><ele>1971.0</ele></trkpt>
<trkpt lat="38.85850" lon="-104.92355"><ele>1965.0</ele></trkpt>
<trkpt lat="38.85854" lon="-104.92340"><ele>1964.0</ele></trkpt>
<trkpt lat="38.85842" lon="-104.92266"><ele>1964.0</ele></trkpt>
<trkpt lat="38.85832" lon="-104.92168"><ele>1954.0</ele></trkpt>
<trkpt lat="38.85835" lon="-104.92116"><ele>1951.0</ele></trkpt>
<trkpt lat="38.85847" lon="-104.92056"><ele>1949.0</ele></trkpt>
<trkpt lat="38.85876" lon="-104.92001"><ele>1945.0</ele></trkpt>
<trkpt lat="38.85887" lon="-104.91967"><ele>1944.0</ele></trkpt>
<trkpt lat="38.85874" lon="-104.91870"><ele>1945.0</ele></trkpt>
<trkpt lat="38.85867" lon="-104.91845"><ele>1945.0</ele></trkpt>
<trkpt lat="38.85856" lon="-104.91819"><ele>1943.0</ele></trkpt>
<trkpt lat="38.85789" lon="-104.91738"><ele>1942.0</ele></trkpt>
<trkpt lat="38.85722" lon="-104.91561"><ele>1936.0</ele></trkpt>
<trkpt lat="38.85708" lon="-104.91505"><ele>1937.0</ele></trkpt>
<trkpt lat="38.85708" lon="-104.91469"><ele>1936.0</ele></trkpt>
<trkpt lat="38.85753" lon="-104.91241"><ele>1927.0</ele></trkpt>
</trkseg></trk></gpx>
