<?xml version="1.0" encoding="UTF-8"?>
<gpx version="1.1" creator="race-kilian course pack" xmlns="http://www.topografix.com/GPX/1/1"><trk><name>Zegama-Aizkorri</name><trkseg>
<trkpt lat="42.97559" lon="-2.29019"><ele>304.8</ele></trkpt>
<trkpt lat="42.97566" lon="-2.29050"><ele>303.4</ele></trkpt>
<trkpt lat="42.97544" lon="-2.29083"><ele>303.8</ele></trkpt>
<trkpt lat="42.97578" lon="-2.29097"><ele>301.8</ele></trkpt>
<trkpt lat="42.97605" lon="-2.29096"><ele>301.2</ele></trkpt>
<trkpt lat="42.97632" lon="-2.29077"><ele>300.0</ele></trkpt>
<trkpt lat="42.97661" lon="-2.29055"><ele>299.5</ele></trkpt>
<trkpt lat="42.97690" lon="-2.29030"><ele>298.6</ele></trkpt>
<trkpt lat="42.97721" lon="-2.29009"><ele>296.4</ele></trkpt>
<trkpt lat="42.97722" lon="-2.28966"><ele>297.0</ele></trkpt>
<trkpt lat="42.97685" lon="-2.28969"><ele>300.2</ele></trkpt>
<trkpt lat="42.97658" lon="-2.28983"><ele>301.5</ele></trkpt>
<trkpt lat="42.97622" lon="-2.28978"><ele>303.5</ele></trkpt>
<trkpt lat="42.97597" lon="-2.28972"><ele>305.0</ele></trkpt>
<trkpt lat="42.97584" lon="-2.29006"><ele>303.7</ele></trkpt>
<trkpt lat="42.97572" lon="-2.29042"><ele>303.2</ele></trkpt>
<trkpt lat="42.97554" lon="-2.29065"><ele>303.7</ele></trkpt>
<trkpt lat="42.97531" lon="-2.29066"><ele>305.3</ele></trkpt>
<trkpt lat="42.97501" lon="-2.29058"><ele>307.5</ele></trkpt>
<trkpt lat="42.97472" lon="-2.29052"><ele>313.0</ele></trkpt>
<trkpt lat="42.97448" lon="-2.29053"><ele>317.5</ele></trkpt>
<trkpt lat="42.97426" lon="-2.29027"><ele>322.0</ele></trkpt>
<trkpt lat="42.97397" lon="-2.29021"><ele>327.3</ele></trkpt>
<trkpt lat="42.97374" lon="-2.29014"><ele>331.3</ele></trkpt>
<trkpt lat="42.97352" lon="-2.29004"><ele>335.6</ele></trkpt>
<trkpt lat="42.97331" lon="-2.29018"><ele>339.1</ele></trkpt>
<trkpt lat="42.97307" lon="-2.29010"><ele>345.3</ele></trkpt>
<trkpt lat="42.97285" lon="-2.29026"><ele>349.5</ele></trkpt>
<trkpt lat="42.97247" lon="-2.29028"><ele>357.8</ele></trkpt>
<trkpt lat="42.97225" lon="-2.29021"><ele>363.2</ele></trkpt>
<trkpt lat="42.97192" lon="-2.29010"><ele>371.6</ele></trkpt>
<trkpt lat="42.97172" lon="-2.28976"><ele>379.3</ele></trkpt>
<trkpt lat="42.97157" lon="-2.28939"><ele>385.7</ele></trkpt>
<trkpt lat="42.97134" lon="-2.28923"><ele>392.4</ele></trkpt>
<trkpt lat="42.97113" lon="-2.28913"><ele>398.7</ele></trkpt>
<trkpt lat="42.97088" lon="-2.28895"><ele>406.8</ele></trkpt>
<trkpt lat="42.97067" lon="-2.28860"><ele>416.0</ele></trkpt>
<trkpt lat="42.97048" lon="-2.28840"><ele>424.2</ele></trkpt>
<trkpt lat="42.97022" lon="-2.28835"><ele>432.9</ele></trkpt>
<trkpt lat="42.97004" lon="-2.28814"><ele>440.7</ele></trkpt>
<trkpt lat="42.96983" lon="-2.28790"><ele>450.3</ele></trkpt>
<trkpt lat="42.96971" lon="-2.28761"><ele>458.2</ele></trkpt>
<trkpt lat="42.96957" lon="-2.28728"><ele>463.8</ele></trkpt>
<trkpt lat="42.96942" lon="-2.28702"><ele>467.1</ele></trkpt>
<trkpt lat="42.96914" lon="-2.28706"><ele>475.1</ele></trkpt>
<trkpt lat="42.96881" lon="-2.28724"><ele>483.3</ele></trkpt>
<trkpt lat="42.96854" lon="-2.28738"><ele>489.8</ele></trkpt>
<trkpt lat="42.96818" lon="-2.28730"><ele>492.9</ele></trkpt>
<trkpt lat="42.96795" lon="-2.28712"><ele>492.4</ele></trkpt>
<trkpt lat="42.96771" lon="-2.28687"><ele>493.9</ele></trkpt>
<trkpt lat="42.96743" lon="-2.28679"><ele>497.0</ele></trkpt>
<trkpt lat="42.96710" lon="-2.28674"><ele>501.0</ele></trkpt>
<trkpt lat="42.96684" lon="-2.28645"><ele>500.5</ele></trkpt>
<trkpt lat="42.96663" lon="-2.28632"><ele>501.5</ele></trkpt>
<trkpt lat="42.96638" lon="-2.28669"><ele>511.7</ele></trkpt>
<trkpt lat="42.96611" lon="-2.28686"><ele>513.1</ele></trkpt>
<trkpt lat="42.96584" lon="-2.28704"><ele>513.0</ele></trkpt>
<trkpt lat="42.96553" lon="-2.28710"><ele>518.4</ele></trkpt>
<trkpt lat="42.96531" lon="-2.28712"><ele>522.7</ele></trkpt>
<trkpt lat="42.96507" lon="-2.28700"><ele>530.9</ele></trkpt>
<trkpt lat="42.96485" lon="-2.28684"><ele>538.4</ele></trkpt>
<trkpt lat="42.96462" lon="-2.28686"><ele>541.6</ele></trkpt>
<trkpt lat="42.96439" lon="-2.28681"><ele>545.9</ele></trkpt>
<trkpt lat="42.96419" lon="-2.28654"><ele>548.9</ele></trkpt>
<trkpt lat="42.96392" lon="-2.28630"><ele>555.9</ele></trkpt>
<trkpt lat="42.96368" lon="-2.28648"><ele>566.1</ele></trkpt>
<trkpt lat="42.96358" lon="-2.28677"><ele>571.9</ele></trkpt>
<trkpt lat="42.96342" lon="-2.28715"><ele>578.2</ele></trkpt>
<trkpt lat="42.96330" lon="-2.28747"><ele>583.3</ele></trkpt>
<trkpt lat="42.96318" lon="-2.28778"><ele>586.3</ele></trkpt>
<trkpt lat="42.96293" lon="-2.28816"><ele>594.0</ele></trkpt>
<trkpt lat="42.96268" lon="-2.28843"><ele>601.2</ele></trkpt>
<trkpt lat="42.96247" lon="-2.28864"><ele>604.8</ele></trkpt>
<trkpt lat="42.96227" lon="-2.28883"><ele>606.5</ele></trkpt>
<trkpt lat="42.96204" lon="-2.28900"><ele>608.7</ele></trkpt>
<trkpt lat="42.96176" lon="-2.28918"><ele>611.7</ele></trkpt>
<trkpt lat="42.96144" lon="-2.28913"><ele>615.3</ele></trkpt>
<trkpt lat="42.96103" lon="-2.28910"><ele>614.9</ele></trkpt>
<trkpt lat="42.96090" lon="-2.28873"><ele>626.0</ele></trkpt>
<trkpt lat="42.96080" lon="-2.28844"><ele>634.4</ele></trkpt>
<trkpt lat="42.96068" lon="-2.28811"><ele>641.6</ele></trkpt>
<trkpt lat="42.96060" lon="-2.28781"><ele>647.8</ele></trkpt>
<trkpt lat="42.96047" lon="-2.28740"><ele>655.5</ele></trkpt>
<trkpt lat="42.96034" lon="-2.28701"><ele>663.1</ele></trkpt>
<trkpt lat="42.96024" lon="-2.28672"><ele>668.6</ele></trkpt>
<trkpt lat="42.96013" lon="-2.28634"><ele>673.8</ele></trkpt>
<trkpt lat="42.95998" lon="-2.28585"><ele>682.2</ele></trkpt>
<trkpt lat="42.95988" lon="-2.28549"><ele>683.3</ele></trkpt>
<trkpt lat="42.95973" lon="-2.28503"><ele>685.2</ele></trkpt>
<trkpt lat="42.95958" lon="-2.28459"><ele>684.5</ele></trkpt>
<trkpt lat="42.95948" lon="-2.28430"><ele>686.1</ele></trkpt>
<trkpt lat="42.95929" lon="-2.28384"><ele>690.6</ele></trkpt>
<trkpt lat="42.95924" lon="-2.28352"><ele>694.0</ele></trkpt>
<trkpt lat="42.95912" lon="-2.28319"><ele>696.3</ele></trkpt>
<trkpt lat="42.95894" lon="-2.28269"><ele>692.5</ele></trkpt>
<trkpt lat="42.95875" lon="-2.28241"><ele>691.1</ele></trkpt>
<trkpt lat="42.95859" lon="-2.28197"><ele>692.5</ele></trkpt>
<trkpt lat="42.95853" lon="-2.28160"><ele>695.3</ele></trkpt>
<trkpt lat="42.95847" lon="-2.28118"><ele>699.5</ele></trkpt>
<trkpt lat="42.95840" lon="-2.28083"><ele>704.8</ele></trkpt>
<trkpt lat="42.95826" lon="-2.28054"><ele>707.7</ele></trkpt>
<trkpt lat="42.95805" lon="-2.28004"><ele>710.6</ele></trkpt>
<trkpt lat="42.95802" lon="-2.27973"><ele>714.2</ele></trkpt>
<trkpt lat="42.95780" lon="-2.27944"><ele>721.4</ele></trkpt>
<trkpt lat="42.95761" lon="-2.27921"><ele>730.2</ele></trkpt>
<trkpt lat="42.95740" lon="-2.27907"><ele>734.5</ele></trkpt>
<trkpt lat="42.95714" lon="-2.27910"><ele>728.3</ele></trkpt>
<trkpt lat="42.95687" lon="-2.27897"><ele>725.7</ele></trkpt>
<trkpt lat="42.95661" lon="-2.27866"><ele>726.5</ele></trkpt>
<trkpt lat="42.95644" lon="-2.27834"><ele>726.5</ele></trkpt>
<trkpt lat="42.95647" lon="-2.27801"><ele>734.8</ele></trkpt>
<trkpt lat="42.95625" lon="-2.27767"><ele>734.8</ele></trkpt>
<trkpt lat="42.95597" lon="-2.27758"><ele>727.9</ele></trkpt>
<trkpt lat="42.95560" lon="-2.27722"><ele>726.7</ele></trkpt>
<trkpt lat="42.95531" lon="-2.27692"><ele>726.3</ele></trkpt>
<trkpt lat="42.95510" lon="-2.27660"><ele>727.3</ele></trkpt>
<trkpt lat="42.95508" lon="-2.27603"><ele>727.6</ele></trkpt>
<trkpt lat="42.95542" lon="-2.27568"><ele>744.2</ele></trkpt>
<trkpt lat="42.95555" lon="-2.27536"><ele>750.1</ele></trkpt>
<trkpt lat="42.95570" lon="-2.27497"><ele>759.4</ele></trkpt>
<trkpt lat="42.95579" lon="-2.27460"><ele>764.2</ele></trkpt>
<trkpt lat="42.95585" lon="-2.27421"><ele>765.6</ele></trkpt>
<trkpt lat="42.95582" lon="-2.27383"><ele>763.8</ele></trkpt>
<trkpt lat="42.95564" lon="-2.27325"><ele>759.8</ele></trkpt>
<trkpt lat="42.95539" lon="-2.27281"><ele>763.0</ele></trkpt>
<trkpt lat="42.95516" lon="-2.27246"><ele>765.9</ele></trkpt>
<trkpt lat="42.95478" lon="-2.27215"><ele>763.2</ele></trkpt>
<trkpt lat="42.95462" lon="-2.27189"><ele>764.1</ele></trkpt>
<trkpt lat="42.95447" lon="-2.27164"><ele>764.6</ele></trkpt>
<trkpt lat="42.95426" lon="-2.27146"><ele>761.8</ele></trkpt>
<trkpt lat="42.95407" lon="-2.27121"><ele>759.5</ele></trkpt>
<trkpt lat="42.95399" lon="-2.27084"><ele>761.9</ele></trkpt>
<trkpt lat="42.95399" lon="-2.27050"><ele>762.8</ele></trkpt>
<trkpt lat="42.95405" lon="-2.27005"><ele>766.1</ele></trkpt>
<trkpt lat="42.95410" lon="-2.26968"><ele>770.3</ele></trkpt>
<trkpt lat="42.95415" lon="-2.26922"><ele>775.1</ele></trkpt>
<trkpt lat="42.95408" lon="-2.26886"><ele>779.3</ele></trkpt>
<trkpt lat="42.95400" lon="-2.26846"><ele>783.7</ele></trkpt>
<trkpt lat="42.95396" lon="-2.26807"><ele>788.4</ele></trkpt>
<trkpt lat="42.95390" lon="-2.26763"><ele>792.6</ele></trkpt>
<trkpt lat="42.95369" lon="-2.26712"><ele>788.3</ele></trkpt>
<trkpt lat="42.95358" lon="-2.26673"><ele>787.1</ele></trkpt>
<trkpt lat="42.95349" lon="-2.26635"><ele>789.0</ele></trkpt>
<trkpt lat="42.95335" lon="-2.26597"><ele>790.1</ele></trkpt>
<trkpt lat="42.95312" lon="-2.26563"><ele>787.3</ele></trkpt>
<trkpt lat="42.95293" lon="-2.26539"><ele>785.5</ele></trkpt>
<trkpt lat="42.95274" lon="-2.26513"><ele>784.2</ele></trkpt>
<trkpt lat="42.95263" lon="-2.26486"><ele>786.7</ele></trkpt>
<trkpt lat="42.95243" lon="-2.26453"><ele>789.1</ele></trkpt>
<trkpt lat="42.95216" lon="-2.26442"><ele>785.2</ele></trkpt>
<trkpt lat="42.95192" lon="-2.26437"><ele>780.9</ele></trkpt>
<trkpt lat="42.95169" lon="-2.26431"><ele>776.8</ele></trkpt>
<trkpt lat="42.95131" lon="-2.26434"><ele>770.2</ele></trkpt>
<trkpt lat="42.95099" lon="-2.26414"><ele>768.7</ele></trkpt>
<trkpt lat="42.95079" lon="-2.26386"><ele>766.6</ele></trkpt>
<trkpt lat="42.95058" lon="-2.26372"><ele>762.2</ele></trkpt>
<trkpt lat="42.95041" lon="-2.26344"><ele>760.8</ele></trkpt>
<trkpt lat="42.95013" lon="-2.26291"><ele>759.5</ele></trkpt>
<trkpt lat="42.94982" lon="-2.26247"><ele>760.3</ele></trkpt>
<trkpt lat="42.94960" lon="-2.26205"><ele>757.4</ele></trkpt>
<trkpt lat="42.94938" lon="-2.26163"><ele>756.4</ele></trkpt>
<trkpt lat="42.94936" lon="-2.26127"><ele>757.3</ele></trkpt>
<trkpt lat="42.94914" lon="-2.26091"><ele>758.9</ele></trkpt>
<trkpt lat="42.94894" lon="-2.26062"><ele>756.8</ele></trkpt>
<trkpt lat="42.94862" lon="-2.26040"><ele>752.7</ele></trkpt>
<trkpt lat="42.94831" lon="-2.26023"><ele>749.0</ele></trkpt>
<trkpt lat="42.94815" lon="-2.25994"><ele>749.7</ele></trkpt>
<trkpt lat="42.94801" lon="-2.25961"><ele>750.5</ele></trkpt>
<trkpt lat="42.94780" lon="-2.25951"><ele>748.5</ele></trkpt>
<trkpt lat="42.94760" lon="-2.25969"><ele>741.6</ele></trkpt>
<trkpt lat="42.94729" lon="-2.25967"><ele>740.1</ele></trkpt>
<trkpt lat="42.94698" lon="-2.25947"><ele>746.8</ele></trkpt>
<trkpt lat="42.94676" lon="-2.25962"><ele>742.5</ele></trkpt>
<trkpt lat="42.94653" lon="-2.25982"><ele>735.0</ele></trkpt>
<trkpt lat="42.94634" lon="-2.26001"><ele>728.3</ele></trkpt>
<trkpt lat="42.94598" lon="-2.25999"><ele>730.0</ele></trkpt>
<trkpt lat="42.94575" lon="-2.25970"><ele>740.3</ele></trkpt>
<trkpt lat="42.94541" lon="-2.25955"><ele>742.8</ele></trkpt>
<trkpt lat="42.94506" lon="-2.25947"><ele>742.2</ele></trkpt>
<trkpt lat="42.94478" lon="-2.25930"><ele>745.1</ele></trkpt>
<trkpt lat="42.94451" lon="-2.25915"><ele>747.6</ele></trkpt>
<trkpt lat="42.94420" lon="-2.25890"><ele>752.4</ele></trkpt>
<trkpt lat="42.94397" lon="-2.25868"><ele>757.4</ele></trkpt>
<trkpt lat="42.94365" lon="-2.25881"><ele>752.4</ele></trkpt>
<trkpt lat="42.94344" lon="-2.25900"><ele>747.9</ele></trkpt>
<trkpt lat="42.94318" lon="-2.25925"><ele>740.9</ele></trkpt>
<trkpt lat="42.94305" lon="-2.25897"><ele>743.8</ele></trkpt>
<trkpt lat="42.94297" lon="-2.25859"><ele>749.4</ele></trkpt>
<trkpt lat="42.94275" lon="-2.25846"><ele>748.9</ele></trkpt>
<trkpt lat="42.94246" lon="-2.25851"><ele>744.4</ele></trkpt>
<trkpt lat="42.94222" lon="-2.25867"><ele>740.9</ele></trkpt>
<trkpt lat="42.94194" lon="-2.25867"><ele>740.7</ele></trkpt>
<trkpt lat="42.94173" lon="-2.25882"><ele>735.3</ele></trkpt>
<trkpt lat="42.94154" lon="-2.25903"><ele>726.5</ele></trkpt>
<trkpt lat="42.94119" lon="-2.25902"><ele>722.8</ele></trkpt>
<trkpt lat="42.94093" lon="-2.25883"><ele>724.8</ele></trkpt>
<trkpt lat="42.94068" lon="-2.25859"><ele>724.4</ele></trkpt>
<trkpt lat="42.94045" lon="-2.25838"><ele>720.2</ele></trkpt>
<trkpt lat="42.94030" lon="-2.25812"><ele>717.5</ele></trkpt>
<trkpt lat="42.94002" lon="-2.25808"><ele>707.0</ele></trkpt>
<trkpt lat="42.93980" lon="-2.25829"><ele>699.1</ele></trkpt>
<trkpt lat="42.93941" lon="-2.25866"><ele>685.8</ele></trkpt>
<trkpt lat="42.93913" lon="-2.25893"><ele>677.9</ele></trkpt>
<trkpt lat="42.93895" lon="-2.25916"><ele>674.7</ele></trkpt>
<trkpt lat="42.93876" lon="-2.25951"><ele>671.4</ele></trkpt>
<trkpt lat="42.93863" lon="-2.25988"><ele>669.6</ele></trkpt>
<trkpt lat="42.93840" lon="-2.26034"><ele>667.7</ele></trkpt>
<trkpt lat="42.93822" lon="-2.26064"><ele>670.0</ele></trkpt>
<trkpt lat="42.93806" lon="-2.26100"><ele>672.8</ele></trkpt>
<trkpt lat="42.93788" lon="-2.26132"><ele>676.1</ele></trkpt>
<trkpt lat="42.93753" lon="-2.26151"><ele>684.9</ele></trkpt>
<trkpt lat="42.93724" lon="-2.26142"><ele>694.5</ele></trkpt>
<trkpt lat="42.93697" lon="-2.26117"><ele>704.7</ele></trkpt>
<trkpt lat="42.93666" lon="-2.26103"><ele>715.5</ele></trkpt>
<trkpt lat="42.93640" lon="-2.26090"><ele>723.6</ele></trkpt>
<trkpt lat="42.93615" lon="-2.26090"><ele>730.2</ele></trkpt>
<trkpt lat="42.93591" lon="-2.26096"><ele>735.9</ele></trkpt>
<trkpt lat="42.93567" lon="-2.26123"><ele>739.6</ele></trkpt>
<trkpt lat="42.93544" lon="-2.26135"><ele>743.4</ele></trkpt>
<trkpt lat="42.93520" lon="-2.26142"><ele>747.6</ele></trkpt>
<trkpt lat="42.93494" lon="-2.26115"><ele>756.1</ele></trkpt>
<trkpt lat="42.93469" lon="-2.26095"><ele>762.4</ele></trkpt>
<trkpt lat="42.93432" lon="-2.26091"><ele>767.9</ele></trkpt>
<trkpt lat="42.93404" lon="-2.26091"><ele>771.2</ele></trkpt>
<trkpt lat="42.93366" lon="-2.26086"><ele>776.0</ele></trkpt>
<trkpt lat="42.93345" lon="-2.26073"><ele>778.7</ele></trkpt>
<trkpt lat="42.93320" lon="-2.26064"><ele>781.7</ele></trkpt>
<trkpt lat="42.93293" lon="-2.26059"><ele>785.2</ele></trkpt>
<trkpt lat="42.93251" lon="-2.26044"><ele>790.4</ele></trkpt>
<trkpt lat="42.93228" lon="-2.26031"><ele>793.2</ele></trkpt>
<trkpt lat="42.93202" lon="-2.26019"><ele>797.2</ele></trkpt>
<trkpt lat="42.93178" lon="-2.26023"><ele>800.4</ele></trkpt>
<trkpt lat="42.93137" lon="-2.26031"><ele>805.6</ele></trkpt>
<trkpt lat="42.93098" lon="-2.26038"><ele>810.9</ele></trkpt>
<trkpt lat="42.93066" lon="-2.26052"><ele>812.6</ele></trkpt>
<trkpt lat="42.93037" lon="-2.26072"><ele>813.6</ele></trkpt>
<trkpt lat="42.93013" lon="-2.26083"><ele>815.4</ele></trkpt>
<trkpt lat="42.92988" lon="-2.26093"><ele>813.8</ele></trkpt>
<trkpt lat="42.92967" lon="-2.26113"><ele>811.1</ele></trkpt>
<trkpt lat="42.92938" lon="-2.26131"><ele>808.9</ele></trkpt>
<trkpt lat="42.92913" lon="-2.26149"><ele>808.2</ele></trkpt>
<trkpt lat="42.92899" lon="-2.26177"><ele>808.4</ele></trkpt>
<trkpt lat="42.92878" lon="-2.26224"><ele>811.0</ele></trkpt>
<trkpt lat="42.92845" lon="-2.26244"><ele>812.6</ele></trkpt>
<trkpt lat="42.92818" lon="-2.26248"><ele>815.4</ele></trkpt>
<trkpt lat="42.92794" lon="-2.26226"><ele>811.9</ele></trkpt>
<trkpt lat="42.92753" lon="-2.26204"><ele>809.7</ele></trkpt>
<trkpt lat="42.92726" lon="-2.26189"><ele>813.0</ele></trkpt>
<trkpt lat="42.92695" lon="-2.26175"><ele>818.9</ele></trkpt>
<trkpt lat="42.92671" lon="-2.26169"><ele>826.0</ele></trkpt>
<trkpt lat="42.92648" lon="-2.26162"><ele>827.7</ele></trkpt>
<trkpt lat="42.92625" lon="-2.26146"><ele>827.9</ele></trkpt>
<trkpt lat="42.92604" lon="-2.26117"><ele>828.2</ele></trkpt>
<trkpt lat="42.92587" lon="-2.26090"><ele>830.4</ele></trkpt>
<trkpt lat="42.92565" lon="-2.26055"><ele>823.1</ele></trkpt>
<trkpt lat="42.92541" lon="-2.26031"><ele>818.7</ele></trkpt>
<trkpt lat="42.92513" lon="-2.26007"><ele>818.1</ele></trkpt>
<trkpt lat="42.92531" lon="-2.26028"><ele>818.2</ele></trkpt>
<trkpt lat="42.92543" lon="-2.26059"><ele>820.9</ele></trkpt>
<trkpt lat="42.92553" lon="-2.26093"><ele>824.9</ele></trkpt>
<trkpt lat="42.92564" lon="-2.26126"><ele>827.8</ele></trkpt>
<trkpt lat="42.92574" lon="-2.26159"><ele>831.1</ele></trkpt>
<trkpt lat="42.92584" lon="-2.26189"><ele>834.8</ele></trkpt>
<trkpt lat="42.92600" lon="-2.26214"><ele>835.9</ele></trkpt>
<trkpt lat="42.92623" lon="-2.26237"><ele>838.8</ele></trkpt>
<trkpt lat="42.92641" lon="-2.26263"><ele>842.1</ele></trkpt>
<trkpt lat="42.92664" lon="-2.26283"><ele>844.6</ele></trkpt>
<trkpt lat="42.92686" lon="-2.26298"><ele>842.8</ele></trkpt>
<trkpt lat="42.92712" lon="-2.26314"><ele>841.5</ele></trkpt>
<trkpt lat="42.92725" lon="-2.26342"><ele>843.4</ele></trkpt>
<trkpt lat="42.92731" lon="-2.26374"><ele>844.9</ele></trkpt>
<trkpt lat="42.92739" lon="-2.26411"><ele>848.7</ele></trkpt>
<trkpt lat="42.92739" lon="-2.26443"><ele>847.6</ele></trkpt>
<trkpt lat="42.92747" lon="-2.26476"><ele>848.7</ele></trkpt>
<trkpt lat="42.92755" lon="-2.26516"><ele>850.9</ele></trkpt>
<trkpt lat="42.92761" lon="-2.26556"><ele>853.8</ele></trkpt>
<trkpt lat="42.92759" lon="-2.26594"><ele>852.6</ele></trkpt>
<trkpt lat="42.92772" lon="-2.26631"><ele>851.8</ele></trkpt>
<trkpt lat="42.92787" lon="-2.26660"><ele>852.6</ele></trkpt>
<trkpt lat="42.92809" lon="-2.26687"><ele>852.4</ele></trkpt>
<trkpt lat="42.92833" lon="-2.26709"><ele>852.7</ele></trkpt>
<trkpt lat="42.92858" lon="-2.26723"><ele>849.8</ele></trkpt>
<trkpt lat="42.92885" lon="-2.26726"><ele>850.6</ele></trkpt>
<trkpt lat="42.92905" lon="-2.26750"><ele>843.6</ele></trkpt>
<trkpt lat="42.92924" lon="-2.26774"><ele>838.5</ele></trkpt>
<trkpt lat="42.92945" lon="-2.26790"><ele>837.5</ele></trkpt>
<trkpt lat="42.92969" lon="-2.26814"><ele>836.4</ele></trkpt>
<trkpt lat="42.92984" lon="-2.26841"><ele>835.2</ele></trkpt>
<trkpt lat="42.92993" lon="-2.26869"><ele>836.1</ele></trkpt>
<trkpt lat="42.92996" lon="-2.26900"><ele>835.7</ele></trkpt>
<trkpt lat="42.92992" lon="-2.26934"><ele>834.3</ele></trkpt>
<trkpt lat="42.92990" lon="-2.26968"><ele>834.5</ele></trkpt>
<trkpt lat="42.92985" lon="-2.27002"><ele>834.4</ele></trkpt>
<trkpt lat="42.92984" lon="-2.27034"><ele>832.3</ele></trkpt>
<trkpt lat="42.92974" lon="-2.27067"><ele>828.9</ele></trkpt>
<trkpt lat="42.92966" lon="-2.27103"><ele>827.1</ele></trkpt>
<trkpt lat="42.92958" lon="-2.27131"><ele>826.8</ele></trkpt>
<trkpt lat="42.92942" lon="-2.27162"><ele>826.3</ele></trkpt>
<trkpt lat="42.92919" lon="-2.27176"><ele>823.0</ele></trkpt>
<trkpt lat="42.92892" lon="-2.27169"><ele>817.4</ele></trkpt>
<trkpt lat="42.92864" lon="-2.27169"><ele>810.4</ele></trkpt>
<trkpt lat="42.92833" lon="-2.27170"><ele>802.2</ele></trkpt>
<trkpt lat="42.92808" lon="-2.27177"><ele>792.3</ele></trkpt>
<trkpt lat="42.92790" lon="-2.27199"><ele>783.0</ele></trkpt>
<trkpt lat="42.92777" lon="-2.27231"><ele>775.2</ele></trkpt>
<trkpt lat="42.92765" lon="-2.27257"><ele>768.5</ele></trkpt>
<trkpt lat="42.92741" lon="-2.27268"><ele>758.9</ele></trkpt>
<trkpt lat="42.92720" lon="-2.27282"><ele>750.4</ele></trkpt>
<trkpt lat="42.92695" lon="-2.27296"><ele>741.9</ele></trkpt>
<trkpt lat="42.92673" lon="-2.27309"><ele>735.8</ele></trkpt>
<trkpt lat="42.92648" lon="-2.27318"><ele>733.0</ele></trkpt>
<trkpt lat="42.92633" lon="-2.27283"><ele>731.1</ele></trkpt>
<trkpt lat="42.92633" lon="-2.27251"><ele>730.8</ele></trkpt>
<trkpt lat="42.92633" lon="-2.27212"><ele>732.2</ele></trkpt>
<trkpt lat="42.92610" lon="-2.27209"><ele>733.5</ele></trkpt>
<trkpt lat="42.92587" lon="-2.27203"><ele>735.1</ele></trkpt>
<trkpt lat="42.92563" lon="-2.27186"><ele>741.7</ele></trkpt>
<trkpt lat="42.92535" lon="-2.27179"><ele>749.0</ele></trkpt>
<trkpt lat="42.92514" lon="-2.27170"><ele>755.3</ele></trkpt>
<trkpt lat="42.92483" lon="-2.27161"><ele>764.3</ele></trkpt>
<trkpt lat="42.92445" lon="-2.27145"><ele>775.9</ele></trkpt>
<trkpt lat="42.92413" lon="-2.27135"><ele>785.7</ele></trkpt>
<trkpt lat="42.92388" lon="-2.27136"><ele>791.3</ele></trkpt>
<trkpt lat="42.92358" lon="-2.27140"><ele>798.3</ele></trkpt>
<trkpt lat="42.92335" lon="-2.27166"><ele>807.3</ele></trkpt>
<trkpt lat="42.92310" lon="-2.27183"><ele>813.3</ele></trkpt>
<trkpt lat="42.92293" lon="-2.27205"><ele>817.8</ele></trkpt>
<trkpt lat="42.92267" lon="-2.27213"><ele>824.8</ele></trkpt>
<trkpt lat="42.92239" lon="-2.27222"><ele>831.2</ele></trkpt>
<trkpt lat="42.92214" lon="-2.27227"><ele>833.9</ele></trkpt>
<trkpt lat="42.92181" lon="-2.27213"><ele>837.5</ele></trkpt>
<trkpt lat="42.92155" lon="-2.27195"><ele>841.9</ele></trkpt>
<trkpt lat="42.92124" lon="-2.27189"><ele>846.7</ele></trkpt>
<trkpt lat="42.92097" lon="-2.27190"><ele>850.5</ele></trkpt>
<trkpt lat="42.92072" lon="-2.27189"><ele>855.0</ele></trkpt>
<trkpt lat="42.92041" lon="-2.27204"><ele>861.2</ele></trkpt>
<trkpt lat="42.92011" lon="-2.27197"><ele>868.2</ele></trkpt>
<trkpt lat="42.91974" lon="-2.27215"><ele>875.4</ele></trkpt>
<trkpt lat="42.91942" lon="-2.27222"><ele>881.3</ele></trkpt>
<trkpt lat="42.91916" lon="-2.27228"><ele>886.0</ele></trkpt>
<trkpt lat="42.91894" lon="-2.27244"><ele>887.7</ele></trkpt>
<trkpt lat="42.91874" lon="-2.27258"><ele>888.5</ele></trkpt>
<trkpt lat="42.91850" lon="-2.27271"><ele>890.2</ele></trkpt>
<trkpt lat="42.91812" lon="-2.27291"><ele>890.5</ele></trkpt>
<trkpt lat="42.91789" lon="-2.27310"><ele>888.7</ele></trkpt>
<trkpt lat="42.91761" lon="-2.27340"><ele>886.9</ele></trkpt>
<trkpt lat="42.91756" lon="-2.27376"><ele>885.2</ele></trkpt>
<trkpt lat="42.91748" lon="-2.27407"><ele>884.1</ele></trkpt>
<trkpt lat="42.91743" lon="-2.27442"><ele>887.0</ele></trkpt>
<trkpt lat="42.91742" lon="-2.27476"><ele>892.6</ele></trkpt>
<trkpt lat="42.91741" lon="-2.27508"><ele>897.8</ele></trkpt>
<trkpt lat="42.91732" lon="-2.27539"><ele>903.5</ele></trkpt>
<trkpt lat="42.91727" lon="-2.27579"><ele>911.7</ele></trkpt>
<trkpt lat="42.91711" lon="-2.27618"><ele>917.7</ele></trkpt>
<trkpt lat="42.91693" lon="-2.27660"><ele>925.2</ele></trkpt>
<trkpt lat="42.91663" lon="-2.27696"><ele>935.0</ele></trkpt>
<trkpt lat="42.91637" lon="-2.27710"><ele>935.9</ele></trkpt>
<trkpt lat="42.91613" lon="-2.27734"><ele>939.4</ele></trkpt>
<trkpt lat="42.91589" lon="-2.27747"><ele>944.7</ele></trkpt>
<trkpt lat="42.91570" lon="-2.27781"><ele>947.8</ele></trkpt>
<trkpt lat="42.91553" lon="-2.27811"><ele>951.7</ele></trkpt>
<trkpt lat="42.91525" lon="-2.27836"><ele>957.9</ele></trkpt>
<trkpt lat="42.91486" lon="-2.27848"><ele>960.2</ele></trkpt>
<trkpt lat="42.91455" lon="-2.27860"><ele>959.6</ele></trkpt>
<trkpt lat="42.91428" lon="-2.27865"><ele>959.4</ele></trkpt>
<trkpt lat="42.91393" lon="-2.27855"><ele>959.0</ele></trkpt>
<trkpt lat="42.91346" lon="-2.27841"><ele>959.1</ele></trkpt>
<trkpt lat="42.91320" lon="-2.27826"><ele>960.0</ele></trkpt>
<trkpt lat="42.91296" lon="-2.27817"><ele>960.3</ele></trkpt>
<trkpt lat="42.91269" lon="-2.27814"><ele>960.5</ele></trkpt>
<trkpt lat="42.91241" lon="-2.27815"><ele>959.9</ele></trkpt>
<trkpt lat="42.91209" lon="-2.27816"><ele>957.6</ele></trkpt>
<trkpt lat="42.91184" lon="-2.27821"><ele>955.8</ele></trkpt>
<trkpt lat="42.91148" lon="-2.27852"><ele>951.5</ele></trkpt>
<trkpt lat="42.91129" lon="-2.27881"><ele>948.1</ele></trkpt>
<trkpt lat="42.91116" lon="-2.27907"><ele>946.3</ele></trkpt>
<trkpt lat="42.91102" lon="-2.27952"><ele>945.6</ele></trkpt>
<trkpt lat="42.91088" lon="-2.27987"><ele>945.8</ele></trkpt>
<trkpt lat="42.91078" lon="-2.28038"><ele>945.8</ele></trkpt>
<trkpt lat="42.91074" lon="-2.28078"><ele>946.2</ele></trkpt>
<trkpt lat="42.91074" lon="-2.28135"><ele>952.8</ele></trkpt>
<trkpt lat="42.91061" lon="-2.28161"><ele>956.0</ele></trkpt>
<trkpt lat="42.91057" lon="-2.28200"><ele>964.1</ele></trkpt>
<trkpt lat="42.91040" lon="-2.28223"><ele>969.5</ele></trkpt>
<trkpt lat="42.91020" lon="-2.28247"><ele>975.1</ele></trkpt>
<trkpt lat="42.91003" lon="-2.28274"><ele>982.7</ele></trkpt>
<trkpt lat="42.90985" lon="-2.28301"><ele>991.6</ele></trkpt>
<trkpt lat="42.90960" lon="-2.28325"><ele>1000.2</ele></trkpt>
<trkpt lat="42.90933" lon="-2.28353"><ele>1005.7</ele></trkpt>
<trkpt lat="42.90906" lon="-2.28355"><ele>1007.8</ele></trkpt>
<trkpt lat="42.90872" lon="-2.28357"><ele>1010.5</ele></trkpt>
<trkpt lat="42.90850" lon="-2.28377"><ele>1013.4</ele></trkpt>
<trkpt lat="42.90819" lon="-2.28398"><ele>1014.7</ele></trkpt>
<trkpt lat="42.90794" lon="-2.28405"><ele>1013.5</ele></trkpt>
<trkpt lat="42.90772" lon="-2.28417"><ele>1014.0</ele></trkpt>
<trkpt lat="42.90744" lon="-2.28442"><ele>1015.3</ele></trkpt>
<trkpt lat="42.90723" lon="-2.28468"><ele>1017.0</ele></trkpt>
<trkpt lat="42.90695" lon="-2.28500"><ele>1021.7</ele></trkpt>
<trkpt lat="42.90679" lon="-2.28552"><ele>1028.2</ele></trkpt>
<trkpt lat="42.90667" lon="-2.28602"><ele>1036.4</ele></trkpt>
<trkpt lat="42.90656" lon="-2.28643"><ele>1040.0</ele></trkpt>
<trkpt lat="42.90642" lon="-2.28685"><ele>1045.1</ele></trkpt>
<trkpt lat="42.90633" lon="-2.28716"><ele>1051.3</ele></trkpt>
<trkpt lat="42.90615" lon="-2.28749"><ele>1059.0</ele></trkpt>
<trkpt lat="42.90592" lon="-2.28799"><ele>1066.1</ele></trkpt>
<trkpt lat="42.90586" lon="-2.28841"><ele>1071.0</ele></trkpt>
<trkpt lat="42.90597" lon="-2.28870"><ele>1067.2</ele></trkpt>
<trkpt lat="42.90612" lon="-2.28902"><ele>1062.9</ele></trkpt>
<trkpt lat="42.90626" lon="-2.28928"><ele>1059.7</ele></trkpt>
<trkpt lat="42.90650" lon="-2.28954"><ele>1056.8</ele></trkpt>
<trkpt lat="42.90672" lon="-2.28981"><ele>1054.5</ele></trkpt>
<trkpt lat="42.90702" lon="-2.29018"><ele>1052.0</ele></trkpt>
<trkpt lat="42.90724" lon="-2.29047"><ele>1052.9</ele></trkpt>
<trkpt lat="42.90737" lon="-2.29082"><ele>1057.4</ele></trkpt>
<trkpt lat="42.90728" lon="-2.29120"><ele>1064.8</ele></trkpt>
<trkpt lat="42.90716" lon="-2.29153"><ele>1069.1</ele></trkpt>
<trkpt lat="42.90712" lon="-2.29186"><ele>1076.1</ele></trkpt>
<trkpt lat="42.90721" lon="-2.29217"><ele>1086.5</ele></trkpt>
<trkpt lat="42.90749" lon="-2.29219"><ele>1092.5</ele></trkpt>
<trkpt lat="42.90773" lon="-2.29223"><ele>1102.5</ele></trkpt>
<trkpt lat="42.90796" lon="-2.29240"><ele>1115.9</ele></trkpt>
<trkpt lat="42.90822" lon="-2.29252"><ele>1129.1</ele></trkpt>
<trkpt lat="42.90845" lon="-2.29267"><ele>1138.3</ele></trkpt>
<trkpt lat="42.90861" lon="-2.29297"><ele>1147.2</ele></trkpt>
<trkpt lat="42.90878" lon="-2.29325"><ele>1156.2</ele></trkpt>
<trkpt lat="42.90897" lon="-2.29305"><ele>1157.9</ele></trkpt>
<trkpt lat="42.90922" lon="-2.29300"><ele>1163.6</ele></trkpt>
<trkpt lat="42.90946" lon="-2.29299"><ele>1168.7</ele></trkpt>
<trkpt lat="42.90966" lon="-2.29275"><ele>1167.2</ele></trkpt>
<trkpt lat="42.90989" lon="-2.29287"><ele>1174.8</ele></trkpt>
<trkpt lat="42.91013" lon="-2.29313"><ele>1184.8</ele></trkpt>
<trkpt lat="42.91038" lon="-2.29304"><ele>1180.5</ele></trkpt>
<trkpt lat="42.91062" lon="-2.29306"><ele>1180.4</ele></trkpt>
<trkpt lat="42.91093" lon="-2.29313"><ele>1177.0</ele></trkpt>
<trkpt lat="42.91111" lon="-2.29354"><ele>1179.6</ele></trkpt>
<trkpt lat="42.91120" lon="-2.29393"><ele>1181.2</ele></trkpt>
<trkpt lat="42.91145" lon="-2.29417"><ele>1173.2</ele></trkpt>
<trkpt lat="42.91154" lon="-2.29452"><ele>1172.0</ele></trkpt>
<trkpt lat="42.91173" lon="-2.29470"><ele>1164.5</ele></trkpt>
<trkpt lat="42.91192" lon="-2.29489"><ele>1156.0</ele></trkpt>
<trkpt lat="42.91209" lon="-2.29516"><ele>1152.1</ele></trkpt>
<trkpt lat="42.91232" lon="-2.29543"><ele>1148.7</ele></trkpt>
<trkpt lat="42.91266" lon="-2.29560"><ele>1140.8</ele></trkpt>
<trkpt lat="42.91275" lon="-2.29590"><ele>1147.1</ele></trkpt>
<trkpt lat="42.91287" lon="-2.29621"><ele>1152.3</ele></trkpt>
<trkpt lat="42.91306" lon="-2.29654"><ele>1158.7</ele></trkpt>
<trkpt lat="42.91332" lon="-2.29663"><ele>1157.7</ele></trkpt>
<trkpt lat="42.91364" lon="-2.29677"><ele>1150.5</ele></trkpt>
<trkpt lat="42.91381" lon="-2.29707"><ele>1149.1</ele></trkpt>
<trkpt lat="42.91403" lon="-2.29720"><ele>1144.7</ele></trkpt>
<trkpt lat="42.91426" lon="-2.29736"><ele>1142.2</ele></trkpt>
<trkpt lat="42.91444" lon="-2.29759"><ele>1143.8</ele></trkpt>
<trkpt lat="42.91469" lon="-2.29792"><ele>1146.3</ele></trkpt>
<trkpt lat="42.91494" lon="-2.29803"><ele>1148.6</ele></trkpt>
<trkpt lat="42.91516" lon="-2.29817"><ele>1154.4</ele></trkpt>
<trkpt lat="42.91541" lon="-2.29814"><ele>1158.6</ele></trkpt>
<trkpt lat="42.91566" lon="-2.29818"><ele>1164.1</ele></trkpt>
<trkpt lat="42.91586" lon="-2.29838"><ele>1174.9</ele></trkpt>
<trkpt lat="42.91610" lon="-2.29835"><ele>1181.5</ele></trkpt>
<trkpt lat="42.91642" lon="-2.29833"><ele>1190.9</ele></trkpt>
<trkpt lat="42.91668" lon="-2.29825"><ele>1196.1</ele></trkpt>
<trkpt lat="42.91696" lon="-2.29826"><ele>1198.6</ele></trkpt>
<trkpt lat="42.91719" lon="-2.29823"><ele>1199.7</ele></trkpt>
<trkpt lat="42.91749" lon="-2.29817"><ele>1201.0</ele></trkpt>
<trkpt lat="42.91784" lon="-2.29804"><ele>1200.1</ele></trkpt>
<trkpt lat="42.91810" lon="-2.29799"><ele>1200.9</ele></trkpt>
<trkpt lat="42.91826" lon="-2.29831"><ele>1206.4</ele></trkpt>
<trkpt lat="42.91824" lon="-2.29870"><ele>1215.2</ele></trkpt>
<trkpt lat="42.91808" lon="-2.29894"><ele>1222.0</ele></trkpt>
<trkpt lat="42.91810" lon="-2.29929"><ele>1230.9</ele></trkpt>
<trkpt lat="42.91822" lon="-2.29966"><ele>1240.7</ele></trkpt>
<trkpt lat="42.91825" lon="-2.29999"><ele>1250.2</ele></trkpt>
<trkpt lat="42.91819" lon="-2.30038"><ele>1257.2</ele></trkpt>
<trkpt lat="42.91804" lon="-2.30075"><ele>1262.9</ele></trkpt>
<trkpt lat="42.91785" lon="-2.30109"><ele>1266.8</ele></trkpt>
<trkpt lat="42.91769" lon="-2.30137"><ele>1269.3</ele></trkpt>
<trkpt lat="42.91762" lon="-2.30167"><ele>1272.4</ele></trkpt>
<trkpt lat="42.91752" lon="-2.30200"><ele>1272.9</ele></trkpt>
<trkpt lat="42.91751" lon="-2.30246"><ele>1275.0</ele></trkpt>
<trkpt lat="42.91755" lon="-2.30282"><ele>1275.5</ele></trkpt>
<trkpt lat="42.91769" lon="-2.30324"><ele>1280.0</ele></trkpt>
<trkpt lat="42.91797" lon="-2.30323"><ele>1290.0</ele></trkpt>
<trkpt lat="42.91819" lon="-2.30312"><ele>1296.6</ele></trkpt>
<trkpt lat="42.91841" lon="-2.30302"><ele>1303.3</ele></trkpt>
<trkpt lat="42.91869" lon="-2.30298"><ele>1314.8</ele></trkpt>
<trkpt lat="42.91897" lon="-2.30277"><ele>1322.1</ele></trkpt>
<trkpt lat="42.91923" lon="-2.30262"><ele>1328.9</ele></trkpt>
<trkpt lat="42.91945" lon="-2.30241"><ele>1333.4</ele></trkpt>
<trkpt lat="42.91974" lon="-2.30240"><ele>1344.9</ele></trkpt>
<trkpt lat="42.91991" lon="-2.30264"><ele>1357.3</ele></trkpt>
<trkpt lat="42.92010" lon="-2.30287"><ele>1369.8</ele></trkpt>
<trkpt lat="42.92031" lon="-2.30297"><ele>1378.0</ele></trkpt>
<trkpt lat="42.92053" lon="-2.30279"><ele>1379.1</ele></trkpt>
<trkpt lat="42.92073" lon="-2.30297"><ele>1388.6</ele></trkpt>
<trkpt lat="42.92070" lon="-2.30331"><ele>1396.3</ele></trkpt>
<trkpt lat="42.92060" lon="-2.30372"><ele>1403.5</ele></trkpt>
<trkpt lat="42.92057" lon="-2.30402"><ele>1409.8</ele></trkpt>
<trkpt lat="42.92067" lon="-2.30433"><ele>1416.3</ele></trkpt>
<trkpt lat="42.92075" lon="-2.30487"><ele>1420.1</ele></trkpt>
<trkpt lat="42.92096" lon="-2.30501"><ele>1421.1</ele></trkpt>
<trkpt lat="42.92121" lon="-2.30498"><ele>1417.9</ele></trkpt>
<trkpt lat="42.92135" lon="-2.30473"><ele>1413.6</ele></trkpt>
<trkpt lat="42.92158" lon="-2.30455"><ele>1407.6</ele></trkpt>
<trkpt lat="42.92178" lon="-2.30474"><ele>1404.2</ele></trkpt>
<trkpt lat="42.92201" lon="-2.30485"><ele>1397.4</ele></trkpt>
<trkpt lat="42.92225" lon="-2.30485"><ele>1388.8</ele></trkpt>
<trkpt lat="42.92248" lon="-2.30488"><ele>1380.9</ele></trkpt>
<trkpt lat="42.92269" lon="-2.30476"><ele>1372.4</ele></trkpt>
<trkpt lat="42.92293" lon="-2.30476"><ele>1365.1</ele></trkpt>
<trkpt lat="42.92326" lon="-2.30473"><ele>1354.7</ele></trkpt>
<trkpt lat="42.92354" lon="-2.30478"><ele>1348.3</ele></trkpt>
<trkpt lat="42.92382" lon="-2.30477"><ele>1342.0</ele></trkpt>
<trkpt lat="42.92407" lon="-2.30477"><ele>1336.3</ele></trkpt>
<trkpt lat="42.92433" lon="-2.30482"><ele>1330.5</ele></trkpt>
<trkpt lat="42.92461" lon="-2.30500"><ele>1324.4</ele></trkpt>
<trkpt lat="42.92487" lon="-2.30521"><ele>1320.8</ele></trkpt>
<trkpt lat="42.92502" lon="-2.30548"><ele>1320.5</ele></trkpt>
<trkpt lat="42.92520" lon="-2.30574"><ele>1319.3</ele></trkpt>
<trkpt lat="42.92543" lon="-2.30596"><ele>1315.1</ele></trkpt>
<trkpt lat="42.92567" lon="-2.30611"><ele>1309.4</ele></trkpt>
<trkpt lat="42.92607" lon="-2.30639"><ele>1302.8</ele></trkpt>
<trkpt lat="42.92630" lon="-2.30667"><ele>1299.4</ele></trkpt>
<trkpt lat="42.92653" lon="-2.30676"><ele>1294.4</ele></trkpt>
<trkpt lat="42.92659" lon="-2.30715"><ele>1291.3</ele></trkpt>
<trkpt lat="42.92658" lon="-2.30756"><ele>1289.8</ele></trkpt>
<trkpt lat="42.92657" lon="-2.30790"><ele>1289.5</ele></trkpt>
<trkpt lat="42.92629" lon="-2.30821"><ele>1293.8</ele></trkpt>
<trkpt lat="42.92628" lon="-2.30861"><ele>1293.2</ele></trkpt>
<trkpt lat="42.92638" lon="-2.30889"><ele>1292.4</ele></trkpt>
<trkpt lat="42.92636" lon="-2.30926"><ele>1291.4</ele></trkpt>
<trkpt lat="42.92637" lon="-2.30960"><ele>1286.0</ele></trkpt>
<trkpt lat="42.92659" lon="-2.31008"><ele>1279.4</ele></trkpt>
<trkpt lat="42.92678" lon="-2.31024"><ele>1277.3</ele></trkpt>
<trkpt lat="42.92710" lon="-2.31044"><ele>1276.9</ele></trkpt>
<trkpt lat="42.92746" lon="-2.31066"><ele>1278.6</ele></trkpt>
<trkpt lat="42.92768" lon="-2.31080"><ele>1276.9</ele></trkpt>
<trkpt lat="42.92794" lon="-2.31094"><ele>1272.7</ele></trkpt>
<trkpt lat="42.92814" lon="-2.31114"><ele>1266.9</ele></trkpt>
<trkpt lat="42.92842" lon="-2.31131"><ele>1261.3</ele></trkpt>
<trkpt lat="42.92864" lon="-2.31145"><ele>1255.1</ele></trkpt>
<trkpt lat="42.92884" lon="-2.31168"><ele>1250.0</ele></trkpt>
<trkpt lat="42.92902" lon="-2.31190"><ele>1244.6</ele></trkpt>
<trkpt lat="42.92923" lon="-2.31206"><ele>1240.1</ele></trkpt>
<trkpt lat="42.92961" lon="-2.31241"><ele>1231.9</ele></trkpt>
<trkpt lat="42.92991" lon="-2.31259"><ele>1229.4</ele></trkpt>
<trkpt lat="42.93010" lon="-2.31278"><ele>1222.9</ele></trkpt>
<trkpt lat="42.93024" lon="-2.31312"><ele>1216.4</ele></trkpt>
<trkpt lat="42.93043" lon="-2.31346"><ele>1210.3</ele></trkpt>
<trkpt lat="42.93058" lon="-2.31371"><ele>1204.9</ele></trkpt>
<trkpt lat="42.93074" lon="-2.31400"><ele>1201.1</ele></trkpt>
<trkpt lat="42.93080" lon="-2.31431"><ele>1197.8</ele></trkpt>
<trkpt lat="42.93099" lon="-2.31452"><ele>1193.0</ele></trkpt>
<trkpt lat="42.93121" lon="-2.31474"><ele>1188.0</ele></trkpt>
<trkpt lat="42.93139" lon="-2.31500"><ele>1184.0</ele></trkpt>
<trkpt lat="42.93155" lon="-2.31526"><ele>1178.1</ele></trkpt>
<trkpt lat="42.93174" lon="-2.31555"><ele>1170.4</ele></trkpt>
<trkpt lat="42.93195" lon="-2.31602"><ele>1159.1</ele></trkpt>
<trkpt lat="42.93206" lon="-2.31650"><ele>1150.3</ele></trkpt>
<trkpt lat="42.93202" lon="-2.31681"><ele>1145.4</ele></trkpt>
<trkpt lat="42.93189" lon="-2.31706"><ele>1142.0</ele></trkpt>
<trkpt lat="42.93183" lon="-2.31736"><ele>1137.7</ele></trkpt>
<trkpt lat="42.93200" lon="-2.31765"><ele>1132.1</ele></trkpt>
<trkpt lat="42.93205" lon="-2.31795"><ele>1127.8</ele></trkpt>
<trkpt lat="42.93227" lon="-2.31817"><ele>1120.9</ele></trkpt>
<trkpt lat="42.93255" lon="-2.31840"><ele>1111.7</ele></trkpt>
<trkpt lat="42.93293" lon="-2.31859"><ele>1102.8</ele></trkpt>
<trkpt lat="42.93317" lon="-2.31863"><ele>1097.6</ele></trkpt>
<trkpt lat="42.93354" lon="-2.31873"><ele>1089.5</ele></trkpt>
<trkpt lat="42.93379" lon="-2.31883"><ele>1084.4</ele></trkpt>
<trkpt lat="42.93404" lon="-2.31887"><ele>1080.3</ele></trkpt>
<trkpt lat="42.93431" lon="-2.31883"><ele>1076.8</ele></trkpt>
<trkpt lat="42.93458" lon="-2.31891"><ele>1072.1</ele></trkpt>
<trkpt lat="42.93490" lon="-2.31894"><ele>1067.3</ele></trkpt>
<trkpt lat="42.93521" lon="-2.31886"><ele>1064.1</ele></trkpt>
<trkpt lat="42.93548" lon="-2.31883"><ele>1061.6</ele></trkpt>
<trkpt lat="42.93567" lon="-2.31868"><ele>1058.8</ele></trkpt>
<trkpt lat="42.93588" lon="-2.31841"><ele>1054.3</ele></trkpt>
<trkpt lat="42.93604" lon="-2.31812"><ele>1052.2</ele></trkpt>
<trkpt lat="42.93616" lon="-2.31785"><ele>1052.0</ele></trkpt>
<trkpt lat="42.93618" lon="-2.31741"><ele>1052.0</ele></trkpt>
<trkpt lat="42.93594" lon="-2.31709"><ele>1046.7</ele></trkpt>
<trkpt lat="42.93581" lon="-2.31681"><ele>1042.6</ele></trkpt>
<trkpt lat="42.93560" lon="-2.31660"><ele>1044.4</ele></trkpt>
<trkpt lat="42.93537" lon="-2.31641"><ele>1046.5</ele></trkpt>
<trkpt lat="42.93518" lon="-2.31624"><ele>1046.6</ele></trkpt>
<trkpt lat="42.93527" lon="-2.31544"><ele>1039.1</ele></trkpt>
<trkpt lat="42.93547" lon="-2.31525"><ele>1033.8</ele></trkpt>
<trkpt lat="42.93567" lon="-2.31490"><ele>1019.3</ele></trkpt>
<trkpt lat="42.93583" lon="-2.31451"><ele>997.0</ele></trkpt>
<trkpt lat="42.93586" lon="-2.31418"><ele>983.4</ele></trkpt>
<trkpt lat="42.93592" lon="-2.31386"><ele>977.0</ele></trkpt>
<trkpt lat="42.93609" lon="-2.31342"><ele>972.6</ele></trkpt>
<trkpt lat="42.93630" lon="-2.31314"><ele>974.1</ele></trkpt>
<trkpt lat="42.93647" lon="-2.31292"><ele>974.6</ele></trkpt>
<trkpt lat="42.93661" lon="-2.31259"><ele>968.8</ele></trkpt>
<trkpt lat="42.93672" lon="-2.31223"><ele>960.9</ele></trkpt>
<trkpt lat="42.93689" lon="-2.31196"><ele>957.9</ele></trkpt>
<trkpt lat="42.93714" lon="-2.31172"><ele>958.1</ele></trkpt>
<trkpt lat="42.93734" lon="-2.31154"><ele>959.0</ele></trkpt>
<trkpt lat="42.93766" lon="-2.31130"><ele>964.2</ele></trkpt>
<trkpt lat="42.93790" lon="-2.31110"><ele>967.6</ele></trkpt>
<trkpt lat="42.93811" lon="-2.31087"><ele>968.7</ele></trkpt>
<trkpt lat="42.93823" lon="-2.31028"><ele>964.5</ele></trkpt>
<trkpt lat="42.93830" lon="-2.30977"><ele>960.5</ele></trkpt>
<trkpt lat="42.93841" lon="-2.30947"><ele>959.8</ele></trkpt>
<trkpt lat="42.93878" lon="-2.30896"><ele>961.7</ele></trkpt>
<trkpt lat="42.93888" lon="-2.30930"><ele>970.5</ele></trkpt>
<trkpt lat="42.93889" lon="-2.30964"><ele>978.6</ele></trkpt>
<trkpt lat="42.93898" lon="-2.30995"><ele>989.4</ele></trkpt>
<trkpt lat="42.93905" lon="-2.31029"><ele>998.6</ele></trkpt>
<trkpt lat="42.93904" lon="-2.31060"><ele>1004.2</ele></trkpt>
<trkpt lat="42.93912" lon="-2.31099"><ele>1016.7</ele></trkpt>
<trkpt lat="42.93914" lon="-2.31131"><ele>1027.1</ele></trkpt>
<trkpt lat="42.93937" lon="-2.31136"><ele>1031.5</ele></trkpt>
<trkpt lat="42.93960" lon="-2.31137"><ele>1033.7</ele></trkpt>
<trkpt lat="42.93986" lon="-2.31138"><ele>1036.4</ele></trkpt>
<trkpt lat="42.94017" lon="-2.31151"><ele>1037.3</ele></trkpt>
<trkpt lat="42.94042" lon="-2.31164"><ele>1036.8</ele></trkpt>
<trkpt lat="42.94066" lon="-2.31171"><ele>1036.3</ele></trkpt>
<trkpt lat="42.94093" lon="-2.31176"><ele>1034.5</ele></trkpt>
<trkpt lat="42.94121" lon="-2.31198"><ele>1040.9</ele></trkpt>
<trkpt lat="42.94144" lon="-2.31203"><ele>1038.5</ele></trkpt>
<trkpt lat="42.94176" lon="-2.31227"><ele>1041.7</ele></trkpt>
<trkpt lat="42.94200" lon="-2.31236"><ele>1040.9</ele></trkpt>
<trkpt lat="42.94228" lon="-2.31260"><ele>1044.9</ele></trkpt>
<trkpt lat="42.94249" lon="-2.31279"><ele>1048.8</ele></trkpt>
<trkpt lat="42.94279" lon="-2.31299"><ele>1056.9</ele></trkpt>
<trkpt lat="42.94304" lon="-2.31310"><ele>1061.1</ele></trkpt>
<trkpt lat="42.94325" lon="-2.31328"><ele>1068.0</ele></trkpt>
<trkpt lat="42.94349" lon="-2.31350"><ele>1082.3</ele></trkpt>
<trkpt lat="42.94375" lon="-2.31354"><ele>1086.4</ele></trkpt>
<trkpt lat="42.94400" lon="-2.31359"><ele>1090.6</ele></trkpt>
<trkpt lat="42.94419" lon="-2.31378"><ele>1099.7</ele></trkpt>
<trkpt lat="42.94440" lon="-2.31401"><ele>1103.3</ele></trkpt>
<trkpt lat="42.94462" lon="-2.31429"><ele>1108.4</ele></trkpt>
<trkpt lat="42.94474" lon="-2.31462"><ele>1117.2</ele></trkpt>
<trkpt lat="42.94485" lon="-2.31501"><ele>1127.2</ele></trkpt>
<trkpt lat="42.94492" lon="-2.31532"><ele>1134.9</ele></trkpt>
<trkpt lat="42.94506" lon="-2.31558"><ele>1137.0</ele></trkpt>
<trkpt lat="42.94512" lon="-2.31590"><ele>1145.5</ele></trkpt>
<trkpt lat="42.94508" lon="-2.31625"><ele>1161.1</ele></trkpt>
<trkpt lat="42.94504" lon="-2.31655"><ele>1174.8</ele></trkpt>
<trkpt lat="42.94479" lon="-2.31656"><ele>1189.9</ele></trkpt>
<trkpt lat="42.94478" lon="-2.31694"><ele>1206.1</ele></trkpt>
<trkpt lat="42.94456" lon="-2.31707"><ele>1223.5</ele></trkpt>
<trkpt lat="42.94442" lon="-2.31732"><ele>1240.6</ele></trkpt>
<trkpt lat="42.94454" lon="-2.31762"><ele>1246.1</ele></trkpt>
<trkpt lat="42.94460" lon="-2.31797"><ele>1258.5</ele></trkpt>
<trkpt lat="42.94471" lon="-2.31833"><ele>1270.2</ele></trkpt>
<trkpt lat="42.94484" lon="-2.31858"><ele>1279.0</ele></trkpt>
<trkpt lat="42.94499" lon="-2.31890"><ele>1292.3</ele></trkpt>
<trkpt lat="42.94521" lon="-2.31903"><ele>1292.2</ele></trkpt>
<trkpt lat="42.94530" lon="-2.31935"><ele>1307.3</ele></trkpt>
<trkpt lat="42.94548" lon="-2.31959"><ele>1313.8</ele></trkpt>
<trkpt lat="42.94574" lon="-2.31981"><ele>1318.5</ele></trkpt>
<trkpt lat="42.94585" lon="-2.32016"><ele>1332.0</ele></trkpt>
<trkpt lat="42.94599" lon="-2.32045"><ele>1341.2</ele></trkpt>
<trkpt lat="42.94614" lon="-2.32072"><ele>1349.9</ele></trkpt>
<trkpt lat="42.94634" lon="-2.32094"><ele>1356.7</ele></trkpt>
<trkpt lat="42.94655" lon="-2.32115"><ele>1362.9</ele></trkpt>
<trkpt lat="42.94685" lon="-2.32127"><ele>1365.6</ele></trkpt>
<trkpt lat="42.94705" lon="-2.32142"><ele>1370.8</ele></trkpt>
<trkpt lat="42.94728" lon="-2.32160"><ele>1378.8</ele></trkpt>
<trkpt lat="42.94750" lon="-2.32189"><ele>1388.2</ele></trkpt>
<trkpt lat="42.94770" lon="-2.32205"><ele>1391.1</ele></trkpt>
<trkpt lat="42.94796" lon="-2.32225"><ele>1394.9</ele></trkpt>
<trkpt lat="42.94807" lon="-2.32254"><ele>1404.7</ele></trkpt>
<trkpt lat="42.94825" lon="-2.32283"><ele>1415.5</ele></trkpt>
<trkpt lat="42.94836" lon="-2.32316"><ele>1429.3</ele></trkpt>
<trkpt lat="42.94858" lon="-2.32333"><ele>1435.9</ele></trkpt>
<trkpt lat="42.94889" lon="-2.32340"><ele>1436.7</ele></trkpt>
<trkpt lat="42.94914" lon="-2.32340"><ele>1436.2</ele></trkpt>
<trkpt lat="42.94933" lon="-2.32358"><ele>1439.0</ele></trkpt>
<trkpt lat="42.94948" lon="-2.32387"><ele>1448.3</ele></trkpt>
<trkpt lat="42.94971" lon="-2.32414"><ele>1458.6</ele></trkpt>
<trkpt lat="42.94997" lon="-2.32427"><ele>1460.2</ele></trkpt>
<trkpt lat="42.95023" lon="-2.32435"><ele>1461.3</ele></trkpt>
<trkpt lat="42.95043" lon="-2.32450"><ele>1465.9</ele></trkpt>
<trkpt lat="42.95066" lon="-2.32458"><ele>1470.4</ele></trkpt>
<trkpt lat="42.95093" lon="-2.32470"><ele>1472.2</ele></trkpt>
<trkpt lat="42.95113" lon="-2.32497"><ele>1474.5</ele></trkpt>
<trkpt lat="42.95103" lon="-2.32536"><ele>1481.8</ele></trkpt>
<trkpt lat="42.95112" lon="-2.32573"><ele>1481.3</ele></trkpt>
<trkpt lat="42.95138" lon="-2.32604"><ele>1472.2</ele></trkpt>
<trkpt lat="42.95169" lon="-2.32613"><ele>1467.3</ele></trkpt>
<trkpt lat="42.95188" lon="-2.32647"><ele>1459.8</ele></trkpt>
<trkpt lat="42.95223" lon="-2.32656"><ele>1459.0</ele></trkpt>
<trkpt lat="42.95251" lon="-2.32669"><ele>1460.9</ele></trkpt>
<trkpt lat="42.95281" lon="-2.32689"><ele>1451.5</ele></trkpt>
<trkpt lat="42.95304" lon="-2.32714"><ele>1447.5</ele></trkpt>
<trkpt lat="42.95330" lon="-2.32736"><ele>1449.6</ele></trkpt>
<trkpt lat="42.95355" lon="-2.32741"><ele>1453.8</ele></trkpt>
<trkpt lat="42.95383" lon="-2.32737"><ele>1458.0</ele></trkpt>
<trkpt lat="42.95409" lon="-2.32739"><ele>1462.1</ele></trkpt>
<trkpt lat="42.95432" lon="-2.32746"><ele>1466.0</ele></trkpt>
<trkpt lat="42.95461" lon="-2.32750"><ele>1471.4</ele></trkpt>
<trkpt lat="42.95493" lon="-2.32753"><ele>1476.8</ele></trkpt>
<trkpt lat="42.95517" lon="-2.32759"><ele>1478.9</ele></trkpt>
<trkpt lat="42.95550" lon="-2.32767"><ele>1482.5</ele></trkpt>
<trkpt lat="42.95576" lon="-2.32779"><ele>1485.6</ele></trkpt>
<trkpt lat="42.95612" lon="-2.32801"><ele>1487.3</ele></trkpt>
<trkpt lat="42.95639" lon="-2.32808"><ele>1490.8</ele></trkpt>
<trkpt lat="42.95661" lon="-2.32817"><ele>1496.2</ele></trkpt>
<trkpt lat="42.95687" lon="-2.32830"><ele>1499.0</ele></trkpt>
<trkpt lat="42.95707" lon="-2.32851"><ele>1498.1</ele></trkpt>
<trkpt lat="42.95724" lon="-2.32873"><ele>1499.6</ele></trkpt>
<trkpt lat="42.95741" lon="-2.32893"><ele>1504.9</ele></trkpt>
<trkpt lat="42.95767" lon="-2.32895"><ele>1503.5</ele></trkpt>
<trkpt lat="42.95797" lon="-2.32911"><ele>1503.1</ele></trkpt>
<trkpt lat="42.95812" lon="-2.32937"><ele>1504.1</ele></trkpt>
<trkpt lat="42.95831" lon="-2.32960"><ele>1506.6</ele></trkpt>
<trkpt lat="42.95851" lon="-2.32975"><ele>1506.4</ele></trkpt>
<trkpt lat="42.95871" lon="-2.32990"><ele>1506.2</ele></trkpt>
<trkpt lat="42.95881" lon="-2.33018"><ele>1504.6</ele></trkpt>
<trkpt lat="42.95893" lon="-2.33052"><ele>1500.1</ele></trkpt>
<trkpt lat="42.95910" lon="-2.33076"><ele>1499.5</ele></trkpt>
<trkpt lat="42.95920" lon="-2.33106"><ele>1493.7</ele></trkpt>
<trkpt lat="42.95930" lon="-2.33137"><ele>1482.5</ele></trkpt>
<trkpt lat="42.95934" lon="-2.33170"><ele>1476.0</ele></trkpt>
<trkpt lat="42.95945" lon="-2.33212"><ele>1465.5</ele></trkpt>
<trkpt lat="42.95955" lon="-2.33248"><ele>1459.8</ele></trkpt>
<trkpt lat="42.95974" lon="-2.33282"><ele>1457.0</ele></trkpt>
<trkpt lat="42.95985" lon="-2.33311"><ele>1457.9</ele></trkpt>
<trkpt lat="42.96006" lon="-2.33336"><ele>1461.5</ele></trkpt>
<trkpt lat="42.96022" lon="-2.33367"><ele>1456.5</ele></trkpt>
<trkpt lat="42.96038" lon="-2.33391"><ele>1456.1</ele></trkpt>
<trkpt lat="42.96059" lon="-2.33419"><ele>1459.4</ele></trkpt>
<trkpt lat="42.96087" lon="-2.33429"><ele>1460.5</ele></trkpt>
<trkpt lat="42.96108" lon="-2.33440"><ele>1455.3</ele></trkpt>
<trkpt lat="42.96114" lon="-2.33472"><ele>1448.2</ele></trkpt>
<trkpt lat="42.96115" lon="-2.33504"><ele>1440.9</ele></trkpt>
<trkpt lat="42.96115" lon="-2.33539"><ele>1424.5</ele></trkpt>
<trkpt lat="42.96119" lon="-2.33573"><ele>1408.8</ele></trkpt>
<trkpt lat="42.96126" lon="-2.33604"><ele>1392.4</ele></trkpt>
<trkpt lat="42.96131" lon="-2.33641"><ele>1372.3</ele></trkpt>
<trkpt lat="42.96138" lon="-2.33677"><ele>1355.4</ele></trkpt>
<trkpt lat="42.96139" lon="-2.33714"><ele>1340.1</ele></trkpt>
<trkpt lat="42.96141" lon="-2.33748"><ele>1326.4</ele></trkpt>
<trkpt lat="42.96150" lon="-2.33783"><ele>1313.8</ele></trkpt>
<trkpt lat="42.96160" lon="-2.33825"><ele>1299.4</ele></trkpt>
<trkpt lat="42.96153" lon="-2.33854"><ele>1285.8</ele></trkpt>
<trkpt lat="42.96150" lon="-2.33886"><ele>1272.6</ele></trkpt>
<trkpt lat="42.96140" lon="-2.33920"><ele>1256.6</ele></trkpt>
<trkpt lat="42.96133" lon="-2.33957"><ele>1241.6</ele></trkpt>
<trkpt lat="42.96131" lon="-2.33993"><ele>1228.6</ele></trkpt>
<trkpt lat="42.96121" lon="-2.34021"><ele>1218.8</ele></trkpt>
<trkpt lat="42.96115" lon="-2.34058"><ele>1210.4</ele></trkpt>
<trkpt lat="42.96106" lon="-2.34087"><ele>1202.9</ele></trkpt>
<trkpt lat="42.96087" lon="-2.34142"><ele>1193.8</ele></trkpt>
<trkpt lat="42.96059" lon="-2.34161"><ele>1185.8</ele></trkpt>
<trkpt lat="42.96035" lon="-2.34167"><ele>1179.8</ele></trkpt>
<trkpt lat="42.96024" lon="-2.34137"><ele>1180.5</ele></trkpt>
<trkpt lat="42.95995" lon="-2.34134"><ele>1174.7</ele></trkpt>
<trkpt lat="42.95970" lon="-2.34120"><ele>1172.2</ele></trkpt>
<trkpt lat="42.95933" lon="-2.34149"><ele>1162.8</ele></trkpt>
<trkpt lat="42.95918" lon="-2.34174"><ele>1157.6</ele></trkpt>
<trkpt lat="42.95906" lon="-2.34204"><ele>1152.7</ele></trkpt>
<trkpt lat="42.95864" lon="-2.34233"><ele>1142.5</ele></trkpt>
<trkpt lat="42.95842" lon="-2.34225"><ele>1138.6</ele></trkpt>
<trkpt lat="42.95828" lon="-2.34201"><ele>1136.6</ele></trkpt>
<trkpt lat="42.95805" lon="-2.34200"><ele>1131.4</ele></trkpt>
<trkpt lat="42.95774" lon="-2.34234"><ele>1124.0</ele></trkpt>
<trkpt lat="42.95749" lon="-2.34262"><ele>1119.4</ele></trkpt>
<trkpt lat="42.95726" lon="-2.34258"><ele>1118.4</ele></trkpt>
<trkpt lat="42.95713" lon="-2.34222"><ele>1117.7</ele></trkpt>
<trkpt lat="42.95690" lon="-2.34188"><ele>1116.8</ele></trkpt>
<trkpt lat="42.95671" lon="-2.34158"><ele>1116.3</ele></trkpt>
<trkpt lat="42.95654" lon="-2.34122"><ele>1116.5</ele></trkpt>
<trkpt lat="42.95628" lon="-2.34091"><ele>1116.5</ele></trkpt>
<trkpt lat="42.95605" lon="-2.34063"><ele>1116.9</ele></trkpt>
<trkpt lat="42.95581" lon="-2.34021"><ele>1116.7</ele></trkpt>
<trkpt lat="42.95563" lon="-2.33995"><ele>1116.6</ele></trkpt>
<trkpt lat="42.95539" lon="-2.33961"><ele>1117.5</ele></trkpt>
<trkpt lat="42.95516" lon="-2.33931"><ele>1117.0</ele></trkpt>
<trkpt lat="42.95491" lon="-2.33904"><ele>1116.8</ele></trkpt>
<trkpt lat="42.95473" lon="-2.33868"><ele>1119.1</ele></trkpt>
<trkpt lat="42.95454" lon="-2.33837"><ele>1121.3</ele></trkpt>
<trkpt lat="42.95436" lon="-2.33809"><ele>1122.0</ele></trkpt>
<trkpt lat="42.95432" lon="-2.33776"><ele>1122.0</ele></trkpt>
<trkpt lat="42.95425" lon="-2.33741"><ele>1122.0</ele></trkpt>
<trkpt lat="42.95409" lon="-2.33714"><ele>1122.1</ele></trkpt>
<trkpt lat="42.95385" lon="-2.33689"><ele>1122.1</ele></trkpt>
<trkpt lat="42.95361" lon="-2.33666"><ele>1121.5</ele></trkpt>
<trkpt lat="42.95339" lon="-2.33643"><ele>1123.0</ele></trkpt>
<trkpt lat="42.95315" lon="-2.33642"><ele>1120.8</ele></trkpt>
<trkpt lat="42.95299" lon="-2.33606"><ele>1123.0</ele></trkpt>
<trkpt lat="42.95302" lon="-2.33564"><ele>1128.6</ele></trkpt>
<trkpt lat="42.95287" lon="-2.33534"><ele>1129.7</ele></trkpt>
<trkpt lat="42.95263" lon="-2.33514"><ele>1126.9</ele></trkpt>
<trkpt lat="42.95249" lon="-2.33488"><ele>1127.1</ele></trkpt>
<trkpt lat="42.95218" lon="-2.33457"><ele>1126.1</ele></trkpt>
<trkpt lat="42.95197" lon="-2.33424"><ele>1125.1</ele></trkpt>
<trkpt lat="42.95164" lon="-2.33419"><ele>1117.4</ele></trkpt>
<trkpt lat="42.95138" lon="-2.33420"><ele>1113.3</ele></trkpt>
<trkpt lat="42.95089" lon="-2.33448"><ele>1105.4</ele></trkpt>
<trkpt lat="42.95067" lon="-2.33474"><ele>1104.4</ele></trkpt>
<trkpt lat="42.95042" lon="-2.33510"><ele>1104.1</ele></trkpt>
<trkpt lat="42.95029" lon="-2.33539"><ele>1104.3</ele></trkpt>
<trkpt lat="42.95016" lon="-2.33575"><ele>1104.4</ele></trkpt>
<trkpt lat="42.95001" lon="-2.33618"><ele>1104.8</ele></trkpt>
<trkpt lat="42.94989" lon="-2.33652"><ele>1105.4</ele></trkpt>
<trkpt lat="42.94979" lon="-2.33686"><ele>1105.8</ele></trkpt>
<trkpt lat="42.94970" lon="-2.33717"><ele>1106.1</ele></trkpt>
<trkpt lat="42.94953" lon="-2.33749"><ele>1106.4</ele></trkpt>
<trkpt lat="42.94936" lon="-2.33787"><ele>1106.4</ele></trkpt>
<trkpt lat="42.94915" lon="-2.33826"><ele>1106.0</ele></trkpt>
<trkpt lat="42.94905" lon="-2.33865"><ele>1106.2</ele></trkpt>
<trkpt lat="42.94898" lon="-2.33902"><ele>1106.9</ele></trkpt>
<trkpt lat="42.94906" lon="-2.33934"><ele>1107.5</ele></trkpt>
<trkpt lat="42.94933" lon="-2.33942"><ele>1108.1</ele></trkpt>
<trkpt lat="42.94960" lon="-2.33989"><ele>1109.4</ele></trkpt>
<trkpt lat="42.94985" lon="-2.34006"><ele>1109.9</ele></trkpt>
<trkpt lat="42.94999" lon="-2.34038"><ele>1110.5</ele></trkpt>
<trkpt lat="42.95021" lon="-2.34081"><ele>1110.0</ele></trkpt>
<trkpt lat="42.95039" lon="-2.34110"><ele>1109.5</ele></trkpt>
<trkpt lat="42.95073" lon="-2.34138"><ele>1107.6</ele></trkpt>
<trkpt lat="42.95089" lon="-2.34161"><ele>1107.0</ele></trkpt>
<trkpt lat="42.95111" lon="-2.34203"><ele>1107.9</ele></trkpt>
<trkpt lat="42.95130" lon="-2.34224"><ele>1107.9</ele></trkpt>
<trkpt lat="42.95159" lon="-2.34239"><ele>1107.2</ele></trkpt>
<trkpt lat="42.95181" lon="-2.34268"><ele>1107.9</ele></trkpt>
<trkpt lat="42.95219" lon="-2.34295"><ele>1107.7</ele></trkpt>
<trkpt lat="42.95245" lon="-2.34328"><ele>1105.6</ele></trkpt>
<trkpt lat="42.95273" lon="-2.34359"><ele>1108.8</ele></trkpt>
<trkpt lat="42.95296" lon="-2.34393"><ele>1111.6</ele></trkpt>
<trkpt lat="42.95315" lon="-2.34428"><ele>1113.4</ele></trkpt>
<trkpt lat="42.95320" lon="-2.34458"><ele>1116.9</ele></trkpt>
<trkpt lat="42.95319" lon="-2.34492"><ele>1121.8</ele></trkpt>
<trkpt lat="42.95340" lon="-2.34509"><ele>1120.3</ele></trkpt>
<trkpt lat="42.95363" lon="-2.34527"><ele>1119.4</ele></trkpt>
<trkpt lat="42.95391" lon="-2.34541"><ele>1116.9</ele></trkpt>
<trkpt lat="42.95403" lon="-2.34567"><ele>1117.6</ele></trkpt>
<trkpt lat="42.95429" lon="-2.34604"><ele>1117.9</ele></trkpt>
<trkpt lat="42.95445" lon="-2.34631"><ele>1118.8</ele></trkpt>
<trkpt lat="42.95464" lon="-2.34662"><ele>1119.5</ele></trkpt>
<trkpt lat="42.95486" lon="-2.34683"><ele>1119.7</ele></trkpt>
<trkpt lat="42.95506" lon="-2.34712"><ele>1121.5</ele></trkpt>
<trkpt lat="42.95528" lon="-2.34739"><ele>1124.0</ele></trkpt>
<trkpt lat="42.95539" lon="-2.34785"><ele>1127.3</ele></trkpt>
<trkpt lat="42.95556" lon="-2.34838"><ele>1130.6</ele></trkpt>
<trkpt lat="42.95586" lon="-2.34848"><ele>1131.0</ele></trkpt>
<trkpt lat="42.95605" lon="-2.34884"><ele>1133.5</ele></trkpt>
<trkpt lat="42.95626" lon="-2.34907"><ele>1134.9</ele></trkpt>
<trkpt lat="42.95664" lon="-2.34927"><ele>1135.3</ele></trkpt>
<trkpt lat="42.95684" lon="-2.34946"><ele>1133.1</ele></trkpt>
<trkpt lat="42.95706" lon="-2.34953"><ele>1129.7</ele></trkpt>
<trkpt lat="42.95730" lon="-2.34970"><ele>1126.2</ele></trkpt>
<trkpt lat="42.95760" lon="-2.34969"><ele>1122.5</ele></trkpt>
<trkpt lat="42.95785" lon="-2.34992"><ele>1121.6</ele></trkpt>
<trkpt lat="42.95803" lon="-2.35012"><ele>1122.3</ele></trkpt>
<trkpt lat="42.95824" lon="-2.35025"><ele>1123.0</ele></trkpt>
<trkpt lat="42.95845" lon="-2.35044"><ele>1124.0</ele></trkpt>
<trkpt lat="42.95866" lon="-2.35068"><ele>1124.7</ele></trkpt>
<trkpt lat="42.95883" lon="-2.35097"><ele>1125.4</ele></trkpt>
<trkpt lat="42.95901" lon="-2.35123"><ele>1126.2</ele></trkpt>
<trkpt lat="42.95919" lon="-2.35150"><ele>1127.2</ele></trkpt>
<trkpt lat="42.95934" lon="-2.35176"><ele>1128.8</ele></trkpt>
<trkpt lat="42.95957" lon="-2.35202"><ele>1129.6</ele></trkpt>
<trkpt lat="42.95978" lon="-2.35243"><ele>1131.2</ele></trkpt>
<trkpt lat="42.95987" lon="-2.35280"><ele>1132.6</ele></trkpt>
<trkpt lat="42.96015" lon="-2.35349"><ele>1132.8</ele></trkpt>
<trkpt lat="42.96034" lon="-2.35368"><ele>1132.0</ele></trkpt>
<trkpt lat="42.96061" lon="-2.35390"><ele>1130.0</ele></trkpt>
<trkpt lat="42.96083" lon="-2.35415"><ele>1128.0</ele></trkpt>
<trkpt lat="42.96100" lon="-2.35437"><ele>1129.0</ele></trkpt>
<trkpt lat="42.96127" lon="-2.35457"><ele>1128.5</ele></trkpt>
<trkpt lat="42.96142" lon="-2.35484"><ele>1128.5</ele></trkpt>
<trkpt lat="42.96181" lon="-2.35503"><ele>1120.0</ele></trkpt>
<trkpt lat="42.96192" lon="-2.35545"><ele>1120.0</ele></trkpt>
<trkpt lat="42.96221" lon="-2.35485"><ele>1127.7</ele></trkpt>
<trkpt lat="42.96247" lon="-2.35463"><ele>1128.4</ele></trkpt>
<trkpt lat="42.96261" lon="-2.35436"><ele>1128.2</ele></trkpt>
<trkpt lat="42.96278" lon="-2.35407"><ele>1127.0</ele></trkpt>
<trkpt lat="42.96299" lon="-2.35357"><ele>1123.4</ele></trkpt>
<trkpt lat="42.96301" lon="-2.35293"><ele>1121.8</ele></trkpt>
<trkpt lat="42.96318" lon="-2.35262"><ele>1122.3</ele></trkpt>
<trkpt lat="42.96352" lon="-2.35250"><ele>1124.6</ele></trkpt>
<trkpt lat="42.96374" lon="-2.35241"><ele>1126.8</ele></trkpt>
<trkpt lat="42.96395" lon="-2.35228"><ele>1128.9</ele></trkpt>
<trkpt lat="42.96425" lon="-2.35204"><ele>1131.9</ele></trkpt>
<trkpt lat="42.96462" lon="-2.35180"><ele>1135.2</ele></trkpt>
<trkpt lat="42.96484" lon="-2.35159"><ele>1137.1</ele></trkpt>
<trkpt lat="42.96506" lon="-2.35142"><ele>1139.5</ele></trkpt>
<trkpt lat="42.96524" lon="-2.35123"><ele>1142.6</ele></trkpt>
<trkpt lat="42.96548" lon="-2.35098"><ele>1146.5</ele></trkpt>
<trkpt lat="42.96572" lon="-2.35080"><ele>1150.6</ele></trkpt>
<trkpt lat="42.96601" lon="-2.35053"><ele>1159.7</ele></trkpt>
<trkpt lat="42.96621" lon="-2.35038"><ele>1167.1</ele></trkpt>
<trkpt lat="42.96648" lon="-2.35031"><ele>1176.2</ele></trkpt>
<trkpt lat="42.96675" lon="-2.35014"><ele>1186.7</ele></trkpt>
<trkpt lat="42.96696" lon="-2.34999"><ele>1195.7</ele></trkpt>
<trkpt lat="42.96724" lon="-2.34987"><ele>1206.2</ele></trkpt>
<trkpt lat="42.96757" lon="-2.34993"><ele>1216.1</ele></trkpt>
<trkpt lat="42.96778" lon="-2.34959"><ele>1225.6</ele></trkpt>
<trkpt lat="42.96797" lon="-2.34932"><ele>1233.0</ele></trkpt>
<trkpt lat="42.96816" lon="-2.34900"><ele>1241.6</ele></trkpt>
<trkpt lat="42.96826" lon="-2.34869"><ele>1249.6</ele></trkpt>
<trkpt lat="42.96827" lon="-2.34828"><ele>1257.0</ele></trkpt>
<trkpt lat="42.96824" lon="-2.34793"><ele>1264.6</ele></trkpt>
<trkpt lat="42.96826" lon="-2.34748"><ele>1275.1</ele></trkpt>
<trkpt lat="42.96821" lon="-2.34716"><ele>1280.5</ele></trkpt>
<trkpt lat="42.96818" lon="-2.34670"><ele>1289.6</ele></trkpt>
<trkpt lat="42.96833" lon="-2.34631"><ele>1295.7</ele></trkpt>
<trkpt lat="42.96847" lon="-2.34606"><ele>1301.8</ele></trkpt>
<trkpt lat="42.96856" lon="-2.34566"><ele>1307.4</ele></trkpt>
<trkpt lat="42.96878" lon="-2.34532"><ele>1311.5</ele></trkpt>
<trkpt lat="42.96897" lon="-2.34502"><ele>1313.1</ele></trkpt>
<trkpt lat="42.96921" lon="-2.34465"><ele>1321.0</ele></trkpt>
<trkpt lat="42.96950" lon="-2.34422"><ele>1330.9</ele></trkpt>
<trkpt lat="42.96971" lon="-2.34408"><ele>1335.8</ele></trkpt>
<trkpt lat="42.96994" lon="-2.34400"><ele>1339.7</ele></trkpt>
<trkpt lat="42.97012" lon="-2.34374"><ele>1348.7</ele></trkpt>
<trkpt lat="42.97036" lon="-2.34355"><ele>1351.0</ele></trkpt>
<trkpt lat="42.97061" lon="-2.34337"><ele>1350.5</ele></trkpt>
<trkpt lat="42.97084" lon="-2.34320"><ele>1347.2</ele></trkpt>
<trkpt lat="42.97112" lon="-2.34304"><ele>1339.2</ele></trkpt>
<trkpt lat="42.97134" lon="-2.34296"><ele>1331.3</ele></trkpt>
<trkpt lat="42.97150" lon="-2.34271"><ele>1324.0</ele></trkpt>
<trkpt lat="42.97177" lon="-2.34238"><ele>1308.3</ele></trkpt>
<trkpt lat="42.97200" lon="-2.34240"><ele>1298.5</ele></trkpt>
<trkpt lat="42.97227" lon="-2.34236"><ele>1286.1</ele></trkpt>
<trkpt lat="42.97260" lon="-2.34253"><ele>1276.3</ele></trkpt>
<trkpt lat="42.97285" lon="-2.34279"><ele>1270.9</ele></trkpt>
<trkpt lat="42.97282" lon="-2.34242"><ele>1262.2</ele></trkpt>
<trkpt lat="42.97268" lon="-2.34207"><ele>1256.3</ele></trkpt>
<trkpt lat="42.97257" lon="-2.34177"><ele>1251.2</ele></trkpt>
<trkpt lat="42.97248" lon="-2.34141"><ele>1244.2</ele></trkpt>
<trkpt lat="42.97243" lon="-2.34105"><ele>1235.2</ele></trkpt>
<trkpt lat="42.97244" lon="-2.34068"><ele>1221.8</ele></trkpt>
<trkpt lat="42.97233" lon="-2.34033"><ele>1213.4</ele></trkpt>
<trkpt lat="42.97211" lon="-2.34002"><ele>1210.7</ele></trkpt>
<trkpt lat="42.97195" lon="-2.33975"><ele>1208.3</ele></trkpt>
<trkpt lat="42.97229" lon="-2.33988"><ele>1197.2</ele></trkpt>
<trkpt lat="42.97262" lon="-2.34006"><ele>1188.8</ele></trkpt>
<trkpt lat="42.97289" lon="-2.34015"><ele>1179.4</ele></trkpt>
<trkpt lat="42.97283" lon="-2.33972"><ele>1166.7</ele></trkpt>
<trkpt lat="42.97271" lon="-2.33945"><ele>1162.0</ele></trkpt>
<trkpt lat="42.97256" lon="-2.33919"><ele>1157.6</ele></trkpt>
<trkpt lat="42.97241" lon="-2.33886"><ele>1153.8</ele></trkpt>
<trkpt lat="42.97243" lon="-2.33854"><ele>1142.4</ele></trkpt>
<trkpt lat="42.97273" lon="-2.33859"><ele>1130.9</ele></trkpt>
<trkpt lat="42.97287" lon="-2.33835"><ele>1116.4</ele></trkpt>
<trkpt lat="42.97277" lon="-2.33803"><ele>1110.1</ele></trkpt>
<trkpt lat="42.97269" lon="-2.33766"><ele>1101.9</ele></trkpt>
<trkpt lat="42.97258" lon="-2.33728"><ele>1095.0</ele></trkpt>
<trkpt lat="42.97250" lon="-2.33685"><ele>1084.2</ele></trkpt>
<trkpt lat="42.97244" lon="-2.33649"><ele>1076.5</ele></trkpt>
<trkpt lat="42.97239" lon="-2.33611"><ele>1069.3</ele></trkpt>
<trkpt lat="42.97239" lon="-2.33579"><ele>1061.5</ele></trkpt>
<trkpt lat="42.97240" lon="-2.33542"><ele>1056.1</ele></trkpt>
<trkpt lat="42.97239" lon="-2.33508"><ele>1052.6</ele></trkpt>
<trkpt lat="42.97249" lon="-2.33478"><ele>1042.6</ele></trkpt>
<trkpt lat="42.97256" lon="-2.33447"><ele>1034.2</ele></trkpt>
<trkpt lat="42.97243" lon="-2.33397"><ele>1026.5</ele></trkpt>
<trkpt lat="42.97222" lon="-2.33367"><ele>1023.8</ele></trkpt>
<trkpt lat="42.97189" lon="-2.33332"><ele>1022.9</ele></trkpt>
<trkpt lat="42.97158" lon="-2.33312"><ele>1026.8</ele></trkpt>
<trkpt lat="42.97141" lon="-2.33291"><ele>1025.7</ele></trkpt>
<trkpt lat="42.97116" lon="-2.33242"><ele>1019.2</ele></trkpt>
<trkpt lat="42.97111" lon="-2.33200"><ele>1007.0</ele></trkpt>
<trkpt lat="42.97097" lon="-2.33172"><ele>1004.0</ele></trkpt>
<trkpt lat="42.97083" lon="-2.33139"><ele>1000.0</ele></trkpt>
<trkpt lat="42.97052" lon="-2.33106"><ele>998.7</ele></trkpt>
<trkpt lat="42.97033" lon="-2.33090"><ele>998.8</ele></trkpt>
<trkpt lat="42.97015" lon="-2.33061"><ele>993.5</ele></trkpt>
<trkpt lat="42.96986" lon="-2.33023"><ele>987.5</ele></trkpt>
<trkpt lat="42.96952" lon="-2.33004"><ele>989.5</ele></trkpt>
<trkpt lat="42.96932" lon="-2.32983"><ele>989.1</ele></trkpt>
<trkpt lat="42.96922" lon="-2.32943"><ele>982.5</ele></trkpt>
<trkpt lat="42.96912" lon="-2.32915"><ele>978.4</ele></trkpt>
<trkpt lat="42.96901" lon="-2.32880"><ele>972.3</ele></trkpt>
<trkpt lat="42.96886" lon="-2.32857"><ele>969.4</ele></trkpt>
<trkpt lat="42.96810" lon="-2.32832"><ele>974.6</ele></trkpt>
<trkpt lat="42.96787" lon="-2.32805"><ele>976.5</ele></trkpt>
<trkpt lat="42.96771" lon="-2.32769"><ele>976.5</ele></trkpt>
<trkpt lat="42.96747" lon="-2.32718"><ele>976.0</ele></trkpt>
<trkpt lat="42.96724" lon="-2.32670"><ele>978.7</ele></trkpt>
<trkpt lat="42.96697" lon="-2.32640"><ele>983.4</ele></trkpt>
<trkpt lat="42.96669" lon="-2.32609"><ele>985.5</ele></trkpt>
<trkpt lat="42.96635" lon="-2.32576"><ele>991.3</ele></trkpt>
<trkpt lat="42.96611" lon="-2.32547"><ele>993.8</ele></trkpt>
<trkpt lat="42.96586" lon="-2.32541"><ele>1000.2</ele></trkpt>
<trkpt lat="42.96554" lon="-2.32523"><ele>1000.8</ele></trkpt>
<trkpt lat="42.96519" lon="-2.32521"><ele>1005.4</ele></trkpt>
<trkpt lat="42.96492" lon="-2.32528"><ele>1011.5</ele></trkpt>
<trkpt lat="42.96462" lon="-2.32537"><ele>1017.2</ele></trkpt>
<trkpt lat="42.96437" lon="-2.32538"><ele>1020.2</ele></trkpt>
<trkpt lat="42.96403" lon="-2.32532"><ele>1020.5</ele></trkpt>
<trkpt lat="42.96370" lon="-2.32522"><ele>1018.5</ele></trkpt>
<trkpt lat="42.96342" lon="-2.32499"><ele>1008.0</ele></trkpt>
<trkpt lat="42.96323" lon="-2.32483"><ele>1002.1</ele></trkpt>
<trkpt lat="42.96292" lon="-2.32477"><ele>1005.2</ele></trkpt>
<trkpt lat="42.96270" lon="-2.32460"><ele>1002.3</ele></trkpt>
<trkpt lat="42.96242" lon="-2.32445"><ele>1002.6</ele></trkpt>
<trkpt lat="42.96216" lon="-2.32422"><ele>999.7</ele></trkpt>
<trkpt lat="42.96194" lon="-2.32386"><ele>989.8</ele></trkpt>
<trkpt lat="42.96173" lon="-2.32362"><ele>986.6</ele></trkpt>
<trkpt lat="42.96161" lon="-2.32326"><ele>977.5</ele></trkpt>
<trkpt lat="42.96153" lon="-2.32294"><ele>971.3</ele></trkpt>
<trkpt lat="42.96145" lon="-2.32262"><ele>964.1</ele></trkpt>
<trkpt lat="42.96124" lon="-2.32217"><ele>958.8</ele></trkpt>
<trkpt lat="42.96103" lon="-2.32188"><ele>960.0</ele></trkpt>
<trkpt lat="42.96086" lon="-2.32150"><ele>958.4</ele></trkpt>
<trkpt lat="42.96070" lon="-2.32114"><ele>956.1</ele></trkpt>
<trkpt lat="42.96063" lon="-2.32080"><ele>950.0</ele></trkpt>
<trkpt lat="42.96043" lon="-2.32038"><ele>944.0</ele></trkpt>
<trkpt lat="42.96036" lon="-2.31999"><ele>934.5</ele></trkpt>
<trkpt lat="42.96014" lon="-2.31967"><ele>930.1</ele></trkpt>
<trkpt lat="42.95986" lon="-2.31966"><ele>935.4</ele></trkpt>
<trkpt lat="42.95948" lon="-2.31967"><ele>938.6</ele></trkpt>
<trkpt lat="42.95925" lon="-2.31943"><ele>932.1</ele></trkpt>
<trkpt lat="42.95907" lon="-2.31905"><ele>922.7</ele></trkpt>
<trkpt lat="42.95881" lon="-2.31882"><ele>921.6</ele></trkpt>
<trkpt lat="42.95858" lon="-2.31833"><ele>912.4</ele></trkpt>
<trkpt lat="42.95850" lon="-2.31801"><ele>907.8</ele></trkpt>
<trkpt lat="42.95849" lon="-2.31757"><ele>899.8</ele></trkpt>
<trkpt lat="42.95850" lon="-2.31723"><ele>893.5</ele></trkpt>
<trkpt lat="42.95850" lon="-2.31683"><ele>886.8</ele></trkpt>
<trkpt lat="42.95848" lon="-2.31644"><ele>880.7</ele></trkpt>
<trkpt lat="42.95859" lon="-2.31607"><ele>871.0</ele></trkpt>
<trkpt lat="42.95875" lon="-2.31581"><ele>862.5</ele></trkpt>
<trkpt lat="42.95890" lon="-2.31546"><ele>853.1</ele></trkpt>
<trkpt lat="42.95904" lon="-2.31518"><ele>845.5</ele></trkpt>
<trkpt lat="42.95917" lon="-2.31493"><ele>838.4</ele></trkpt>
<trkpt lat="42.95915" lon="-2.31461"><ele>832.4</ele></trkpt>
<trkpt lat="42.95910" lon="-2.31418"><ele>824.5</ele></trkpt>
<trkpt lat="42.95936" lon="-2.31431"><ele>821.0</ele></trkpt>
<trkpt lat="42.95956" lon="-2.31457"><ele>820.5</ele></trkpt>
<trkpt lat="42.95975" lon="-2.31483"><ele>820.2</ele></trkpt>
<trkpt lat="42.95995" lon="-2.31507"><ele>818.5</ele></trkpt>
<trkpt lat="42.96018" lon="-2.31535"><ele>814.7</ele></trkpt>
<trkpt lat="42.96038" lon="-2.31571"><ele>812.3</ele></trkpt>
<trkpt lat="42.96059" lon="-2.31615"><ele>812.0</ele></trkpt>
<trkpt lat="42.96074" lon="-2.31658"><ele>813.6</ele></trkpt>
<trkpt lat="42.96086" lon="-2.31698"><ele>817.7</ele></trkpt>
<trkpt lat="42.96102" lon="-2.31730"><ele>819.9</ele></trkpt>
<trkpt lat="42.96128" lon="-2.31749"><ele>815.2</ele></trkpt>
<trkpt lat="42.96147" lon="-2.31767"><ele>813.6</ele></trkpt>
<trkpt lat="42.96168" lon="-2.31780"><ele>809.6</ele></trkpt>
<trkpt lat="42.96193" lon="-2.31800"><ele>812.2</ele></trkpt>
<trkpt lat="42.96210" lon="-2.31824"><ele>815.9</ele></trkpt>
<trkpt lat="42.96223" lon="-2.31851"><ele>819.9</ele></trkpt>
<trkpt lat="42.96254" lon="-2.31877"><ele>819.2</ele></trkpt>
<trkpt lat="42.96277" lon="-2.31899"><ele>815.5</ele></trkpt>
<trkpt lat="42.96293" lon="-2.31950"><ele>818.7</ele></trkpt>
<trkpt lat="42.96301" lon="-2.31979"><ele>820.4</ele></trkpt>
<trkpt lat="42.96298" lon="-2.32028"><ele>830.7</ele></trkpt>
<trkpt lat="42.96318" lon="-2.32060"><ele>830.9</ele></trkpt>
<trkpt lat="42.96342" lon="-2.32078"><ele>825.2</ele></trkpt>
<trkpt lat="42.96359" lon="-2.32116"><ele>826.8</ele></trkpt>
<trkpt lat="42.96374" lon="-2.32153"><ele>829.1</ele></trkpt>
<trkpt lat="42.96406" lon="-2.32179"><ele>824.2</ele></trkpt>
<trkpt lat="42.96429" lon="-2.32207"><ele>833.5</ele></trkpt>
<trkpt lat="42.96452" lon="-2.32199"><ele>828.0</ele></trkpt>
<trkpt lat="42.96476" lon="-2.32186"><ele>819.2</ele></trkpt>
<trkpt lat="42.96500" lon="-2.32162"><ele>804.4</ele></trkpt>
<trkpt lat="42.96527" lon="-2.32142"><ele>798.2</ele></trkpt>
<trkpt lat="42.96558" lon="-2.32139"><ele>798.7</ele></trkpt>
<trkpt lat="42.96591" lon="-2.32132"><ele>795.9</ele></trkpt>
<trkpt lat="42.96622" lon="-2.32117"><ele>788.3</ele></trkpt>
<trkpt lat="42.96657" lon="-2.32107"><ele>783.4</ele></trkpt>
<trkpt lat="42.96684" lon="-2.32086"><ele>774.7</ele></trkpt>
<trkpt lat="42.96708" lon="-2.32085"><ele>775.9</ele></trkpt>
<trkpt lat="42.96726" lon="-2.32060"><ele>766.2</ele></trkpt>
<trkpt lat="42.96757" lon="-2.32046"><ele>761.9</ele></trkpt>
<trkpt lat="42.96781" lon="-2.32070"><ele>778.5</ele></trkpt>
<trkpt lat="42.96816" lon="-2.32061"><ele>780.9</ele></trkpt>
<trkpt lat="42.96844" lon="-2.32043"><ele>776.1</ele></trkpt>
<trkpt lat="42.96865" lon="-2.32029"><ele>772.3</ele></trkpt>
<trkpt lat="42.96890" lon="-2.32014"><ele>769.5</ele></trkpt>
<trkpt lat="42.96911" lon="-2.31989"><ele>763.3</ele></trkpt>
<trkpt lat="42.96927" lon="-2.31962"><ele>756.6</ele></trkpt>
<trkpt lat="42.96963" lon="-2.31942"><ele>756.7</ele></trkpt>
<trkpt lat="42.96993" lon="-2.31924"><ele>757.4</ele></trkpt>
<trkpt lat="42.97015" lon="-2.31916"><ele>756.1</ele></trkpt>
<trkpt lat="42.97042" lon="-2.31913"><ele>754.2</ele></trkpt>
<trkpt lat="42.97068" lon="-2.31919"><ele>754.3</ele></trkpt>
<trkpt lat="42.97091" lon="-2.31930"><ele>754.7</ele></trkpt>
<trkpt lat="42.97115" lon="-2.31943"><ele>751.4</ele></trkpt>
<trkpt lat="42.97144" lon="-2.31961"><ele>747.9</ele></trkpt>
<trkpt lat="42.97183" lon="-2.31995"><ele>743.7</ele></trkpt>
<trkpt lat="42.97195" lon="-2.32027"><ele>746.9</ele></trkpt>
<trkpt lat="42.97217" lon="-2.32059"><ele>746.8</ele></trkpt>
<trkpt lat="42.97237" lon="-2.32077"><ele>744.0</ele></trkpt>
<trkpt lat="42.97254" lon="-2.32098"><ele>746.1</ele></trkpt>
<trkpt lat="42.97283" lon="-2.32102"><ele>742.5</ele></trkpt>
<trkpt lat="42.97320" lon="-2.32103"><ele>736.6</ele></trkpt>
<trkpt lat="42.97344" lon="-2.32104"><ele>734.0</ele></trkpt>
<trkpt lat="42.97371" lon="-2.32101"><ele>731.9</ele></trkpt>
<trkpt lat="42.97401" lon="-2.32086"><ele>727.5</ele></trkpt>
<trkpt lat="42.97438" lon="-2.32088"><ele>724.1</ele></trkpt>
<trkpt lat="42.97455" lon="-2.32111"><ele>724.6</ele></trkpt>
<trkpt lat="42.97465" lon="-2.32147"><ele>727.7</ele></trkpt>
<trkpt lat="42.97473" lon="-2.32180"><ele>730.2</ele></trkpt>
<trkpt lat="42.97483" lon="-2.32212"><ele>731.5</ele></trkpt>
<trkpt lat="42.97493" lon="-2.32255"><ele>734.2</ele></trkpt>
<trkpt lat="42.97513" lon="-2.32277"><ele>732.6</ele></trkpt>
<trkpt lat="42.97539" lon="-2.32293"><ele>729.0</ele></trkpt>
<trkpt lat="42.97554" lon="-2.32320"><ele>729.0</ele></trkpt>
<trkpt lat="42.97571" lon="-2.32340"><ele>726.9</ele></trkpt>
<trkpt lat="42.97574" lon="-2.32380"><ele>726.7</ele></trkpt>
<trkpt lat="42.97570" lon="-2.32421"><ele>728.0</ele></trkpt>
<trkpt lat="42.97577" lon="-2.32461"><ele>723.4</ele></trkpt>
<trkpt lat="42.97572" lon="-2.32509"><ele>722.4</ele></trkpt>
<trkpt lat="42.97562" lon="-2.32545"><ele>724.1</ele></trkpt>
<trkpt lat="42.97550" lon="-2.32589"><ele>727.0</ele></trkpt>
<trkpt lat="42.97544" lon="-2.32624"><ele>729.8</ele></trkpt>
<trkpt lat="42.97542" lon="-2.32655"><ele>730.7</ele></trkpt>
<trkpt lat="42.97543" lon="-2.32701"><ele>732.5</ele></trkpt>
<trkpt lat="42.97560" lon="-2.32734"><ele>730.1</ele></trkpt>
<trkpt lat="42.97573" lon="-2.32768"><ele>734.2</ele></trkpt>
<trkpt lat="42.97604" lon="-2.32766"><ele>734.7</ele></trkpt>
<trkpt lat="42.97624" lon="-2.32746"><ele>730.9</ele></trkpt>
<trkpt lat="42.97648" lon="-2.32735"><ele>730.6</ele></trkpt>
<trkpt lat="42.97664" lon="-2.32708"><ele>723.8</ele></trkpt>
<trkpt lat="42.97687" lon="-2.32677"><ele>715.6</ele></trkpt>
<trkpt lat="42.97709" lon="-2.32664"><ele>713.3</ele></trkpt>
<trkpt lat="42.97745" lon="-2.32665"><ele>716.2</ele></trkpt>
<trkpt lat="42.97773" lon="-2.32685"><ele>715.9</ele></trkpt>
<trkpt lat="42.97784" lon="-2.32714"><ele>720.5</ele></trkpt>
<trkpt lat="42.97800" lon="-2.32761"><ele>727.9</ele></trkpt>
<trkpt lat="42.97796" lon="-2.32792"><ele>736.0</ele></trkpt>
<trkpt lat="42.97803" lon="-2.32823"><ele>741.0</ele></trkpt>
<trkpt lat="42.97831" lon="-2.32807"><ele>729.9</ele></trkpt>
<trkpt lat="42.97858" lon="-2.32793"><ele>729.1</ele></trkpt>
<trkpt lat="42.97880" lon="-2.32770"><ele>726.7</ele></trkpt>
<trkpt lat="42.97915" lon="-2.32750"><ele>726.7</ele></trkpt>
<trkpt lat="42.97949" lon="-2.32763"><ele>724.3</ele></trkpt>
<trkpt lat="42.97970" lon="-2.32778"><ele>724.0</ele></trkpt>
<trkpt lat="42.97991" lon="-2.32807"><ele>726.2</ele></trkpt>
<trkpt lat="42.98008" lon="-2.32830"><ele>729.0</ele></trkpt>
<trkpt lat="42.98027" lon="-2.32856"><ele>733.5</ele></trkpt>
<trkpt lat="42.98043" lon="-2.32877"><ele>736.6</ele></trkpt>
<trkpt lat="42.98069" lon="-2.32863"><ele>732.6</ele></trkpt>
<trkpt lat="42.98085" lon="-2.32835"><ele>727.5</ele></trkpt>
<trkpt lat="42.98101" lon="-2.32806"><ele>727.1</ele></trkpt>
<trkpt lat="42.98112" lon="-2.32774"><ele>726.2</ele></trkpt>
<trkpt lat="42.98121" lon="-2.32736"><ele>725.4</ele></trkpt>
<trkpt lat="42.98133" lon="-2.32708"><ele>727.4</ele></trkpt>
<trkpt lat="42.98126" lon="-2.32665"><ele>723.1</ele></trkpt>
<trkpt lat="42.98113" lon="-2.32607"><ele>724.7</ele></trkpt>
<trkpt lat="42.98093" lon="-2.32571"><ele>723.7</ele></trkpt>
<trkpt lat="42.98076" lon="-2.32525"><ele>725.7</ele></trkpt>
<trkpt lat="42.98062" lon="-2.32472"><ele>727.2</ele></trkpt>
<trkpt lat="42.98048" lon="-2.32431"><ele>727.7</ele></trkpt>
<trkpt lat="42.98034" lon="-2.32385"><ele>723.4</ele></trkpt>
<trkpt lat="42.98026" lon="-2.32345"><ele>718.9</ele></trkpt>
<trkpt lat="42.98037" lon="-2.32313"><ele>719.4</ele></trkpt>
<trkpt lat="42.98033" lon="-2.32277"><ele>713.5</ele></trkpt>
<trkpt lat="42.98028" lon="-2.32246"><ele>708.5</ele></trkpt>
<trkpt lat="42.98030" lon="-2.32203"><ele>711.2</ele></trkpt>
<trkpt lat="42.97999" lon="-2.32194"><ele>699.1</ele></trkpt>
<trkpt lat="42.97977" lon="-2.32148"><ele>692.3</ele></trkpt>
<trkpt lat="42.97963" lon="-2.32112"><ele>688.6</ele></trkpt>
<trkpt lat="42.97957" lon="-2.32078"><ele>686.7</ele></trkpt>
<trkpt lat="42.97954" lon="-2.32032"><ele>682.0</ele></trkpt>
<trkpt lat="42.97955" lon="-2.32001"><ele>680.6</ele></trkpt>
<trkpt lat="42.97961" lon="-2.31966"><ele>679.9</ele></trkpt>
<trkpt lat="42.97960" lon="-2.31918"><ele>674.5</ele></trkpt>
<trkpt lat="42.97963" lon="-2.31879"><ele>670.1</ele></trkpt>
<trkpt lat="42.97981" lon="-2.31859"><ele>673.3</ele></trkpt>
<trkpt lat="42.98003" lon="-2.31835"><ele>676.2</ele></trkpt>
<trkpt lat="42.98002" lon="-2.31773"><ele>667.8</ele></trkpt>
<trkpt lat="42.97997" lon="-2.31739"><ele>664.0</ele></trkpt>
<trkpt lat="42.97984" lon="-2.31704"><ele>662.9</ele></trkpt>
<trkpt lat="42.97960" lon="-2.31673"><ele>659.9</ele></trkpt>
<trkpt lat="42.97939" lon="-2.31652"><ele>656.8</ele></trkpt>
<trkpt lat="42.97916" lon="-2.31634"><ele>652.3</ele></trkpt>
<trkpt lat="42.97905" lon="-2.31607"><ele>649.9</ele></trkpt>
<trkpt lat="42.97906" lon="-2.31573"><ele>652.7</ele></trkpt>
<trkpt lat="42.97889" lon="-2.31542"><ele>648.1</ele></trkpt>
<trkpt lat="42.97875" lon="-2.31506"><ele>644.0</ele></trkpt>
<trkpt lat="42.97860" lon="-2.31469"><ele>641.7</ele></trkpt>
<trkpt lat="42.97851" lon="-2.31430"><ele>642.6</ele></trkpt>
<trkpt lat="42.97838" lon="-2.31397"><ele>639.4</ele></trkpt>
<trkpt lat="42.97826" lon="-2.31358"><ele>636.0</ele></trkpt>
<trkpt lat="42.97811" lon="-2.31309"><ele>633.5</ele></trkpt>
<trkpt lat="42.97801" lon="-2.31269"><ele>634.8</ele></trkpt>
<trkpt lat="42.97783" lon="-2.31244"><ele>630.1</ele></trkpt>
<trkpt lat="42.97764" lon="-2.31201"><ele>631.0</ele></trkpt>
<trkpt lat="42.97741" lon="-2.31171"><ele>627.5</ele></trkpt>
<trkpt lat="42.97722" lon="-2.31141"><ele>621.7</ele></trkpt>
<trkpt lat="42.97704" lon="-2.31110"><ele>616.3</ele></trkpt>
<trkpt lat="42.97681" lon="-2.31068"><ele>609.3</ele></trkpt>
<trkpt lat="42.97672" lon="-2.31040"><ele>608.2</ele></trkpt>
<trkpt lat="42.97649" lon="-2.31016"><ele>600.8</ele></trkpt>
<trkpt lat="42.97635" lon="-2.30987"><ele>599.8</ele></trkpt>
<trkpt lat="42.97616" lon="-2.30949"><ele>596.4</ele></trkpt>
<trkpt lat="42.97609" lon="-2.30911"><ele>597.2</ele></trkpt>
<trkpt lat="42.97601" lon="-2.30872"><ele>596.0</ele></trkpt>
<trkpt lat="42.97593" lon="-2.30836"><ele>593.5</ele></trkpt>
<trkpt lat="42.97578" lon="-2.30792"><ele>591.4</ele></trkpt>
<trkpt lat="42.97566" lon="-2.30752"><ele>590.0</ele></trkpt>
<trkpt lat="42.97560" lon="-2.30720"><ele>586.3</ele></trkpt>
<trkpt lat="42.97558" lon="-2.30687"><ele>584.6</ele></trkpt>
<trkpt lat="42.97550" lon="-2.30656"><ele>579.5</ele></trkpt>
<trkpt lat="42.97532" lon="-2.30617"><ele>568.1</ele></trkpt>
<trkpt lat="42.97517" lon="-2.30588"><ele>558.4</ele></trkpt>
<trkpt lat="42.97508" lon="-2.30557"><ele>552.8</ele></trkpt>
<trkpt lat="42.97501" lon="-2.30523"><ele>548.4</ele></trkpt>
<trkpt lat="42.97485" lon="-2.30494"><ele>539.9</ele></trkpt>
<trkpt lat="42.97457" lon="-2.30478"><ele>526.6</ele></trkpt>
<trkpt lat="42.97430" lon="-2.30455"><ele>514.3</ele></trkpt>
<trkpt lat="42.97439" lon="-2.30417"><ele>515.7</ele></trkpt>
<trkpt lat="42.97422" lon="-2.30376"><ele>505.1</ele></trkpt>
<trkpt lat="42.97424" lon="-2.30331"><ele>500.5</ele></trkpt>
<trkpt lat="42.97398" lon="-2.30316"><ele>491.1</ele></trkpt>
<trkpt lat="42.97378" lon="-2.30336"><ele>486.8</ele></trkpt>
<trkpt lat="42.97349" lon="-2.30306"><ele>474.7</ele></trkpt>
<trkpt lat="42.97367" lon="-2.30276"><ele>477.2</ele></trkpt>
<trkpt lat="42.97383" lon="-2.30235"><ele>477.9</ele></trkpt>
<trkpt lat="42.97369" lon="-2.30186"><ele>469.3</ele></trkpt>
<trkpt lat="42.97346" lon="-2.30148"><ele>460.9</ele></trkpt>
<trkpt lat="42.97329" lon="-2.30113"><ele>456.7</ele></trkpt>
<trkpt lat="42.97325" lon="-2.30036"><ele>448.3</ele></trkpt>
<trkpt lat="42.97354" lon="-2.30020"><ele>448.9</ele></trkpt>
<trkpt lat="42.97385" lon="-2.29996"><ele>444.6</ele></trkpt>
<trkpt lat="42.97415" lon="-2.29994"><ele>444.6</ele></trkpt>
<trkpt lat="42.97449" lon="-2.29971"><ele>438.9</ele></trkpt>
<trkpt lat="42.97474" lon="-2.29954"><ele>435.4</ele></trkpt>
<trkpt lat="42.97498" lon="-2.29951"><ele>434.8</ele></trkpt>
<trkpt lat="42.97521" lon="-2.29951"><ele>431.9</ele></trkpt>
<trkpt lat="42.97510" lon="-2.29895"><ele>423.4</ele></trkpt>
<trkpt lat="42.97487" lon="-2.29872"><ele>420.0</ele></trkpt>
<trkpt lat="42.97441" lon="-2.29861"><ele>416.4</ele></trkpt>
<trkpt lat="42.97407" lon="-2.29857"><ele>414.5</ele></trkpt>
<trkpt lat="42.97404" lon="-2.29825"><ele>407.7</ele></trkpt>
<trkpt lat="42.97427" lon="-2.29789"><ele>400.8</ele></trkpt>
<trkpt lat="42.97449" lon="-2.29750"><ele>393.5</ele></trkpt>
<trkpt lat="42.97475" lon="-2.29719"><ele>389.9</ele></trkpt>
<trkpt lat="42.97523" lon="-2.29710"><ele>386.9</ele></trkpt>
<trkpt lat="42.97562" lon="-2.29713"><ele>381.9</ele></trkpt>
<trkpt lat="42.97601" lon="-2.29698"><ele>375.8</ele></trkpt>
<trkpt lat="42.97635" lon="-2.29691"><ele>373.7</ele></trkpt>
<trkpt lat="42.97665" lon="-2.29686"><ele>371.9</ele></trkpt>
<trkpt lat="42.97710" lon="-2.29686"><ele>371.3</ele></trkpt>
<trkpt lat="42.97729" lon="-2.29705"><ele>375.4</ele></trkpt>
<trkpt lat="42.97752" lon="-2.29720"><ele>378.8</ele></trkpt>
<trkpt lat="42.97778" lon="-2.29720"><ele>380.6</ele></trkpt>
<trkpt lat="42.97792" lon="-2.29655"><ele>370.4</ele></trkpt>
<trkpt lat="42.97803" lon="-2.29617"><ele>367.7</ele></trkpt>
<trkpt lat="42.97810" lon="-2.29571"><ele>363.9</ele></trkpt>
<trkpt lat="42.97809" lon="-2.29532"><ele>361.3</ele></trkpt>
<trkpt lat="42.97819" lon="-2.29487"><ele>359.2</ele></trkpt>
<trkpt lat="42.97806" lon="-2.29442"><ele>354.7</ele></trkpt>
<trkpt lat="42.97776" lon="-2.29433"><ele>349.8</ele></trkpt>
<trkpt lat="42.97751" lon="-2.29433"><ele>346.3</ele></trkpt>
<trkpt lat="42.97727" lon="-2.29414"><ele>338.8</ele></trkpt>
<trkpt lat="42.97709" lon="-2.29380"><ele>332.7</ele></trkpt>
<trkpt lat="42.97707" lon="-2.29342"><ele>329.8</ele></trkpt>
<trkpt lat="42.97696" lon="-2.29297"><ele>326.2</ele></trkpt>
<trkpt lat="42.97679" lon="-2.29253"><ele>322.3</ele></trkpt>
<trkpt lat="42.97672" lon="-2.29216"><ele>316.3</ele></trkpt>
<trkpt lat="42.97672" lon="-2.29180"><ele>311.3</ele></trkpt>
<trkpt lat="42.97675" lon="-2.29147"><ele>307.0</ele></trkpt>
<trkpt lat="42.97683" lon="-2.29106"><ele>302.0</ele></trkpt>
<trkpt lat="42.97680" lon="-2.29075"><ele>299.0</ele></trkpt>
<trkpt lat="42.97652" lon="-2.29039"><ele>300.1</ele></trkpt>
<trkpt lat="42.97632" lon="-2.29016"><ele>301.3</ele></trkpt>
<trkpt lat="42.97593" lon="-2.28995"><ele>303.9</ele></trkpt>
<trkpt lat="42.97580" lon="-2.29024"><ele>303.3</ele></trkpt>
<trkpt lat="42.97574" lon="-2.29022"><ele>303.8</ele></trkpt>
</trkseg></trk></gpx>
