<?xml version="1.0" encoding="UTF-8"?>
<gpx version="1.1" creator="ExpeditionVault-GPX-tooling" xmlns="http://www.topografix.com/GPX/1/1">
  <metadata><name>Pigne de la Lé loop (demo)</name></metadata>
  <trk><name>Pigne de la Lé loop (demo)</name><trkseg>
    <trkpt lat="46.091408" lon="7.595662"><ele>2834.1</ele></trkpt>
    <trkpt lat="46.090988" lon="7.595577"><ele>2841.1</ele></trkpt>
    <trkpt lat="46.090747" lon="7.596000"><ele>2845.0</ele></trkpt>
    <trkpt lat="46.090710" lon="7.596412"><ele>2847.1</ele></trkpt>
    <trkpt lat="46.090513" lon="7.596728"><ele>2845.0</ele></trkpt>
    <trkpt lat="46.090217" lon="7.597065"><ele>2849.0</ele></trkpt>
    <trkpt lat="46.090045" lon="7.597562"><ele>2857.1</ele></trkpt>
    <trkpt lat="46.089627" lon="7.597740"><ele>2863.0</ele></trkpt>
    <trkpt lat="46.089390" lon="7.598063"><ele>2866.1</ele></trkpt>
    <trkpt lat="46.089192" lon="7.598378"><ele>2873.1</ele></trkpt>
    <trkpt lat="46.089002" lon="7.598807"><ele>2872.1</ele></trkpt>
    <trkpt lat="46.088758" lon="7.599493"><ele>2871.0</ele></trkpt>
    <trkpt lat="46.088493" lon="7.600053"><ele>2883.0</ele></trkpt>
    <trkpt lat="46.088343" lon="7.600630"><ele>2902.1</ele></trkpt>
    <trkpt lat="46.088047" lon="7.600928"><ele>2913.0</ele></trkpt>
    <trkpt lat="46.087897" lon="7.601292"><ele>2924.0</ele></trkpt>
    <trkpt lat="46.087685" lon="7.601853"><ele>2944.1</ele></trkpt>
    <trkpt lat="46.087398" lon="7.602165"><ele>2963.0</ele></trkpt>
    <trkpt lat="46.086910" lon="7.602257"><ele>2980.1</ele></trkpt>
    <trkpt lat="46.086978" lon="7.602640"><ele>2983.1</ele></trkpt>
    <trkpt lat="46.086807" lon="7.603457"><ele>3000.1</ele></trkpt>
    <trkpt lat="46.086875" lon="7.603885"><ele>3007.0</ele></trkpt>
    <trkpt lat="46.086958" lon="7.604450"><ele>3028.1</ele></trkpt>
    <trkpt lat="46.087062" lon="7.605022"><ele>3034.1</ele></trkpt>
    <trkpt lat="46.087263" lon="7.605417"><ele>3057.0</ele></trkpt>
    <trkpt lat="46.087182" lon="7.606145"><ele>3073.0</ele></trkpt>
    <trkpt lat="46.087222" lon="7.606712"><ele>3092.0</ele></trkpt>
    <trkpt lat="46.086992" lon="7.606935"><ele>3099.1</ele></trkpt>
    <trkpt lat="46.087173" lon="7.607257"><ele>3109.0</ele></trkpt>
    <trkpt lat="46.087175" lon="7.607790"><ele>3118.0</ele></trkpt>
    <trkpt lat="46.086927" lon="7.608328"><ele>3133.1</ele></trkpt>
    <trkpt lat="46.087198" lon="7.608263"><ele>3143.1</ele></trkpt>
    <trkpt lat="46.086782" lon="7.608635"><ele>3151.0</ele></trkpt>
    <trkpt lat="46.086635" lon="7.608962"><ele>3162.1</ele></trkpt>
    <trkpt lat="46.086345" lon="7.609280"><ele>3187.1</ele></trkpt>
    <trkpt lat="46.086227" lon="7.609633"><ele>3194.0</ele></trkpt>
    <trkpt lat="46.085983" lon="7.609425"><ele>3212.0</ele></trkpt>
    <trkpt lat="46.085722" lon="7.609748"><ele>3232.0</ele></trkpt>
    <trkpt lat="46.085408" lon="7.609762"><ele>3246.0</ele></trkpt>
    <trkpt lat="46.085123" lon="7.609937"><ele>3275.0</ele></trkpt>
    <trkpt lat="46.084815" lon="7.609997"><ele>3296.1</ele></trkpt>
    <trkpt lat="46.084548" lon="7.610203"><ele>3317.0</ele></trkpt>
    <trkpt lat="46.084238" lon="7.610362"><ele>3350.0</ele></trkpt>
    <trkpt lat="46.084022" lon="7.610707"><ele>3375.1</ele></trkpt>
    <trkpt lat="46.083763" lon="7.610835"><ele>3369.0</ele></trkpt>
    <trkpt lat="46.083437" lon="7.610875"><ele>3374.0</ele></trkpt>
    <trkpt lat="46.083040" lon="7.610717"><ele>3389.0</ele></trkpt>
    <trkpt lat="46.082760" lon="7.610750"><ele>3386.0</ele></trkpt>
    <trkpt lat="46.083065" lon="7.610700"><ele>3392.0</ele></trkpt>
    <trkpt lat="46.083418" lon="7.610695"><ele>3368.0</ele></trkpt>
    <trkpt lat="46.083750" lon="7.610587"><ele>3361.0</ele></trkpt>
    <trkpt lat="46.084048" lon="7.610387"><ele>3346.0</ele></trkpt>
    <trkpt lat="46.084460" lon="7.610208"><ele>3325.1</ele></trkpt>
    <trkpt lat="46.084785" lon="7.610053"><ele>3296.0</ele></trkpt>
    <trkpt lat="46.085093" lon="7.609883"><ele>3269.0</ele></trkpt>
    <trkpt lat="46.085602" lon="7.609628"><ele>3232.1</ele></trkpt>
    <trkpt lat="46.085953" lon="7.609597"><ele>3201.0</ele></trkpt>
    <trkpt lat="46.086340" lon="7.609513"><ele>3181.1</ele></trkpt>
    <trkpt lat="46.086612" lon="7.608845"><ele>3149.1</ele></trkpt>
    <trkpt lat="46.086762" lon="7.608498"><ele>3138.1</ele></trkpt>
    <trkpt lat="46.087053" lon="7.607862"><ele>3120.0</ele></trkpt>
    <trkpt lat="46.087058" lon="7.607058"><ele>3092.0</ele></trkpt>
    <trkpt lat="46.087110" lon="7.606298"><ele>3071.0</ele></trkpt>
    <trkpt lat="46.087038" lon="7.605800"><ele>3055.0</ele></trkpt>
    <trkpt lat="46.086942" lon="7.605390"><ele>3046.0</ele></trkpt>
    <trkpt lat="46.086932" lon="7.604783"><ele>3025.1</ele></trkpt>
    <trkpt lat="46.086817" lon="7.603810"><ele>3001.1</ele></trkpt>
    <trkpt lat="46.087070" lon="7.603172"><ele>2989.1</ele></trkpt>
    <trkpt lat="46.087410" lon="7.602455"><ele>2977.1</ele></trkpt>
    <trkpt lat="46.087512" lon="7.601875"><ele>2946.0</ele></trkpt>
    <trkpt lat="46.087740" lon="7.601530"><ele>2932.1</ele></trkpt>
    <trkpt lat="46.087927" lon="7.600972"><ele>2916.0</ele></trkpt>
    <trkpt lat="46.088215" lon="7.600603"><ele>2904.0</ele></trkpt>
    <trkpt lat="46.088322" lon="7.600132"><ele>2887.0</ele></trkpt>
    <trkpt lat="46.088703" lon="7.599653"><ele>2870.1</ele></trkpt>
    <trkpt lat="46.088855" lon="7.599268"><ele>2866.0</ele></trkpt>
    <trkpt lat="46.089067" lon="7.598700"><ele>2869.0</ele></trkpt>
    <trkpt lat="46.089450" lon="7.597972"><ele>2862.0</ele></trkpt>
    <trkpt lat="46.089665" lon="7.597475"><ele>2856.1</ele></trkpt>
    <trkpt lat="46.090045" lon="7.596907"><ele>2846.0</ele></trkpt>
    <trkpt lat="46.090330" lon="7.596478"><ele>2845.1</ele></trkpt>
    <trkpt lat="46.090650" lon="7.596110"><ele>2844.1</ele></trkpt>
    <trkpt lat="46.090995" lon="7.595632"><ele>2834.1</ele></trkpt>
  </trkseg></trk>
</gpx>