<?xml version="1.0" encoding="UTF-8"?>
<gpx version="1.1" creator="Trail Profile synthetic demo (not a real run)" xmlns="http://www.topografix.com/GPX/1/1" xmlns:ns3="http://www.garmin.com/xmlschemas/TrackPointExtension/v1"><trk><name>Fictional Burn out-and-back (demo)</name><type>trail_running</type><trkseg>
<trkpt lat="56.82019" lon="-4.04977"><ele>300.8</ele><time>2026-05-10T08:30:10Z</time><extensions><ns3:TrackPointExtension><ns3:hr>97</ns3:hr><ns3:cad>88</ns3:cad></ns3:TrackPointExtension></extensions></trkpt>
<trkpt lat="56.82036" lon="-4.04951"><ele>301.5</ele><time>2026-05-10T08:30:20Z</time><extensions><ns3:TrackPointExtension><ns3:hr>117</ns3:hr><ns3:cad>88</ns3:cad></ns3:TrackPointExtension></extensions></trkpt>
<trkpt lat="56.82053" lon="-4.04924"><ele>302.3</ele><time>2026-05-10T08:30:30Z</time><extensions><ns3:TrackPointExtension><ns3:hr>131</ns3:hr><ns3:cad>89</ns3:cad></ns3:TrackPointExtension></extensions></trkpt>
<trkpt lat="56.82071" lon="-4.04900"><ele>303.0</ele><time>2026-05-10T08:30:40Z</time><extensions><ns3:TrackPointExtension><ns3:hr>136</ns3:hr><ns3:cad>88</ns3:cad></ns3:TrackPointExtension></extensions></trkpt>
<trkpt lat="56.82089" lon="-4.04875"><ele>303.8</ele><time>2026-05-10T08:30:50Z</time><extensions><ns3:TrackPointExtension><ns3:hr>142</ns3:hr><ns3:cad>88</ns3:cad></ns3:TrackPointExtension></extensions></trkpt>
<trkpt lat="56.82108" lon="-4.04852"><ele>304.5</ele><time>2026-05-10T08:31:00Z</time><extensions><ns3:TrackPointExtension><ns3:hr>145</ns3:hr><ns3:cad>89</ns3:cad></ns3:TrackPointExtension></extensions></trkpt>
<trkpt lat="56.82126" lon="-4.04827"><ele>305.3</ele><time>2026-05-10T08:31:10Z</time><extensions><ns3:TrackPointExtension><ns3:hr>149</ns3:hr><ns3:cad>84</ns3:cad></ns3:TrackPointExtension></extensions></trkpt>
<trkpt lat="56.82144" lon="-4.04802"><ele>306.0</ele><time>2026-05-10T08:31:20Z</time><extensions><ns3:TrackPointExtension><ns3:hr>153</ns3:hr><ns3:cad>88</ns3:cad></ns3:TrackPointExtension></extensions></trkpt>
<trkpt lat="56.82160" lon="-4.04775"><ele>306.8</ele><time>2026-05-10T08:31:30Z</time><extensions><ns3:TrackPointExtension><ns3:hr>150</ns3:hr><ns3:cad>86</ns3:cad></ns3:TrackPointExtension></extensions></trkpt>
<trkpt lat="56.82177" lon="-4.04748"><ele>307.5</ele><time>2026-05-10T08:31:40Z</time><extensions><ns3:TrackPointExtension><ns3:hr>153</ns3:hr><ns3:cad>87</ns3:cad></ns3:TrackPointExtension></extensions></trkpt>
<trkpt lat="56.82194" lon="-4.04720"><ele>308.3</ele><time>2026-05-10T08:31:50Z</time><extensions><ns3:TrackPointExtension><ns3:hr>155</ns3:hr><ns3:cad>86</ns3:cad></ns3:TrackPointExtension></extensions></trkpt>
<trkpt lat="56.82210" lon="-4.04692"><ele>309.0</ele><time>2026-05-10T08:32:00Z</time><extensions><ns3:TrackPointExtension><ns3:hr>153</ns3:hr><ns3:cad>84</ns3:cad></ns3:TrackPointExtension></extensions></trkpt>
<trkpt lat="56.82228" lon="-4.04666"><ele>309.8</ele><time>2026-05-10T08:32:10Z</time><extensions><ns3:TrackPointExtension><ns3:hr>154</ns3:hr><ns3:cad>85</ns3:cad></ns3:TrackPointExtension></extensions></trkpt>
<trkpt lat="56.82246" lon="-4.04643"><ele>310.5</ele><time>2026-05-10T08:32:20Z</time><extensions><ns3:TrackPointExtension><ns3:hr>152</ns3:hr><ns3:cad>86</ns3:cad></ns3:TrackPointExtension></extensions></trkpt>
<trkpt lat="56.82263" lon="-4.04617"><ele>311.3</ele><time>2026-05-10T08:32:30Z</time><extensions><ns3:TrackPointExtension><ns3:hr>154</ns3:hr><ns3:cad>85</ns3:cad></ns3:TrackPointExtension></extensions></trkpt>
<trkpt lat="56.82283" lon="-4.04595"><ele>312.0</ele><time>2026-05-10T08:32:40Z</time><extensions><ns3:TrackPointExtension><ns3:hr>152</ns3:hr><ns3:cad>87</ns3:cad></ns3:TrackPointExtension></extensions></trkpt>
<trkpt lat="56.82300" lon="-4.04570"><ele>312.8</ele><time>2026-05-10T08:32:50Z</time><extensions><ns3:TrackPointExtension><ns3:hr>155</ns3:hr><ns3:cad>89</ns3:cad></ns3:TrackPointExtension></extensions></trkpt>
<trkpt lat="56.82318" lon="-4.04545"><ele>313.5</ele><time>2026-05-10T08:33:00Z</time><extensions><ns3:TrackPointExtension><ns3:hr>153</ns3:hr><ns3:cad>84</ns3:cad></ns3:TrackPointExtension></extensions></trkpt>
<trkpt lat="56.82337" lon="-4.04523"><ele>314.3</ele><time>2026-05-10T08:33:10Z</time><extensions><ns3:TrackPointExtension><ns3:hr>155</ns3:hr><ns3:cad>86</ns3:cad></ns3:TrackPointExtension></extensions></trkpt>
<trkpt lat="56.82356" lon="-4.04500"><ele>315.0</ele><time>2026-05-10T08:33:20Z</time><extensions><ns3:TrackPointExtension><ns3:hr>152</ns3:hr><ns3:cad>85</ns3:cad></ns3:TrackPointExtension></extensions></trkpt>
<trkpt lat="56.82376" lon="-4.04481"><ele>315.8</ele><time>2026-05-10T08:33:30Z</time><extensions><ns3:TrackPointExtension><ns3:hr>156</ns3:hr><ns3:cad>85</ns3:cad></ns3:TrackPointExtension></extensions></trkpt>
<trkpt lat="56.82396" lon="-4.04461"><ele>316.5</ele><time>2026-05-10T08:33:40Z</time><extensions><ns3:TrackPointExtension><ns3:hr>155</ns3:hr><ns3:cad>84</ns3:cad></ns3:TrackPointExtension></extensions></trkpt>
<trkpt lat="56.82414" lon="-4.04438"><ele>317.3</ele><time>2026-05-10T08:33:50Z</time><extensions><ns3:TrackPointExtension><ns3:hr>154</ns3:hr><ns3:cad>87</ns3:cad></ns3:TrackPointExtension></extensions></trkpt>
<trkpt lat="56.82433" lon="-4.04416"><ele>318.0</ele><time>2026-05-10T08:34:00Z</time><extensions><ns3:TrackPointExtension><ns3:hr>154</ns3:hr><ns3:cad>87</ns3:cad></ns3:TrackPointExtension></extensions></trkpt>
<trkpt lat="56.82453" lon="-4.04398"><ele>318.8</ele><time>2026-05-10T08:34:10Z</time><extensions><ns3:TrackPointExtension><ns3:hr>154</ns3:hr><ns3:cad>87</ns3:cad></ns3:TrackPointExtension></extensions></trkpt>
<trkpt lat="56.82475" lon="-4.04385"><ele>319.5</ele><time>2026-05-10T08:34:20Z</time><extensions><ns3:TrackPointExtension><ns3:hr>156</ns3:hr><ns3:cad>87</ns3:cad></ns3:TrackPointExtension></extensions></trkpt>
<trkpt lat="56.82496" lon="-4.04372"><ele>320.3</ele><time>2026-05-10T08:34:30Z</time><extensions><ns3:TrackPointExtension><ns3:hr>155</ns3:hr><ns3:cad>88</ns3:cad></ns3:TrackPointExtension></extensions></trkpt>
<trkpt lat="56.82518" lon="-4.04361"><ele>321.0</ele><time>2026-05-10T08:34:40Z</time><extensions><ns3:TrackPointExtension><ns3:hr>156</ns3:hr><ns3:cad>89</ns3:cad></ns3:TrackPointExtension></extensions></trkpt>
<trkpt lat="56.82540" lon="-4.04355"><ele>321.8</ele><time>2026-05-10T08:34:50Z</time><extensions><ns3:TrackPointExtension><ns3:hr>154</ns3:hr><ns3:cad>84</ns3:cad></ns3:TrackPointExtension></extensions></trkpt>
<trkpt lat="56.82562" lon="-4.04350"><ele>322.5</ele><time>2026-05-10T08:35:00Z</time><extensions><ns3:TrackPointExtension><ns3:hr>154</ns3:hr><ns3:cad>89</ns3:cad></ns3:TrackPointExtension></extensions></trkpt>
<trkpt lat="56.82584" lon="-4.04344"><ele>323.3</ele><time>2026-05-10T08:35:10Z</time><extensions><ns3:TrackPointExtension><ns3:hr>153</ns3:hr><ns3:cad>85</ns3:cad></ns3:TrackPointExtension></extensions></trkpt>
<trkpt lat="56.82606" lon="-4.04336"><ele>324.0</ele><time>2026-05-10T08:35:20Z</time><extensions><ns3:TrackPointExtension><ns3:hr>155</ns3:hr><ns3:cad>87</ns3:cad></ns3:TrackPointExtension></extensions></trkpt>
<trkpt lat="56.82629" lon="-4.04331"><ele>324.8</ele><time>2026-05-10T08:35:30Z</time><extensions><ns3:TrackPointExtension><ns3:hr>156</ns3:hr><ns3:cad>89</ns3:cad></ns3:TrackPointExtension></extensions></trkpt>
<trkpt lat="56.82651" lon="-4.04328"><ele>325.5</ele><time>2026-05-10T08:35:40Z</time><extensions><ns3:TrackPointExtension><ns3:hr>155</ns3:hr><ns3:cad>87</ns3:cad></ns3:TrackPointExtension></extensions></trkpt>
<trkpt lat="56.82674" lon="-4.04324"><ele>326.3</ele><time>2026-05-10T08:35:50Z</time><extensions><ns3:TrackPointExtension><ns3:hr>155</ns3:hr><ns3:cad>87</ns3:cad></ns3:TrackPointExtension></extensions></trkpt>
<trkpt lat="56.82696" lon="-4.04324"><ele>327.0</ele><time>2026-05-10T08:36:00Z</time><extensions><ns3:TrackPointExtension><ns3:hr>154</ns3:hr><ns3:cad>89</ns3:cad></ns3:TrackPointExtension></extensions></trkpt>
<trkpt lat="56.82719" lon="-4.04325"><ele>327.8</ele><time>2026-05-10T08:36:10Z</time><extensions><ns3:TrackPointExtension><ns3:hr>152</ns3:hr><ns3:cad>86</ns3:cad></ns3:TrackPointExtension></extensions></trkpt>
<trkpt lat="56.82741" lon="-4.04328"><ele>328.5</ele><time>2026-05-10T08:36:20Z</time><extensions><ns3:TrackPointExtension><ns3:hr>153</ns3:hr><ns3:cad>84</ns3:cad></ns3:TrackPointExtension></extensions></trkpt>
<trkpt lat="56.82763" lon="-4.04334"><ele>329.3</ele><time>2026-05-10T08:36:30Z</time><extensions><ns3:TrackPointExtension><ns3:hr>153</ns3:hr><ns3:cad>85</ns3:cad></ns3:TrackPointExtension></extensions></trkpt>
<trkpt lat="56.82786" lon="-4.04338"><ele>330.0</ele><time>2026-05-10T08:36:40Z</time><extensions><ns3:TrackPointExtension><ns3:hr>152</ns3:hr><ns3:cad>89</ns3:cad></ns3:TrackPointExtension></extensions></trkpt>
<trkpt lat="56.82808" lon="-4.04346"><ele>330.8</ele><time>2026-05-10T08:36:50Z</time><extensions><ns3:TrackPointExtension><ns3:hr>155</ns3:hr><ns3:cad>86</ns3:cad></ns3:TrackPointExtension></extensions></trkpt>
<trkpt lat="56.82830" lon="-4.04354"><ele>331.5</ele><time>2026-05-10T08:37:00Z</time><extensions><ns3:TrackPointExtension><ns3:hr>155</ns3:hr><ns3:cad>84</ns3:cad></ns3:TrackPointExtension></extensions></trkpt>
<trkpt lat="56.82852" lon="-4.04363"><ele>332.3</ele><time>2026-05-10T08:37:10Z</time><extensions><ns3:TrackPointExtension><ns3:hr>156</ns3:hr><ns3:cad>87</ns3:cad></ns3:TrackPointExtension></extensions></trkpt>
<trkpt lat="56.82873" lon="-4.04375"><ele>333.0</ele><time>2026-05-10T08:37:20Z</time><extensions><ns3:TrackPointExtension><ns3:hr>156</ns3:hr><ns3:cad>86</ns3:cad></ns3:TrackPointExtension></extensions></trkpt>
<trkpt lat="56.82895" lon="-4.04388"><ele>333.8</ele><time>2026-05-10T08:37:30Z</time><extensions><ns3:TrackPointExtension><ns3:hr>153</ns3:hr><ns3:cad>87</ns3:cad></ns3:TrackPointExtension></extensions></trkpt>
<trkpt lat="56.82917" lon="-4.04395"><ele>334.5</ele><time>2026-05-10T08:37:40Z</time><extensions><ns3:TrackPointExtension><ns3:hr>152</ns3:hr><ns3:cad>87</ns3:cad></ns3:TrackPointExtension></extensions></trkpt>
<trkpt lat="56.82939" lon="-4.04401"><ele>335.3</ele><time>2026-05-10T08:37:50Z</time><extensions><ns3:TrackPointExtension><ns3:hr>156</ns3:hr><ns3:cad>89</ns3:cad></ns3:TrackPointExtension></extensions></trkpt>
<trkpt lat="56.82961" lon="-4.04410"><ele>336.0</ele><time>2026-05-10T08:38:00Z</time><extensions><ns3:TrackPointExtension><ns3:hr>153</ns3:hr><ns3:cad>89</ns3:cad></ns3:TrackPointExtension></extensions></trkpt>
<trkpt lat="56.82983" lon="-4.04419"><ele>336.8</ele><time>2026-05-10T08:38:10Z</time><extensions><ns3:TrackPointExtension><ns3:hr>152</ns3:hr><ns3:cad>89</ns3:cad></ns3:TrackPointExtension></extensions></trkpt>
<trkpt lat="56.83005" lon="-4.04425"><ele>337.5</ele><time>2026-05-10T08:38:20Z</time><extensions><ns3:TrackPointExtension><ns3:hr>154</ns3:hr><ns3:cad>85</ns3:cad></ns3:TrackPointExtension></extensions></trkpt>
<trkpt lat="56.83027" lon="-4.04431"><ele>338.3</ele><time>2026-05-10T08:38:30Z</time><extensions><ns3:TrackPointExtension><ns3:hr>155</ns3:hr><ns3:cad>86</ns3:cad></ns3:TrackPointExtension></extensions></trkpt>
<trkpt lat="56.83049" lon="-4.04438"><ele>339.0</ele><time>2026-05-10T08:38:40Z</time><extensions><ns3:TrackPointExtension><ns3:hr>155</ns3:hr><ns3:cad>84</ns3:cad></ns3:TrackPointExtension></extensions></trkpt>
<trkpt lat="56.83072" lon="-4.04443"><ele>339.8</ele><time>2026-05-10T08:38:50Z</time><extensions><ns3:TrackPointExtension><ns3:hr>153</ns3:hr><ns3:cad>86</ns3:cad></ns3:TrackPointExtension></extensions></trkpt>
<trkpt lat="56.83094" lon="-4.04447"><ele>340.5</ele><time>2026-05-10T08:39:00Z</time><extensions><ns3:TrackPointExtension><ns3:hr>154</ns3:hr><ns3:cad>89</ns3:cad></ns3:TrackPointExtension></extensions></trkpt>
<trkpt lat="56.83117" lon="-4.04446"><ele>341.3</ele><time>2026-05-10T08:39:10Z</time><extensions><ns3:TrackPointExtension><ns3:hr>154</ns3:hr><ns3:cad>84</ns3:cad></ns3:TrackPointExtension></extensions></trkpt>
<trkpt lat="56.83139" lon="-4.04444"><ele>342.0</ele><time>2026-05-10T08:39:20Z</time><extensions><ns3:TrackPointExtension><ns3:hr>156</ns3:hr><ns3:cad>85</ns3:cad></ns3:TrackPointExtension></extensions></trkpt>
<trkpt lat="56.83161" lon="-4.04443"><ele>342.8</ele><time>2026-05-10T08:39:30Z</time><extensions><ns3:TrackPointExtension><ns3:hr>156</ns3:hr><ns3:cad>87</ns3:cad></ns3:TrackPointExtension></extensions></trkpt>
<trkpt lat="56.83184" lon="-4.04443"><ele>343.5</ele><time>2026-05-10T08:39:40Z</time><extensions><ns3:TrackPointExtension><ns3:hr>152</ns3:hr><ns3:cad>85</ns3:cad></ns3:TrackPointExtension></extensions></trkpt>
<trkpt lat="56.83206" lon="-4.04446"><ele>344.3</ele><time>2026-05-10T08:39:50Z</time><extensions><ns3:TrackPointExtension><ns3:hr>154</ns3:hr><ns3:cad>88</ns3:cad></ns3:TrackPointExtension></extensions></trkpt>
<trkpt lat="56.83227" lon="-4.04450"><ele>345.0</ele><time>2026-05-10T08:39:59Z</time><extensions><ns3:TrackPointExtension><ns3:hr>153</ns3:hr><ns3:cad>89</ns3:cad></ns3:TrackPointExtension></extensions></trkpt>
<trkpt lat="56.83244" lon="-4.04449"><ele>346.8</ele><time>2026-05-10T08:40:09Z</time><extensions><ns3:TrackPointExtension><ns3:hr>153</ns3:hr><ns3:cad>86</ns3:cad></ns3:TrackPointExtension></extensions></trkpt>
<trkpt lat="56.83260" lon="-4.04451"><ele>348.7</ele><time>2026-05-10T08:40:19Z</time><extensions><ns3:TrackPointExtension><ns3:hr>156</ns3:hr><ns3:cad>85</ns3:cad></ns3:TrackPointExtension></extensions></trkpt>
<trkpt lat="56.83277" lon="-4.04455"><ele>350.5</ele><time>2026-05-10T08:40:29Z</time><extensions><ns3:TrackPointExtension><ns3:hr>157</ns3:hr><ns3:cad>85</ns3:cad></ns3:TrackPointExtension></extensions></trkpt>
<trkpt lat="56.83293" lon="-4.04455"><ele>352.4</ele><time>2026-05-10T08:40:39Z</time><extensions><ns3:TrackPointExtension><ns3:hr>155</ns3:hr><ns3:cad>87</ns3:cad></ns3:TrackPointExtension></extensions></trkpt>
<trkpt lat="56.83310" lon="-4.04454"><ele>354.2</ele><time>2026-05-10T08:40:49Z</time><extensions><ns3:TrackPointExtension><ns3:hr>156</ns3:hr><ns3:cad>85</ns3:cad></ns3:TrackPointExtension></extensions></trkpt>
<trkpt lat="56.83326" lon="-4.04454"><ele>356.1</ele><time>2026-05-10T08:40:59Z</time><extensions><ns3:TrackPointExtension><ns3:hr>157</ns3:hr><ns3:cad>89</ns3:cad></ns3:TrackPointExtension></extensions></trkpt>
<trkpt lat="56.83343" lon="-4.04458"><ele>357.9</ele><time>2026-05-10T08:41:09Z</time><extensions><ns3:TrackPointExtension><ns3:hr>156</ns3:hr><ns3:cad>89</ns3:cad></ns3:TrackPointExtension></extensions></trkpt>
<trkpt lat="56.83359" lon="-4.04460"><ele>359.7</ele><time>2026-05-10T08:41:19Z</time><extensions><ns3:TrackPointExtension><ns3:hr>153</ns3:hr><ns3:cad>87</ns3:cad></ns3:TrackPointExtension></extensions></trkpt>
<trkpt lat="56.83376" lon="-4.04464"><ele>361.6</ele><time>2026-05-10T08:41:29Z</time><extensions><ns3:TrackPointExtension><ns3:hr>155</ns3:hr><ns3:cad>85</ns3:cad></ns3:TrackPointExtension></extensions></trkpt>
<trkpt lat="56.83392" lon="-4.04468"><ele>363.4</ele><time>2026-05-10T08:41:39Z</time><extensions><ns3:TrackPointExtension><ns3:hr>154</ns3:hr><ns3:cad>87</ns3:cad></ns3:TrackPointExtension></extensions></trkpt>
<trkpt lat="56.83409" lon="-4.04468"><ele>365.3</ele><time>2026-05-10T08:41:49Z</time><extensions><ns3:TrackPointExtension><ns3:hr>156</ns3:hr><ns3:cad>88</ns3:cad></ns3:TrackPointExtension></extensions></trkpt>
<trkpt lat="56.83425" lon="-4.04470"><ele>367.1</ele><time>2026-05-10T08:41:59Z</time><extensions><ns3:TrackPointExtension><ns3:hr>155</ns3:hr><ns3:cad>86</ns3:cad></ns3:TrackPointExtension></extensions></trkpt>
<trkpt lat="56.83442" lon="-4.04467"><ele>368.9</ele><time>2026-05-10T08:42:09Z</time><extensions><ns3:TrackPointExtension><ns3:hr>152</ns3:hr><ns3:cad>88</ns3:cad></ns3:TrackPointExtension></extensions></trkpt>
<trkpt lat="56.83458" lon="-4.04465"><ele>370.8</ele><time>2026-05-10T08:42:19Z</time><extensions><ns3:TrackPointExtension><ns3:hr>153</ns3:hr><ns3:cad>87</ns3:cad></ns3:TrackPointExtension></extensions></trkpt>
<trkpt lat="56.83475" lon="-4.04460"><ele>372.6</ele><time>2026-05-10T08:42:29Z</time><extensions><ns3:TrackPointExtension><ns3:hr>156</ns3:hr><ns3:cad>85</ns3:cad></ns3:TrackPointExtension></extensions></trkpt>
<trkpt lat="56.83491" lon="-4.04455"><ele>374.5</ele><time>2026-05-10T08:42:39Z</time><extensions><ns3:TrackPointExtension><ns3:hr>153</ns3:hr><ns3:cad>85</ns3:cad></ns3:TrackPointExtension></extensions></trkpt>
<trkpt lat="56.83507" lon="-4.04449"><ele>376.3</ele><time>2026-05-10T08:42:49Z</time><extensions><ns3:TrackPointExtension><ns3:hr>153</ns3:hr><ns3:cad>84</ns3:cad></ns3:TrackPointExtension></extensions></trkpt>
<trkpt lat="56.83523" lon="-4.04444"><ele>378.2</ele><time>2026-05-10T08:42:59Z</time><extensions><ns3:TrackPointExtension><ns3:hr>153</ns3:hr><ns3:cad>84</ns3:cad></ns3:TrackPointExtension></extensions></trkpt>
<trkpt lat="56.83540" lon="-4.04443"><ele>380.0</ele><time>2026-05-10T08:43:09Z</time><extensions><ns3:TrackPointExtension><ns3:hr>156</ns3:hr><ns3:cad>86</ns3:cad></ns3:TrackPointExtension></extensions></trkpt>
<trkpt lat="56.83557" lon="-4.04445"><ele>381.8</ele><time>2026-05-10T08:43:19Z</time><extensions><ns3:TrackPointExtension><ns3:hr>155</ns3:hr><ns3:cad>87</ns3:cad></ns3:TrackPointExtension></extensions></trkpt>
<trkpt lat="56.83573" lon="-4.04445"><ele>383.7</ele><time>2026-05-10T08:43:29Z</time><extensions><ns3:TrackPointExtension><ns3:hr>152</ns3:hr><ns3:cad>85</ns3:cad></ns3:TrackPointExtension></extensions></trkpt>
<trkpt lat="56.83590" lon="-4.04447"><ele>385.5</ele><time>2026-05-10T08:43:39Z</time><extensions><ns3:TrackPointExtension><ns3:hr>154</ns3:hr><ns3:cad>84</ns3:cad></ns3:TrackPointExtension></extensions></trkpt>
<trkpt lat="56.83606" lon="-4.04448"><ele>387.4</ele><time>2026-05-10T08:43:49Z</time><extensions><ns3:TrackPointExtension><ns3:hr>155</ns3:hr><ns3:cad>85</ns3:cad></ns3:TrackPointExtension></extensions></trkpt>
<trkpt lat="56.83623" lon="-4.04447"><ele>389.2</ele><time>2026-05-10T08:43:59Z</time><extensions><ns3:TrackPointExtension><ns3:hr>155</ns3:hr><ns3:cad>88</ns3:cad></ns3:TrackPointExtension></extensions></trkpt>
<trkpt lat="56.83639" lon="-4.04443"><ele>391.1</ele><time>2026-05-10T08:44:09Z</time><extensions><ns3:TrackPointExtension><ns3:hr>153</ns3:hr><ns3:cad>89</ns3:cad></ns3:TrackPointExtension></extensions></trkpt>
<trkpt lat="56.83655" lon="-4.04438"><ele>392.9</ele><time>2026-05-10T08:44:19Z</time><extensions><ns3:TrackPointExtension><ns3:hr>156</ns3:hr><ns3:cad>85</ns3:cad></ns3:TrackPointExtension></extensions></trkpt>
<trkpt lat="56.83671" lon="-4.04429"><ele>394.7</ele><time>2026-05-10T08:44:29Z</time><extensions><ns3:TrackPointExtension><ns3:hr>156</ns3:hr><ns3:cad>86</ns3:cad></ns3:TrackPointExtension></extensions></trkpt>
<trkpt lat="56.83687" lon="-4.04418"><ele>396.6</ele><time>2026-05-10T08:44:39Z</time><extensions><ns3:TrackPointExtension><ns3:hr>156</ns3:hr><ns3:cad>86</ns3:cad></ns3:TrackPointExtension></extensions></trkpt>
<trkpt lat="56.83702" lon="-4.04407"><ele>398.4</ele><time>2026-05-10T08:44:49Z</time><extensions><ns3:TrackPointExtension><ns3:hr>153</ns3:hr><ns3:cad>86</ns3:cad></ns3:TrackPointExtension></extensions></trkpt>
<trkpt lat="56.83717" lon="-4.04396"><ele>400.3</ele><time>2026-05-10T08:44:59Z</time><extensions><ns3:TrackPointExtension><ns3:hr>156</ns3:hr><ns3:cad>86</ns3:cad></ns3:TrackPointExtension></extensions></trkpt>
<trkpt lat="56.83732" lon="-4.04383"><ele>402.1</ele><time>2026-05-10T08:45:09Z</time><extensions><ns3:TrackPointExtension><ns3:hr>152</ns3:hr><ns3:cad>87</ns3:cad></ns3:TrackPointExtension></extensions></trkpt>
<trkpt lat="56.83746" lon="-4.04366"><ele>404.0</ele><time>2026-05-10T08:45:19Z</time><extensions><ns3:TrackPointExtension><ns3:hr>156</ns3:hr><ns3:cad>85</ns3:cad></ns3:TrackPointExtension></extensions></trkpt>
<trkpt lat="56.83760" lon="-4.04350"><ele>405.8</ele><time>2026-05-10T08:45:29Z</time><extensions><ns3:TrackPointExtension><ns3:hr>154</ns3:hr><ns3:cad>85</ns3:cad></ns3:TrackPointExtension></extensions></trkpt>
<trkpt lat="56.83775" lon="-4.04335"><ele>407.6</ele><time>2026-05-10T08:45:39Z</time><extensions><ns3:TrackPointExtension><ns3:hr>154</ns3:hr><ns3:cad>85</ns3:cad></ns3:TrackPointExtension></extensions></trkpt>
<trkpt lat="56.83790" lon="-4.04322"><ele>409.5</ele><time>2026-05-10T08:45:49Z</time><extensions><ns3:TrackPointExtension><ns3:hr>155</ns3:hr><ns3:cad>89</ns3:cad></ns3:TrackPointExtension></extensions></trkpt>
<trkpt lat="56.83804" lon="-4.04309"><ele>411.3</ele><time>2026-05-10T08:45:59Z</time><extensions><ns3:TrackPointExtension><ns3:hr>155</ns3:hr><ns3:cad>84</ns3:cad></ns3:TrackPointExtension></extensions></trkpt>
<trkpt lat="56.83820" lon="-4.04299"><ele>413.2</ele><time>2026-05-10T08:46:09Z</time><extensions><ns3:TrackPointExtension><ns3:hr>155</ns3:hr><ns3:cad>84</ns3:cad></ns3:TrackPointExtension></extensions></trkpt>
<trkpt lat="56.83835" lon="-4.04286"><ele>415.0</ele><time>2026-05-10T08:46:19Z</time><extensions><ns3:TrackPointExtension><ns3:hr>154</ns3:hr><ns3:cad>86</ns3:cad></ns3:TrackPointExtension></extensions></trkpt>
<trkpt lat="56.83851" lon="-4.04276"><ele>416.8</ele><time>2026-05-10T08:46:29Z</time><extensions><ns3:TrackPointExtension><ns3:hr>156</ns3:hr><ns3:cad>89</ns3:cad></ns3:TrackPointExtension></extensions></trkpt>
<trkpt lat="56.83866" lon="-4.04266"><ele>418.7</ele><time>2026-05-10T08:46:39Z</time><extensions><ns3:TrackPointExtension><ns3:hr>154</ns3:hr><ns3:cad>88</ns3:cad></ns3:TrackPointExtension></extensions></trkpt>
<trkpt lat="56.83882" lon="-4.04256"><ele>420.5</ele><time>2026-05-10T08:46:49Z</time><extensions><ns3:TrackPointExtension><ns3:hr>155</ns3:hr><ns3:cad>86</ns3:cad></ns3:TrackPointExtension></extensions></trkpt>
<trkpt lat="56.83897" lon="-4.04245"><ele>422.4</ele><time>2026-05-10T08:46:59Z</time><extensions><ns3:TrackPointExtension><ns3:hr>152</ns3:hr><ns3:cad>89</ns3:cad></ns3:TrackPointExtension></extensions></trkpt>
<trkpt lat="56.83913" lon="-4.04235"><ele>424.2</ele><time>2026-05-10T08:47:09Z</time><extensions><ns3:TrackPointExtension><ns3:hr>157</ns3:hr><ns3:cad>88</ns3:cad></ns3:TrackPointExtension></extensions></trkpt>
<trkpt lat="56.83929" lon="-4.04225"><ele>426.1</ele><time>2026-05-10T08:47:19Z</time><extensions><ns3:TrackPointExtension><ns3:hr>154</ns3:hr><ns3:cad>89</ns3:cad></ns3:TrackPointExtension></extensions></trkpt>
<trkpt lat="56.83944" lon="-4.04217"><ele>427.9</ele><time>2026-05-10T08:47:29Z</time><extensions><ns3:TrackPointExtension><ns3:hr>154</ns3:hr><ns3:cad>86</ns3:cad></ns3:TrackPointExtension></extensions></trkpt>
<trkpt lat="56.83960" lon="-4.04206"><ele>429.7</ele><time>2026-05-10T08:47:39Z</time><extensions><ns3:TrackPointExtension><ns3:hr>153</ns3:hr><ns3:cad>86</ns3:cad></ns3:TrackPointExtension></extensions></trkpt>
<trkpt lat="56.83975" lon="-4.04194"><ele>431.6</ele><time>2026-05-10T08:47:49Z</time><extensions><ns3:TrackPointExtension><ns3:hr>155</ns3:hr><ns3:cad>86</ns3:cad></ns3:TrackPointExtension></extensions></trkpt>
<trkpt lat="56.83991" lon="-4.04185"><ele>433.4</ele><time>2026-05-10T08:47:59Z</time><extensions><ns3:TrackPointExtension><ns3:hr>153</ns3:hr><ns3:cad>84</ns3:cad></ns3:TrackPointExtension></extensions></trkpt>
<trkpt lat="56.84007" lon="-4.04179"><ele>435.3</ele><time>2026-05-10T08:48:09Z</time><extensions><ns3:TrackPointExtension><ns3:hr>153</ns3:hr><ns3:cad>87</ns3:cad></ns3:TrackPointExtension></extensions></trkpt>
<trkpt lat="56.84024" lon="-4.04177"><ele>437.1</ele><time>2026-05-10T08:48:19Z</time><extensions><ns3:TrackPointExtension><ns3:hr>153</ns3:hr><ns3:cad>85</ns3:cad></ns3:TrackPointExtension></extensions></trkpt>
<trkpt lat="56.84040" lon="-4.04176"><ele>439.0</ele><time>2026-05-10T08:48:29Z</time><extensions><ns3:TrackPointExtension><ns3:hr>156</ns3:hr><ns3:cad>85</ns3:cad></ns3:TrackPointExtension></extensions></trkpt>
<trkpt lat="56.84057" lon="-4.04178"><ele>440.8</ele><time>2026-05-10T08:48:39Z</time><extensions><ns3:TrackPointExtension><ns3:hr>154</ns3:hr><ns3:cad>86</ns3:cad></ns3:TrackPointExtension></extensions></trkpt>
<trkpt lat="56.84073" lon="-4.04184"><ele>442.6</ele><time>2026-05-10T08:48:49Z</time><extensions><ns3:TrackPointExtension><ns3:hr>153</ns3:hr><ns3:cad>86</ns3:cad></ns3:TrackPointExtension></extensions></trkpt>
<trkpt lat="56.84089" lon="-4.04188"><ele>444.5</ele><time>2026-05-10T08:48:59Z</time><extensions><ns3:TrackPointExtension><ns3:hr>154</ns3:hr><ns3:cad>88</ns3:cad></ns3:TrackPointExtension></extensions></trkpt>
<trkpt lat="56.84106" lon="-4.04193"><ele>446.3</ele><time>2026-05-10T08:49:09Z</time><extensions><ns3:TrackPointExtension><ns3:hr>154</ns3:hr><ns3:cad>85</ns3:cad></ns3:TrackPointExtension></extensions></trkpt>
<trkpt lat="56.84122" lon="-4.04200"><ele>448.2</ele><time>2026-05-10T08:49:19Z</time><extensions><ns3:TrackPointExtension><ns3:hr>153</ns3:hr><ns3:cad>88</ns3:cad></ns3:TrackPointExtension></extensions></trkpt>
<trkpt lat="56.84138" lon="-4.04208"><ele>450.0</ele><time>2026-05-10T08:49:29Z</time><extensions><ns3:TrackPointExtension><ns3:hr>157</ns3:hr><ns3:cad>87</ns3:cad></ns3:TrackPointExtension></extensions></trkpt>
<trkpt lat="56.84154" lon="-4.04215"><ele>451.8</ele><time>2026-05-10T08:49:39Z</time><extensions><ns3:TrackPointExtension><ns3:hr>157</ns3:hr><ns3:cad>87</ns3:cad></ns3:TrackPointExtension></extensions></trkpt>
<trkpt lat="56.84170" lon="-4.04221"><ele>453.7</ele><time>2026-05-10T08:49:49Z</time><extensions><ns3:TrackPointExtension><ns3:hr>152</ns3:hr><ns3:cad>88</ns3:cad></ns3:TrackPointExtension></extensions></trkpt>
<trkpt lat="56.84186" lon="-4.04228"><ele>455.5</ele><time>2026-05-10T08:49:59Z</time><extensions><ns3:TrackPointExtension><ns3:hr>154</ns3:hr><ns3:cad>89</ns3:cad></ns3:TrackPointExtension></extensions></trkpt>
<trkpt lat="56.84203" lon="-4.04232"><ele>457.4</ele><time>2026-05-10T08:50:09Z</time><extensions><ns3:TrackPointExtension><ns3:hr>153</ns3:hr><ns3:cad>87</ns3:cad></ns3:TrackPointExtension></extensions></trkpt>
<trkpt lat="56.84219" lon="-4.04237"><ele>459.2</ele><time>2026-05-10T08:50:19Z</time><extensions><ns3:TrackPointExtension><ns3:hr>156</ns3:hr><ns3:cad>87</ns3:cad></ns3:TrackPointExtension></extensions></trkpt>
<trkpt lat="56.84235" lon="-4.04239"><ele>461.1</ele><time>2026-05-10T08:50:29Z</time><extensions><ns3:TrackPointExtension><ns3:hr>156</ns3:hr><ns3:cad>87</ns3:cad></ns3:TrackPointExtension></extensions></trkpt>
<trkpt lat="56.84252" lon="-4.04243"><ele>462.9</ele><time>2026-05-10T08:50:39Z</time><extensions><ns3:TrackPointExtension><ns3:hr>156</ns3:hr><ns3:cad>86</ns3:cad></ns3:TrackPointExtension></extensions></trkpt>
<trkpt lat="56.84268" lon="-4.04246"><ele>464.7</ele><time>2026-05-10T08:50:49Z</time><extensions><ns3:TrackPointExtension><ns3:hr>153</ns3:hr><ns3:cad>87</ns3:cad></ns3:TrackPointExtension></extensions></trkpt>
<trkpt lat="56.84285" lon="-4.04252"><ele>466.6</ele><time>2026-05-10T08:50:59Z</time><extensions><ns3:TrackPointExtension><ns3:hr>155</ns3:hr><ns3:cad>89</ns3:cad></ns3:TrackPointExtension></extensions></trkpt>
<trkpt lat="56.84301" lon="-4.04258"><ele>468.4</ele><time>2026-05-10T08:51:09Z</time><extensions><ns3:TrackPointExtension><ns3:hr>156</ns3:hr><ns3:cad>86</ns3:cad></ns3:TrackPointExtension></extensions></trkpt>
<trkpt lat="56.84317" lon="-4.04266"><ele>470.3</ele><time>2026-05-10T08:51:19Z</time><extensions><ns3:TrackPointExtension><ns3:hr>156</ns3:hr><ns3:cad>85</ns3:cad></ns3:TrackPointExtension></extensions></trkpt>
<trkpt lat="56.84332" lon="-4.04276"><ele>472.1</ele><time>2026-05-10T08:51:29Z</time><extensions><ns3:TrackPointExtension><ns3:hr>153</ns3:hr><ns3:cad>87</ns3:cad></ns3:TrackPointExtension></extensions></trkpt>
<trkpt lat="56.84348" lon="-4.04286"><ele>474.0</ele><time>2026-05-10T08:51:39Z</time><extensions><ns3:TrackPointExtension><ns3:hr>153</ns3:hr><ns3:cad>88</ns3:cad></ns3:TrackPointExtension></extensions></trkpt>
<trkpt lat="56.84364" lon="-4.04296"><ele>475.8</ele><time>2026-05-10T08:51:49Z</time><extensions><ns3:TrackPointExtension><ns3:hr>153</ns3:hr><ns3:cad>84</ns3:cad></ns3:TrackPointExtension></extensions></trkpt>
<trkpt lat="56.84379" lon="-4.04307"><ele>477.6</ele><time>2026-05-10T08:51:59Z</time><extensions><ns3:TrackPointExtension><ns3:hr>154</ns3:hr><ns3:cad>85</ns3:cad></ns3:TrackPointExtension></extensions></trkpt>
<trkpt lat="56.84395" lon="-4.04317"><ele>479.5</ele><time>2026-05-10T08:52:09Z</time><extensions><ns3:TrackPointExtension><ns3:hr>156</ns3:hr><ns3:cad>85</ns3:cad></ns3:TrackPointExtension></extensions></trkpt>
<trkpt lat="56.84409" lon="-4.04331"><ele>481.3</ele><time>2026-05-10T08:52:19Z</time><extensions><ns3:TrackPointExtension><ns3:hr>154</ns3:hr><ns3:cad>87</ns3:cad></ns3:TrackPointExtension></extensions></trkpt>
<trkpt lat="56.84424" lon="-4.04344"><ele>483.2</ele><time>2026-05-10T08:52:29Z</time><extensions><ns3:TrackPointExtension><ns3:hr>153</ns3:hr><ns3:cad>86</ns3:cad></ns3:TrackPointExtension></extensions></trkpt>
<trkpt lat="56.84439" lon="-4.04358"><ele>485.0</ele><time>2026-05-10T08:52:39Z</time><extensions><ns3:TrackPointExtension><ns3:hr>155</ns3:hr><ns3:cad>88</ns3:cad></ns3:TrackPointExtension></extensions></trkpt>
<trkpt lat="56.84454" lon="-4.04371"><ele>486.9</ele><time>2026-05-10T08:52:49Z</time><extensions><ns3:TrackPointExtension><ns3:hr>157</ns3:hr><ns3:cad>85</ns3:cad></ns3:TrackPointExtension></extensions></trkpt>
<trkpt lat="56.84468" lon="-4.04388"><ele>488.7</ele><time>2026-05-10T08:52:59Z</time><extensions><ns3:TrackPointExtension><ns3:hr>153</ns3:hr><ns3:cad>85</ns3:cad></ns3:TrackPointExtension></extensions></trkpt>
<trkpt lat="56.84481" lon="-4.04405"><ele>490.5</ele><time>2026-05-10T08:53:09Z</time><extensions><ns3:TrackPointExtension><ns3:hr>155</ns3:hr><ns3:cad>89</ns3:cad></ns3:TrackPointExtension></extensions></trkpt>
<trkpt lat="56.84495" lon="-4.04423"><ele>492.4</ele><time>2026-05-10T08:53:19Z</time><extensions><ns3:TrackPointExtension><ns3:hr>153</ns3:hr><ns3:cad>88</ns3:cad></ns3:TrackPointExtension></extensions></trkpt>
<trkpt lat="56.84509" lon="-4.04440"><ele>494.2</ele><time>2026-05-10T08:53:29Z</time><extensions><ns3:TrackPointExtension><ns3:hr>153</ns3:hr><ns3:cad>86</ns3:cad></ns3:TrackPointExtension></extensions></trkpt>
<trkpt lat="56.84523" lon="-4.04455"><ele>496.1</ele><time>2026-05-10T08:53:39Z</time><extensions><ns3:TrackPointExtension><ns3:hr>155</ns3:hr><ns3:cad>85</ns3:cad></ns3:TrackPointExtension></extensions></trkpt>
<trkpt lat="56.84538" lon="-4.04468"><ele>497.9</ele><time>2026-05-10T08:53:49Z</time><extensions><ns3:TrackPointExtension><ns3:hr>155</ns3:hr><ns3:cad>89</ns3:cad></ns3:TrackPointExtension></extensions></trkpt>
<trkpt lat="56.84552" lon="-4.04483"><ele>499.7</ele><time>2026-05-10T08:53:59Z</time><extensions><ns3:TrackPointExtension><ns3:hr>156</ns3:hr><ns3:cad>89</ns3:cad></ns3:TrackPointExtension></extensions></trkpt>
<trkpt lat="56.84566" lon="-4.04499"><ele>501.6</ele><time>2026-05-10T08:54:09Z</time><extensions><ns3:TrackPointExtension><ns3:hr>156</ns3:hr><ns3:cad>85</ns3:cad></ns3:TrackPointExtension></extensions></trkpt>
<trkpt lat="56.84580" lon="-4.04516"><ele>503.4</ele><time>2026-05-10T08:54:19Z</time><extensions><ns3:TrackPointExtension><ns3:hr>154</ns3:hr><ns3:cad>88</ns3:cad></ns3:TrackPointExtension></extensions></trkpt>
<trkpt lat="56.84593" lon="-4.04534"><ele>505.3</ele><time>2026-05-10T08:54:29Z</time><extensions><ns3:TrackPointExtension><ns3:hr>153</ns3:hr><ns3:cad>84</ns3:cad></ns3:TrackPointExtension></extensions></trkpt>
<trkpt lat="56.84606" lon="-4.04552"><ele>507.1</ele><time>2026-05-10T08:54:39Z</time><extensions><ns3:TrackPointExtension><ns3:hr>153</ns3:hr><ns3:cad>85</ns3:cad></ns3:TrackPointExtension></extensions></trkpt>
<trkpt lat="56.84620" lon="-4.04568"><ele>509.0</ele><time>2026-05-10T08:54:49Z</time><extensions><ns3:TrackPointExtension><ns3:hr>154</ns3:hr><ns3:cad>86</ns3:cad></ns3:TrackPointExtension></extensions></trkpt>
<trkpt lat="56.84633" lon="-4.04587"><ele>510.8</ele><time>2026-05-10T08:54:59Z</time><extensions><ns3:TrackPointExtension><ns3:hr>156</ns3:hr><ns3:cad>88</ns3:cad></ns3:TrackPointExtension></extensions></trkpt>
<trkpt lat="56.84647" lon="-4.04604"><ele>512.6</ele><time>2026-05-10T08:55:09Z</time><extensions><ns3:TrackPointExtension><ns3:hr>157</ns3:hr><ns3:cad>84</ns3:cad></ns3:TrackPointExtension></extensions></trkpt>
<trkpt lat="56.84661" lon="-4.04621"><ele>514.5</ele><time>2026-05-10T08:55:19Z</time><extensions><ns3:TrackPointExtension><ns3:hr>155</ns3:hr><ns3:cad>86</ns3:cad></ns3:TrackPointExtension></extensions></trkpt>
<trkpt lat="56.84673" lon="-4.04641"><ele>516.3</ele><time>2026-05-10T08:55:29Z</time><extensions><ns3:TrackPointExtension><ns3:hr>154</ns3:hr><ns3:cad>88</ns3:cad></ns3:TrackPointExtension></extensions></trkpt>
<trkpt lat="56.84686" lon="-4.04660"><ele>518.2</ele><time>2026-05-10T08:55:39Z</time><extensions><ns3:TrackPointExtension><ns3:hr>156</ns3:hr><ns3:cad>87</ns3:cad></ns3:TrackPointExtension></extensions></trkpt>
<trkpt lat="56.84700" lon="-4.04678"><ele>520.0</ele><time>2026-05-10T08:55:49Z</time><extensions><ns3:TrackPointExtension><ns3:hr>153</ns3:hr><ns3:cad>85</ns3:cad></ns3:TrackPointExtension></extensions></trkpt>
<trkpt lat="56.84713" lon="-4.04694"><ele>521.9</ele><time>2026-05-10T08:55:59Z</time><extensions><ns3:TrackPointExtension><ns3:hr>153</ns3:hr><ns3:cad>85</ns3:cad></ns3:TrackPointExtension></extensions></trkpt>
<trkpt lat="56.84726" lon="-4.04714"><ele>523.7</ele><time>2026-05-10T08:56:09Z</time><extensions><ns3:TrackPointExtension><ns3:hr>153</ns3:hr><ns3:cad>86</ns3:cad></ns3:TrackPointExtension></extensions></trkpt>
<trkpt lat="56.84737" lon="-4.04736"><ele>525.5</ele><time>2026-05-10T08:56:19Z</time><extensions><ns3:TrackPointExtension><ns3:hr>154</ns3:hr><ns3:cad>86</ns3:cad></ns3:TrackPointExtension></extensions></trkpt>
<trkpt lat="56.84748" lon="-4.04759"><ele>527.4</ele><time>2026-05-10T08:56:29Z</time><extensions><ns3:TrackPointExtension><ns3:hr>153</ns3:hr><ns3:cad>86</ns3:cad></ns3:TrackPointExtension></extensions></trkpt>
<trkpt lat="56.84760" lon="-4.04780"><ele>529.2</ele><time>2026-05-10T08:56:39Z</time><extensions><ns3:TrackPointExtension><ns3:hr>155</ns3:hr><ns3:cad>87</ns3:cad></ns3:TrackPointExtension></extensions></trkpt>
<trkpt lat="56.84771" lon="-4.04803"><ele>531.1</ele><time>2026-05-10T08:56:49Z</time><extensions><ns3:TrackPointExtension><ns3:hr>156</ns3:hr><ns3:cad>85</ns3:cad></ns3:TrackPointExtension></extensions></trkpt>
<trkpt lat="56.84780" lon="-4.04827"><ele>532.9</ele><time>2026-05-10T08:56:59Z</time><extensions><ns3:TrackPointExtension><ns3:hr>155</ns3:hr><ns3:cad>88</ns3:cad></ns3:TrackPointExtension></extensions></trkpt>
<trkpt lat="56.84790" lon="-4.04852"><ele>534.8</ele><time>2026-05-10T08:57:09Z</time><extensions><ns3:TrackPointExtension><ns3:hr>157</ns3:hr><ns3:cad>87</ns3:cad></ns3:TrackPointExtension></extensions></trkpt>
<trkpt lat="56.84800" lon="-4.04876"><ele>536.6</ele><time>2026-05-10T08:57:19Z</time><extensions><ns3:TrackPointExtension><ns3:hr>154</ns3:hr><ns3:cad>87</ns3:cad></ns3:TrackPointExtension></extensions></trkpt>
<trkpt lat="56.84812" lon="-4.04897"><ele>538.4</ele><time>2026-05-10T08:57:29Z</time><extensions><ns3:TrackPointExtension><ns3:hr>156</ns3:hr><ns3:cad>88</ns3:cad></ns3:TrackPointExtension></extensions></trkpt>
<trkpt lat="56.84824" lon="-4.04918"><ele>540.3</ele><time>2026-05-10T08:57:39Z</time><extensions><ns3:TrackPointExtension><ns3:hr>155</ns3:hr><ns3:cad>88</ns3:cad></ns3:TrackPointExtension></extensions></trkpt>
<trkpt lat="56.84835" lon="-4.04941"><ele>542.1</ele><time>2026-05-10T08:57:49Z</time><extensions><ns3:TrackPointExtension><ns3:hr>154</ns3:hr><ns3:cad>85</ns3:cad></ns3:TrackPointExtension></extensions></trkpt>
<trkpt lat="56.84845" lon="-4.04965"><ele>544.0</ele><time>2026-05-10T08:57:59Z</time><extensions><ns3:TrackPointExtension><ns3:hr>157</ns3:hr><ns3:cad>86</ns3:cad></ns3:TrackPointExtension></extensions></trkpt>
<trkpt lat="56.84851" lon="-4.04978"><ele>545.0</ele><time>2026-05-10T08:58:04Z</time><extensions><ns3:TrackPointExtension><ns3:hr>156</ns3:hr><ns3:cad>88</ns3:cad></ns3:TrackPointExtension></extensions></trkpt>
<trkpt lat="56.84858" lon="-4.04996"><ele>547.5</ele><time>2026-05-10T08:58:14Z</time><extensions><ns3:TrackPointExtension><ns3:hr>154</ns3:hr><ns3:cad>88</ns3:cad></ns3:TrackPointExtension></extensions></trkpt>
<trkpt lat="56.84865" lon="-4.05015"><ele>550.0</ele><time>2026-05-10T08:58:24Z</time><extensions><ns3:TrackPointExtension><ns3:hr>153</ns3:hr><ns3:cad>84</ns3:cad></ns3:TrackPointExtension></extensions></trkpt>
<trkpt lat="56.84873" lon="-4.05032"><ele>552.4</ele><time>2026-05-10T08:58:34Z</time><extensions><ns3:TrackPointExtension><ns3:hr>153</ns3:hr><ns3:cad>86</ns3:cad></ns3:TrackPointExtension></extensions></trkpt>
<trkpt lat="56.84880" lon="-4.05051"><ele>554.9</ele><time>2026-05-10T08:58:44Z</time><extensions><ns3:TrackPointExtension><ns3:hr>157</ns3:hr><ns3:cad>84</ns3:cad></ns3:TrackPointExtension></extensions></trkpt>
<trkpt lat="56.84888" lon="-4.05068"><ele>557.4</ele><time>2026-05-10T08:58:54Z</time><extensions><ns3:TrackPointExtension><ns3:hr>157</ns3:hr><ns3:cad>88</ns3:cad></ns3:TrackPointExtension></extensions></trkpt>
<trkpt lat="56.84897" lon="-4.05084"><ele>559.9</ele><time>2026-05-10T08:59:04Z</time><extensions><ns3:TrackPointExtension><ns3:hr>157</ns3:hr><ns3:cad>85</ns3:cad></ns3:TrackPointExtension></extensions></trkpt>
<trkpt lat="56.84905" lon="-4.05102"><ele>562.4</ele><time>2026-05-10T08:59:14Z</time><extensions><ns3:TrackPointExtension><ns3:hr>155</ns3:hr><ns3:cad>87</ns3:cad></ns3:TrackPointExtension></extensions></trkpt>
<trkpt lat="56.84914" lon="-4.05117"><ele>564.9</ele><time>2026-05-10T08:59:24Z</time><extensions><ns3:TrackPointExtension><ns3:hr>157</ns3:hr><ns3:cad>84</ns3:cad></ns3:TrackPointExtension></extensions></trkpt>
<trkpt lat="56.84924" lon="-4.05131"><ele>567.3</ele><time>2026-05-10T08:59:34Z</time><extensions><ns3:TrackPointExtension><ns3:hr>153</ns3:hr><ns3:cad>84</ns3:cad></ns3:TrackPointExtension></extensions></trkpt>
<trkpt lat="56.84934" lon="-4.05144"><ele>569.8</ele><time>2026-05-10T08:59:44Z</time><extensions><ns3:TrackPointExtension><ns3:hr>155</ns3:hr><ns3:cad>88</ns3:cad></ns3:TrackPointExtension></extensions></trkpt>
<trkpt lat="56.84943" lon="-4.05159"><ele>572.3</ele><time>2026-05-10T08:59:54Z</time><extensions><ns3:TrackPointExtension><ns3:hr>153</ns3:hr><ns3:cad>85</ns3:cad></ns3:TrackPointExtension></extensions></trkpt>
<trkpt lat="56.84952" lon="-4.05174"><ele>574.8</ele><time>2026-05-10T09:00:04Z</time><extensions><ns3:TrackPointExtension><ns3:hr>154</ns3:hr><ns3:cad>87</ns3:cad></ns3:TrackPointExtension></extensions></trkpt>
<trkpt lat="56.84961" lon="-4.05190"><ele>577.3</ele><time>2026-05-10T09:00:14Z</time><extensions><ns3:TrackPointExtension><ns3:hr>157</ns3:hr><ns3:cad>86</ns3:cad></ns3:TrackPointExtension></extensions></trkpt>
<trkpt lat="56.84970" lon="-4.05206"><ele>579.7</ele><time>2026-05-10T09:00:24Z</time><extensions><ns3:TrackPointExtension><ns3:hr>157</ns3:hr><ns3:cad>89</ns3:cad></ns3:TrackPointExtension></extensions></trkpt>
<trkpt lat="56.84979" lon="-4.05221"><ele>582.2</ele><time>2026-05-10T09:00:34Z</time><extensions><ns3:TrackPointExtension><ns3:hr>157</ns3:hr><ns3:cad>88</ns3:cad></ns3:TrackPointExtension></extensions></trkpt>
<trkpt lat="56.84989" lon="-4.05235"><ele>584.7</ele><time>2026-05-10T09:00:44Z</time><extensions><ns3:TrackPointExtension><ns3:hr>156</ns3:hr><ns3:cad>85</ns3:cad></ns3:TrackPointExtension></extensions></trkpt>
<trkpt lat="56.84998" lon="-4.05250"><ele>587.2</ele><time>2026-05-10T09:00:54Z</time><extensions><ns3:TrackPointExtension><ns3:hr>155</ns3:hr><ns3:cad>88</ns3:cad></ns3:TrackPointExtension></extensions></trkpt>
<trkpt lat="56.85008" lon="-4.05264"><ele>589.7</ele><time>2026-05-10T09:01:04Z</time><extensions><ns3:TrackPointExtension><ns3:hr>155</ns3:hr><ns3:cad>87</ns3:cad></ns3:TrackPointExtension></extensions></trkpt>
<trkpt lat="56.85017" lon="-4.05279"><ele>592.1</ele><time>2026-05-10T09:01:14Z</time><extensions><ns3:TrackPointExtension><ns3:hr>155</ns3:hr><ns3:cad>87</ns3:cad></ns3:TrackPointExtension></extensions></trkpt>
<trkpt lat="56.85025" lon="-4.05296"><ele>594.6</ele><time>2026-05-10T09:01:24Z</time><extensions><ns3:TrackPointExtension><ns3:hr>153</ns3:hr><ns3:cad>86</ns3:cad></ns3:TrackPointExtension></extensions></trkpt>
<trkpt lat="56.85033" lon="-4.05314"><ele>597.1</ele><time>2026-05-10T09:01:34Z</time><extensions><ns3:TrackPointExtension><ns3:hr>155</ns3:hr><ns3:cad>88</ns3:cad></ns3:TrackPointExtension></extensions></trkpt>
<trkpt lat="56.85040" lon="-4.05332"><ele>599.6</ele><time>2026-05-10T09:01:44Z</time><extensions><ns3:TrackPointExtension><ns3:hr>156</ns3:hr><ns3:cad>86</ns3:cad></ns3:TrackPointExtension></extensions></trkpt>
<trkpt lat="56.85047" lon="-4.05351"><ele>602.1</ele><time>2026-05-10T09:01:54Z</time><extensions><ns3:TrackPointExtension><ns3:hr>153</ns3:hr><ns3:cad>86</ns3:cad></ns3:TrackPointExtension></extensions></trkpt>
<trkpt lat="56.85055" lon="-4.05368"><ele>604.6</ele><time>2026-05-10T09:02:04Z</time><extensions><ns3:TrackPointExtension><ns3:hr>157</ns3:hr><ns3:cad>86</ns3:cad></ns3:TrackPointExtension></extensions></trkpt>
<trkpt lat="56.85063" lon="-4.05385"><ele>607.0</ele><time>2026-05-10T09:02:14Z</time><extensions><ns3:TrackPointExtension><ns3:hr>153</ns3:hr><ns3:cad>87</ns3:cad></ns3:TrackPointExtension></extensions></trkpt>
<trkpt lat="56.85071" lon="-4.05403"><ele>609.5</ele><time>2026-05-10T09:02:24Z</time><extensions><ns3:TrackPointExtension><ns3:hr>157</ns3:hr><ns3:cad>86</ns3:cad></ns3:TrackPointExtension></extensions></trkpt>
<trkpt lat="56.85079" lon="-4.05420"><ele>612.0</ele><time>2026-05-10T09:02:34Z</time><extensions><ns3:TrackPointExtension><ns3:hr>156</ns3:hr><ns3:cad>86</ns3:cad></ns3:TrackPointExtension></extensions></trkpt>
<trkpt lat="56.85087" lon="-4.05437"><ele>614.5</ele><time>2026-05-10T09:02:44Z</time><extensions><ns3:TrackPointExtension><ns3:hr>155</ns3:hr><ns3:cad>84</ns3:cad></ns3:TrackPointExtension></extensions></trkpt>
<trkpt lat="56.85095" lon="-4.05455"><ele>617.0</ele><time>2026-05-10T09:02:54Z</time><extensions><ns3:TrackPointExtension><ns3:hr>157</ns3:hr><ns3:cad>85</ns3:cad></ns3:TrackPointExtension></extensions></trkpt>
<trkpt lat="56.85103" lon="-4.05472"><ele>619.4</ele><time>2026-05-10T09:03:04Z</time><extensions><ns3:TrackPointExtension><ns3:hr>155</ns3:hr><ns3:cad>85</ns3:cad></ns3:TrackPointExtension></extensions></trkpt>
<trkpt lat="56.85111" lon="-4.05489"><ele>621.9</ele><time>2026-05-10T09:03:14Z</time><extensions><ns3:TrackPointExtension><ns3:hr>154</ns3:hr><ns3:cad>87</ns3:cad></ns3:TrackPointExtension></extensions></trkpt>
<trkpt lat="56.85120" lon="-4.05505"><ele>624.4</ele><time>2026-05-10T09:03:24Z</time><extensions><ns3:TrackPointExtension><ns3:hr>153</ns3:hr><ns3:cad>85</ns3:cad></ns3:TrackPointExtension></extensions></trkpt>
<trkpt lat="56.85129" lon="-4.05520"><ele>626.9</ele><time>2026-05-10T09:03:34Z</time><extensions><ns3:TrackPointExtension><ns3:hr>153</ns3:hr><ns3:cad>85</ns3:cad></ns3:TrackPointExtension></extensions></trkpt>
<trkpt lat="56.85138" lon="-4.05536"><ele>629.4</ele><time>2026-05-10T09:03:44Z</time><extensions><ns3:TrackPointExtension><ns3:hr>156</ns3:hr><ns3:cad>85</ns3:cad></ns3:TrackPointExtension></extensions></trkpt>
<trkpt lat="56.85146" lon="-4.05553"><ele>631.8</ele><time>2026-05-10T09:03:54Z</time><extensions><ns3:TrackPointExtension><ns3:hr>157</ns3:hr><ns3:cad>85</ns3:cad></ns3:TrackPointExtension></extensions></trkpt>
<trkpt lat="56.85153" lon="-4.05572"><ele>634.3</ele><time>2026-05-10T09:04:04Z</time><extensions><ns3:TrackPointExtension><ns3:hr>155</ns3:hr><ns3:cad>89</ns3:cad></ns3:TrackPointExtension></extensions></trkpt>
<trkpt lat="56.85161" lon="-4.05590"><ele>636.8</ele><time>2026-05-10T09:04:14Z</time><extensions><ns3:TrackPointExtension><ns3:hr>156</ns3:hr><ns3:cad>85</ns3:cad></ns3:TrackPointExtension></extensions></trkpt>
<trkpt lat="56.85168" lon="-4.05607"><ele>639.3</ele><time>2026-05-10T09:04:24Z</time><extensions><ns3:TrackPointExtension><ns3:hr>157</ns3:hr><ns3:cad>84</ns3:cad></ns3:TrackPointExtension></extensions></trkpt>
<trkpt lat="56.85177" lon="-4.05624"><ele>641.8</ele><time>2026-05-10T09:04:34Z</time><extensions><ns3:TrackPointExtension><ns3:hr>156</ns3:hr><ns3:cad>84</ns3:cad></ns3:TrackPointExtension></extensions></trkpt>
<trkpt lat="56.85187" lon="-4.05638"><ele>644.3</ele><time>2026-05-10T09:04:44Z</time><extensions><ns3:TrackPointExtension><ns3:hr>154</ns3:hr><ns3:cad>88</ns3:cad></ns3:TrackPointExtension></extensions></trkpt>
<trkpt lat="56.85196" lon="-4.05654"><ele>646.7</ele><time>2026-05-10T09:04:54Z</time><extensions><ns3:TrackPointExtension><ns3:hr>157</ns3:hr><ns3:cad>87</ns3:cad></ns3:TrackPointExtension></extensions></trkpt>
<trkpt lat="56.85204" lon="-4.05671"><ele>649.2</ele><time>2026-05-10T09:05:04Z</time><extensions><ns3:TrackPointExtension><ns3:hr>158</ns3:hr><ns3:cad>85</ns3:cad></ns3:TrackPointExtension></extensions></trkpt>
<trkpt lat="56.85212" lon="-4.05687"><ele>651.7</ele><time>2026-05-10T09:05:14Z</time><extensions><ns3:TrackPointExtension><ns3:hr>157</ns3:hr><ns3:cad>84</ns3:cad></ns3:TrackPointExtension></extensions></trkpt>
<trkpt lat="56.85220" lon="-4.05704"><ele>654.2</ele><time>2026-05-10T09:05:24Z</time><extensions><ns3:TrackPointExtension><ns3:hr>156</ns3:hr><ns3:cad>88</ns3:cad></ns3:TrackPointExtension></extensions></trkpt>
<trkpt lat="56.85230" lon="-4.05719"><ele>656.7</ele><time>2026-05-10T09:05:34Z</time><extensions><ns3:TrackPointExtension><ns3:hr>153</ns3:hr><ns3:cad>86</ns3:cad></ns3:TrackPointExtension></extensions></trkpt>
<trkpt lat="56.85240" lon="-4.05733"><ele>659.1</ele><time>2026-05-10T09:05:44Z</time><extensions><ns3:TrackPointExtension><ns3:hr>153</ns3:hr><ns3:cad>85</ns3:cad></ns3:TrackPointExtension></extensions></trkpt>
<trkpt lat="56.85250" lon="-4.05746"><ele>661.6</ele><time>2026-05-10T09:05:54Z</time><extensions><ns3:TrackPointExtension><ns3:hr>154</ns3:hr><ns3:cad>85</ns3:cad></ns3:TrackPointExtension></extensions></trkpt>
<trkpt lat="56.85260" lon="-4.05758"><ele>664.1</ele><time>2026-05-10T09:06:04Z</time><extensions><ns3:TrackPointExtension><ns3:hr>154</ns3:hr><ns3:cad>88</ns3:cad></ns3:TrackPointExtension></extensions></trkpt>
<trkpt lat="56.85269" lon="-4.05773"><ele>666.6</ele><time>2026-05-10T09:06:14Z</time><extensions><ns3:TrackPointExtension><ns3:hr>154</ns3:hr><ns3:cad>84</ns3:cad></ns3:TrackPointExtension></extensions></trkpt>
<trkpt lat="56.85279" lon="-4.05788"><ele>669.1</ele><time>2026-05-10T09:06:24Z</time><extensions><ns3:TrackPointExtension><ns3:hr>157</ns3:hr><ns3:cad>85</ns3:cad></ns3:TrackPointExtension></extensions></trkpt>
<trkpt lat="56.85289" lon="-4.05802"><ele>671.5</ele><time>2026-05-10T09:06:34Z</time><extensions><ns3:TrackPointExtension><ns3:hr>156</ns3:hr><ns3:cad>88</ns3:cad></ns3:TrackPointExtension></extensions></trkpt>
<trkpt lat="56.85298" lon="-4.05816"><ele>674.0</ele><time>2026-05-10T09:06:44Z</time><extensions><ns3:TrackPointExtension><ns3:hr>156</ns3:hr><ns3:cad>86</ns3:cad></ns3:TrackPointExtension></extensions></trkpt>
<trkpt lat="56.85307" lon="-4.05832"><ele>676.5</ele><time>2026-05-10T09:06:54Z</time><extensions><ns3:TrackPointExtension><ns3:hr>157</ns3:hr><ns3:cad>86</ns3:cad></ns3:TrackPointExtension></extensions></trkpt>
<trkpt lat="56.85315" lon="-4.05848"><ele>679.0</ele><time>2026-05-10T09:07:04Z</time><extensions><ns3:TrackPointExtension><ns3:hr>155</ns3:hr><ns3:cad>85</ns3:cad></ns3:TrackPointExtension></extensions></trkpt>
<trkpt lat="56.85323" lon="-4.05866"><ele>681.5</ele><time>2026-05-10T09:07:14Z</time><extensions><ns3:TrackPointExtension><ns3:hr>154</ns3:hr><ns3:cad>87</ns3:cad></ns3:TrackPointExtension></extensions></trkpt>
<trkpt lat="56.85332" lon="-4.05882"><ele>684.0</ele><time>2026-05-10T09:07:24Z</time><extensions><ns3:TrackPointExtension><ns3:hr>154</ns3:hr><ns3:cad>88</ns3:cad></ns3:TrackPointExtension></extensions></trkpt>
<trkpt lat="56.85341" lon="-4.05897"><ele>686.4</ele><time>2026-05-10T09:07:34Z</time><extensions><ns3:TrackPointExtension><ns3:hr>158</ns3:hr><ns3:cad>87</ns3:cad></ns3:TrackPointExtension></extensions></trkpt>
<trkpt lat="56.85350" lon="-4.05913"><ele>688.9</ele><time>2026-05-10T09:07:44Z</time><extensions><ns3:TrackPointExtension><ns3:hr>154</ns3:hr><ns3:cad>85</ns3:cad></ns3:TrackPointExtension></extensions></trkpt>
<trkpt lat="56.85358" lon="-4.05931"><ele>691.4</ele><time>2026-05-10T09:07:54Z</time><extensions><ns3:TrackPointExtension><ns3:hr>156</ns3:hr><ns3:cad>85</ns3:cad></ns3:TrackPointExtension></extensions></trkpt>
<trkpt lat="56.85366" lon="-4.05948"><ele>693.9</ele><time>2026-05-10T09:08:04Z</time><extensions><ns3:TrackPointExtension><ns3:hr>154</ns3:hr><ns3:cad>88</ns3:cad></ns3:TrackPointExtension></extensions></trkpt>
<trkpt lat="56.85374" lon="-4.05965"><ele>696.4</ele><time>2026-05-10T09:08:14Z</time><extensions><ns3:TrackPointExtension><ns3:hr>155</ns3:hr><ns3:cad>88</ns3:cad></ns3:TrackPointExtension></extensions></trkpt>
<trkpt lat="56.85381" lon="-4.05984"><ele>698.8</ele><time>2026-05-10T09:08:24Z</time><extensions><ns3:TrackPointExtension><ns3:hr>157</ns3:hr><ns3:cad>87</ns3:cad></ns3:TrackPointExtension></extensions></trkpt>
<trkpt lat="56.85387" lon="-4.06003"><ele>701.3</ele><time>2026-05-10T09:08:34Z</time><extensions><ns3:TrackPointExtension><ns3:hr>158</ns3:hr><ns3:cad>85</ns3:cad></ns3:TrackPointExtension></extensions></trkpt>
<trkpt lat="56.85394" lon="-4.06023"><ele>703.8</ele><time>2026-05-10T09:08:44Z</time><extensions><ns3:TrackPointExtension><ns3:hr>157</ns3:hr><ns3:cad>89</ns3:cad></ns3:TrackPointExtension></extensions></trkpt>
<trkpt lat="56.85400" lon="-4.06043"><ele>706.3</ele><time>2026-05-10T09:08:54Z</time><extensions><ns3:TrackPointExtension><ns3:hr>155</ns3:hr><ns3:cad>85</ns3:cad></ns3:TrackPointExtension></extensions></trkpt>
<trkpt lat="56.85405" lon="-4.06063"><ele>708.8</ele><time>2026-05-10T09:09:04Z</time><extensions><ns3:TrackPointExtension><ns3:hr>157</ns3:hr><ns3:cad>85</ns3:cad></ns3:TrackPointExtension></extensions></trkpt>
<trkpt lat="56.85412" lon="-4.06081"><ele>711.2</ele><time>2026-05-10T09:09:14Z</time><extensions><ns3:TrackPointExtension><ns3:hr>154</ns3:hr><ns3:cad>86</ns3:cad></ns3:TrackPointExtension></extensions></trkpt>
<trkpt lat="56.85420" lon="-4.06099"><ele>713.7</ele><time>2026-05-10T09:09:24Z</time><extensions><ns3:TrackPointExtension><ns3:hr>154</ns3:hr><ns3:cad>87</ns3:cad></ns3:TrackPointExtension></extensions></trkpt>
<trkpt lat="56.85427" lon="-4.06118"><ele>716.2</ele><time>2026-05-10T09:09:34Z</time><extensions><ns3:TrackPointExtension><ns3:hr>155</ns3:hr><ns3:cad>87</ns3:cad></ns3:TrackPointExtension></extensions></trkpt>
<trkpt lat="56.85435" lon="-4.06136"><ele>718.7</ele><time>2026-05-10T09:09:44Z</time><extensions><ns3:TrackPointExtension><ns3:hr>155</ns3:hr><ns3:cad>87</ns3:cad></ns3:TrackPointExtension></extensions></trkpt>
<trkpt lat="56.85443" lon="-4.06153"><ele>721.2</ele><time>2026-05-10T09:09:54Z</time><extensions><ns3:TrackPointExtension><ns3:hr>154</ns3:hr><ns3:cad>86</ns3:cad></ns3:TrackPointExtension></extensions></trkpt>
<trkpt lat="56.85450" lon="-4.06171"><ele>723.7</ele><time>2026-05-10T09:10:04Z</time><extensions><ns3:TrackPointExtension><ns3:hr>154</ns3:hr><ns3:cad>88</ns3:cad></ns3:TrackPointExtension></extensions></trkpt>
<trkpt lat="56.85456" lon="-4.06191"><ele>726.1</ele><time>2026-05-10T09:10:14Z</time><extensions><ns3:TrackPointExtension><ns3:hr>156</ns3:hr><ns3:cad>88</ns3:cad></ns3:TrackPointExtension></extensions></trkpt>
<trkpt lat="56.85461" lon="-4.06211"><ele>728.6</ele><time>2026-05-10T09:10:24Z</time><extensions><ns3:TrackPointExtension><ns3:hr>157</ns3:hr><ns3:cad>87</ns3:cad></ns3:TrackPointExtension></extensions></trkpt>
<trkpt lat="56.85467" lon="-4.06231"><ele>731.1</ele><time>2026-05-10T09:10:34Z</time><extensions><ns3:TrackPointExtension><ns3:hr>157</ns3:hr><ns3:cad>85</ns3:cad></ns3:TrackPointExtension></extensions></trkpt>
<trkpt lat="56.85473" lon="-4.06251"><ele>733.6</ele><time>2026-05-10T09:10:44Z</time><extensions><ns3:TrackPointExtension><ns3:hr>155</ns3:hr><ns3:cad>87</ns3:cad></ns3:TrackPointExtension></extensions></trkpt>
<trkpt lat="56.85478" lon="-4.06272"><ele>736.1</ele><time>2026-05-10T09:10:54Z</time><extensions><ns3:TrackPointExtension><ns3:hr>155</ns3:hr><ns3:cad>86</ns3:cad></ns3:TrackPointExtension></extensions></trkpt>
<trkpt lat="56.85485" lon="-4.06291"><ele>738.5</ele><time>2026-05-10T09:11:04Z</time><extensions><ns3:TrackPointExtension><ns3:hr>157</ns3:hr><ns3:cad>84</ns3:cad></ns3:TrackPointExtension></extensions></trkpt>
<trkpt lat="56.85491" lon="-4.06311"><ele>741.0</ele><time>2026-05-10T09:11:14Z</time><extensions><ns3:TrackPointExtension><ns3:hr>154</ns3:hr><ns3:cad>85</ns3:cad></ns3:TrackPointExtension></extensions></trkpt>
<trkpt lat="56.85496" lon="-4.06331"><ele>743.5</ele><time>2026-05-10T09:11:24Z</time><extensions><ns3:TrackPointExtension><ns3:hr>153</ns3:hr><ns3:cad>87</ns3:cad></ns3:TrackPointExtension></extensions></trkpt>
<trkpt lat="56.85502" lon="-4.06351"><ele>746.0</ele><time>2026-05-10T09:11:34Z</time><extensions><ns3:TrackPointExtension><ns3:hr>155</ns3:hr><ns3:cad>85</ns3:cad></ns3:TrackPointExtension></extensions></trkpt>
<trkpt lat="56.85508" lon="-4.06371"><ele>748.5</ele><time>2026-05-10T09:11:44Z</time><extensions><ns3:TrackPointExtension><ns3:hr>155</ns3:hr><ns3:cad>86</ns3:cad></ns3:TrackPointExtension></extensions></trkpt>
<trkpt lat="56.85513" lon="-4.06391"><ele>750.9</ele><time>2026-05-10T09:11:54Z</time><extensions><ns3:TrackPointExtension><ns3:hr>157</ns3:hr><ns3:cad>88</ns3:cad></ns3:TrackPointExtension></extensions></trkpt>
<trkpt lat="56.85518" lon="-4.06413"><ele>753.4</ele><time>2026-05-10T09:12:04Z</time><extensions><ns3:TrackPointExtension><ns3:hr>155</ns3:hr><ns3:cad>88</ns3:cad></ns3:TrackPointExtension></extensions></trkpt>
<trkpt lat="56.85523" lon="-4.06433"><ele>755.9</ele><time>2026-05-10T09:12:14Z</time><extensions><ns3:TrackPointExtension><ns3:hr>158</ns3:hr><ns3:cad>89</ns3:cad></ns3:TrackPointExtension></extensions></trkpt>
<trkpt lat="56.85530" lon="-4.06452"><ele>758.4</ele><time>2026-05-10T09:12:24Z</time><extensions><ns3:TrackPointExtension><ns3:hr>157</ns3:hr><ns3:cad>85</ns3:cad></ns3:TrackPointExtension></extensions></trkpt>
<trkpt lat="56.85537" lon="-4.06470"><ele>760.9</ele><time>2026-05-10T09:12:34Z</time><extensions><ns3:TrackPointExtension><ns3:hr>155</ns3:hr><ns3:cad>84</ns3:cad></ns3:TrackPointExtension></extensions></trkpt>
<trkpt lat="56.85538" lon="-4.06471"><ele>761.0</ele><time>2026-05-10T09:12:35Z</time><extensions><ns3:TrackPointExtension><ns3:hr>155</ns3:hr><ns3:cad>87</ns3:cad></ns3:TrackPointExtension></extensions></trkpt>
<trkpt lat="56.85547" lon="-4.06496"><ele>757.6</ele><time>2026-05-10T09:12:45Z</time><extensions><ns3:TrackPointExtension><ns3:hr>158</ns3:hr><ns3:cad>88</ns3:cad></ns3:TrackPointExtension></extensions></trkpt>
<trkpt lat="56.85555" lon="-4.06523"><ele>754.3</ele><time>2026-05-10T09:12:55Z</time><extensions><ns3:TrackPointExtension><ns3:hr>157</ns3:hr><ns3:cad>89</ns3:cad></ns3:TrackPointExtension></extensions></trkpt>
<trkpt lat="56.85563" lon="-4.06550"><ele>750.9</ele><time>2026-05-10T09:13:05Z</time><extensions><ns3:TrackPointExtension><ns3:hr>153</ns3:hr><ns3:cad>87</ns3:cad></ns3:TrackPointExtension></extensions></trkpt>
<trkpt lat="56.85572" lon="-4.06576"><ele>747.6</ele><time>2026-05-10T09:13:15Z</time><extensions><ns3:TrackPointExtension><ns3:hr>156</ns3:hr><ns3:cad>87</ns3:cad></ns3:TrackPointExtension></extensions></trkpt>
<trkpt lat="56.85581" lon="-4.06602"><ele>744.2</ele><time>2026-05-10T09:13:25Z</time><extensions><ns3:TrackPointExtension><ns3:hr>156</ns3:hr><ns3:cad>87</ns3:cad></ns3:TrackPointExtension></extensions></trkpt>
<trkpt lat="56.85592" lon="-4.06626"><ele>740.8</ele><time>2026-05-10T09:13:35Z</time><extensions><ns3:TrackPointExtension><ns3:hr>154</ns3:hr><ns3:cad>85</ns3:cad></ns3:TrackPointExtension></extensions></trkpt>
<trkpt lat="56.85603" lon="-4.06649"><ele>737.5</ele><time>2026-05-10T09:13:45Z</time><extensions><ns3:TrackPointExtension><ns3:hr>156</ns3:hr><ns3:cad>85</ns3:cad></ns3:TrackPointExtension></extensions></trkpt>
<trkpt lat="56.85614" lon="-4.06671"><ele>734.1</ele><time>2026-05-10T09:13:55Z</time><extensions><ns3:TrackPointExtension><ns3:hr>157</ns3:hr><ns3:cad>88</ns3:cad></ns3:TrackPointExtension></extensions></trkpt>
<trkpt lat="56.85628" lon="-4.06690"><ele>730.8</ele><time>2026-05-10T09:14:05Z</time><extensions><ns3:TrackPointExtension><ns3:hr>158</ns3:hr><ns3:cad>86</ns3:cad></ns3:TrackPointExtension></extensions></trkpt>
<trkpt lat="56.85641" lon="-4.06708"><ele>727.4</ele><time>2026-05-10T09:14:15Z</time><extensions><ns3:TrackPointExtension><ns3:hr>155</ns3:hr><ns3:cad>85</ns3:cad></ns3:TrackPointExtension></extensions></trkpt>
<trkpt lat="56.85655" lon="-4.06726"><ele>724.0</ele><time>2026-05-10T09:14:25Z</time><extensions><ns3:TrackPointExtension><ns3:hr>155</ns3:hr><ns3:cad>88</ns3:cad></ns3:TrackPointExtension></extensions></trkpt>
<trkpt lat="56.85668" lon="-4.06746"><ele>720.7</ele><time>2026-05-10T09:14:35Z</time><extensions><ns3:TrackPointExtension><ns3:hr>155</ns3:hr><ns3:cad>86</ns3:cad></ns3:TrackPointExtension></extensions></trkpt>
<trkpt lat="56.85680" lon="-4.06766"><ele>717.3</ele><time>2026-05-10T09:14:45Z</time><extensions><ns3:TrackPointExtension><ns3:hr>158</ns3:hr><ns3:cad>86</ns3:cad></ns3:TrackPointExtension></extensions></trkpt>
<trkpt lat="56.85694" lon="-4.06783"><ele>714.0</ele><time>2026-05-10T09:14:55Z</time><extensions><ns3:TrackPointExtension><ns3:hr>156</ns3:hr><ns3:cad>85</ns3:cad></ns3:TrackPointExtension></extensions></trkpt>
<trkpt lat="56.85708" lon="-4.06800"><ele>710.6</ele><time>2026-05-10T09:15:05Z</time><extensions><ns3:TrackPointExtension><ns3:hr>154</ns3:hr><ns3:cad>89</ns3:cad></ns3:TrackPointExtension></extensions></trkpt>
<trkpt lat="56.85722" lon="-4.06816"><ele>707.2</ele><time>2026-05-10T09:15:15Z</time><extensions><ns3:TrackPointExtension><ns3:hr>154</ns3:hr><ns3:cad>84</ns3:cad></ns3:TrackPointExtension></extensions></trkpt>
<trkpt lat="56.85737" lon="-4.06832"><ele>703.9</ele><time>2026-05-10T09:15:25Z</time><extensions><ns3:TrackPointExtension><ns3:hr>155</ns3:hr><ns3:cad>86</ns3:cad></ns3:TrackPointExtension></extensions></trkpt>
<trkpt lat="56.85752" lon="-4.06846"><ele>700.5</ele><time>2026-05-10T09:15:35Z</time><extensions><ns3:TrackPointExtension><ns3:hr>157</ns3:hr><ns3:cad>86</ns3:cad></ns3:TrackPointExtension></extensions></trkpt>
<trkpt lat="56.85766" lon="-4.06861"><ele>697.1</ele><time>2026-05-10T09:15:45Z</time><extensions><ns3:TrackPointExtension><ns3:hr>157</ns3:hr><ns3:cad>86</ns3:cad></ns3:TrackPointExtension></extensions></trkpt>
<trkpt lat="56.85781" lon="-4.06877"><ele>693.8</ele><time>2026-05-10T09:15:55Z</time><extensions><ns3:TrackPointExtension><ns3:hr>156</ns3:hr><ns3:cad>88</ns3:cad></ns3:TrackPointExtension></extensions></trkpt>
<trkpt lat="56.85796" lon="-4.06890"><ele>690.4</ele><time>2026-05-10T09:16:05Z</time><extensions><ns3:TrackPointExtension><ns3:hr>154</ns3:hr><ns3:cad>84</ns3:cad></ns3:TrackPointExtension></extensions></trkpt>
<trkpt lat="56.85811" lon="-4.06904"><ele>687.1</ele><time>2026-05-10T09:16:15Z</time><extensions><ns3:TrackPointExtension><ns3:hr>157</ns3:hr><ns3:cad>85</ns3:cad></ns3:TrackPointExtension></extensions></trkpt>
<trkpt lat="56.85825" lon="-4.06919"><ele>683.7</ele><time>2026-05-10T09:16:25Z</time><extensions><ns3:TrackPointExtension><ns3:hr>158</ns3:hr><ns3:cad>86</ns3:cad></ns3:TrackPointExtension></extensions></trkpt>
<trkpt lat="56.85840" lon="-4.06935"><ele>680.3</ele><time>2026-05-10T09:16:35Z</time><extensions><ns3:TrackPointExtension><ns3:hr>158</ns3:hr><ns3:cad>88</ns3:cad></ns3:TrackPointExtension></extensions></trkpt>
<trkpt lat="56.85855" lon="-4.06948"><ele>677.0</ele><time>2026-05-10T09:16:45Z</time><extensions><ns3:TrackPointExtension><ns3:hr>153</ns3:hr><ns3:cad>89</ns3:cad></ns3:TrackPointExtension></extensions></trkpt>
<trkpt lat="56.85871" lon="-4.06958"><ele>673.6</ele><time>2026-05-10T09:16:55Z</time><extensions><ns3:TrackPointExtension><ns3:hr>154</ns3:hr><ns3:cad>84</ns3:cad></ns3:TrackPointExtension></extensions></trkpt>
<trkpt lat="56.85887" lon="-4.06968"><ele>670.3</ele><time>2026-05-10T09:17:05Z</time><extensions><ns3:TrackPointExtension><ns3:hr>154</ns3:hr><ns3:cad>87</ns3:cad></ns3:TrackPointExtension></extensions></trkpt>
<trkpt lat="56.85902" lon="-4.06980"><ele>666.9</ele><time>2026-05-10T09:17:15Z</time><extensions><ns3:TrackPointExtension><ns3:hr>155</ns3:hr><ns3:cad>86</ns3:cad></ns3:TrackPointExtension></extensions></trkpt>
<trkpt lat="56.85917" lon="-4.06993"><ele>663.5</ele><time>2026-05-10T09:17:25Z</time><extensions><ns3:TrackPointExtension><ns3:hr>155</ns3:hr><ns3:cad>87</ns3:cad></ns3:TrackPointExtension></extensions></trkpt>
<trkpt lat="56.85932" lon="-4.07006"><ele>660.2</ele><time>2026-05-10T09:17:35Z</time><extensions><ns3:TrackPointExtension><ns3:hr>153</ns3:hr><ns3:cad>86</ns3:cad></ns3:TrackPointExtension></extensions></trkpt>
<trkpt lat="56.85948" lon="-4.07017"><ele>656.8</ele><time>2026-05-10T09:17:45Z</time><extensions><ns3:TrackPointExtension><ns3:hr>154</ns3:hr><ns3:cad>85</ns3:cad></ns3:TrackPointExtension></extensions></trkpt>
<trkpt lat="56.85963" lon="-4.07032"><ele>653.5</ele><time>2026-05-10T09:17:55Z</time><extensions><ns3:TrackPointExtension><ns3:hr>157</ns3:hr><ns3:cad>88</ns3:cad></ns3:TrackPointExtension></extensions></trkpt>
<trkpt lat="56.85977" lon="-4.07048"><ele>650.1</ele><time>2026-05-10T09:18:05Z</time><extensions><ns3:TrackPointExtension><ns3:hr>155</ns3:hr><ns3:cad>89</ns3:cad></ns3:TrackPointExtension></extensions></trkpt>
<trkpt lat="56.85992" lon="-4.07063"><ele>646.7</ele><time>2026-05-10T09:18:15Z</time><extensions><ns3:TrackPointExtension><ns3:hr>154</ns3:hr><ns3:cad>86</ns3:cad></ns3:TrackPointExtension></extensions></trkpt>
<trkpt lat="56.86007" lon="-4.07076"><ele>643.4</ele><time>2026-05-10T09:18:25Z</time><extensions><ns3:TrackPointExtension><ns3:hr>156</ns3:hr><ns3:cad>84</ns3:cad></ns3:TrackPointExtension></extensions></trkpt>
<trkpt lat="56.86021" lon="-4.07092"><ele>640.0</ele><time>2026-05-10T09:18:35Z</time><extensions><ns3:TrackPointExtension><ns3:hr>158</ns3:hr><ns3:cad>87</ns3:cad></ns3:TrackPointExtension></extensions></trkpt>
<trkpt lat="56.86035" lon="-4.07110"><ele>636.7</ele><time>2026-05-10T09:18:45Z</time><extensions><ns3:TrackPointExtension><ns3:hr>154</ns3:hr><ns3:cad>86</ns3:cad></ns3:TrackPointExtension></extensions></trkpt>
<trkpt lat="56.86049" lon="-4.07125"><ele>633.3</ele><time>2026-05-10T09:18:55Z</time><extensions><ns3:TrackPointExtension><ns3:hr>158</ns3:hr><ns3:cad>84</ns3:cad></ns3:TrackPointExtension></extensions></trkpt>
<trkpt lat="56.86064" lon="-4.07140"><ele>629.9</ele><time>2026-05-10T09:19:05Z</time><extensions><ns3:TrackPointExtension><ns3:hr>156</ns3:hr><ns3:cad>87</ns3:cad></ns3:TrackPointExtension></extensions></trkpt>
<trkpt lat="56.86079" lon="-4.07154"><ele>626.6</ele><time>2026-05-10T09:19:15Z</time><extensions><ns3:TrackPointExtension><ns3:hr>154</ns3:hr><ns3:cad>89</ns3:cad></ns3:TrackPointExtension></extensions></trkpt>
<trkpt lat="56.86094" lon="-4.07166"><ele>623.2</ele><time>2026-05-10T09:19:25Z</time><extensions><ns3:TrackPointExtension><ns3:hr>154</ns3:hr><ns3:cad>85</ns3:cad></ns3:TrackPointExtension></extensions></trkpt>
<trkpt lat="56.86109" lon="-4.07181"><ele>619.9</ele><time>2026-05-10T09:19:35Z</time><extensions><ns3:TrackPointExtension><ns3:hr>155</ns3:hr><ns3:cad>88</ns3:cad></ns3:TrackPointExtension></extensions></trkpt>
<trkpt lat="56.86124" lon="-4.07196"><ele>616.5</ele><time>2026-05-10T09:19:45Z</time><extensions><ns3:TrackPointExtension><ns3:hr>154</ns3:hr><ns3:cad>85</ns3:cad></ns3:TrackPointExtension></extensions></trkpt>
<trkpt lat="56.86139" lon="-4.07210"><ele>613.1</ele><time>2026-05-10T09:19:55Z</time><extensions><ns3:TrackPointExtension><ns3:hr>154</ns3:hr><ns3:cad>88</ns3:cad></ns3:TrackPointExtension></extensions></trkpt>
<trkpt lat="56.86153" lon="-4.07225"><ele>609.8</ele><time>2026-05-10T09:20:05Z</time><extensions><ns3:TrackPointExtension><ns3:hr>155</ns3:hr><ns3:cad>84</ns3:cad></ns3:TrackPointExtension></extensions></trkpt>
<trkpt lat="56.86167" lon="-4.07242"><ele>606.4</ele><time>2026-05-10T09:20:15Z</time><extensions><ns3:TrackPointExtension><ns3:hr>156</ns3:hr><ns3:cad>88</ns3:cad></ns3:TrackPointExtension></extensions></trkpt>
<trkpt lat="56.86182" lon="-4.07255"><ele>603.0</ele><time>2026-05-10T09:20:25Z</time><extensions><ns3:TrackPointExtension><ns3:hr>155</ns3:hr><ns3:cad>87</ns3:cad></ns3:TrackPointExtension></extensions></trkpt>
<trkpt lat="56.86196" lon="-4.07272"><ele>599.7</ele><time>2026-05-10T09:20:35Z</time><extensions><ns3:TrackPointExtension><ns3:hr>154</ns3:hr><ns3:cad>88</ns3:cad></ns3:TrackPointExtension></extensions></trkpt>
<trkpt lat="56.86211" lon="-4.07288"><ele>596.3</ele><time>2026-05-10T09:20:45Z</time><extensions><ns3:TrackPointExtension><ns3:hr>158</ns3:hr><ns3:cad>88</ns3:cad></ns3:TrackPointExtension></extensions></trkpt>
<trkpt lat="56.86225" lon="-4.07302"><ele>593.0</ele><time>2026-05-10T09:20:55Z</time><extensions><ns3:TrackPointExtension><ns3:hr>154</ns3:hr><ns3:cad>86</ns3:cad></ns3:TrackPointExtension></extensions></trkpt>
<trkpt lat="56.86241" lon="-4.07315"><ele>589.6</ele><time>2026-05-10T09:21:05Z</time><extensions><ns3:TrackPointExtension><ns3:hr>157</ns3:hr><ns3:cad>85</ns3:cad></ns3:TrackPointExtension></extensions></trkpt>
<trkpt lat="56.86255" lon="-4.07330"><ele>586.2</ele><time>2026-05-10T09:21:15Z</time><extensions><ns3:TrackPointExtension><ns3:hr>156</ns3:hr><ns3:cad>88</ns3:cad></ns3:TrackPointExtension></extensions></trkpt>
<trkpt lat="56.86271" lon="-4.07342"><ele>582.9</ele><time>2026-05-10T09:21:25Z</time><extensions><ns3:TrackPointExtension><ns3:hr>157</ns3:hr><ns3:cad>86</ns3:cad></ns3:TrackPointExtension></extensions></trkpt>
<trkpt lat="56.86286" lon="-4.07353"><ele>579.5</ele><time>2026-05-10T09:21:35Z</time><extensions><ns3:TrackPointExtension><ns3:hr>155</ns3:hr><ns3:cad>87</ns3:cad></ns3:TrackPointExtension></extensions></trkpt>
<trkpt lat="56.86301" lon="-4.07368"><ele>576.2</ele><time>2026-05-10T09:21:45Z</time><extensions><ns3:TrackPointExtension><ns3:hr>155</ns3:hr><ns3:cad>88</ns3:cad></ns3:TrackPointExtension></extensions></trkpt>
<trkpt lat="56.86316" lon="-4.07384"><ele>572.8</ele><time>2026-05-10T09:21:55Z</time><extensions><ns3:TrackPointExtension><ns3:hr>156</ns3:hr><ns3:cad>84</ns3:cad></ns3:TrackPointExtension></extensions></trkpt>
<trkpt lat="56.86330" lon="-4.07400"><ele>569.4</ele><time>2026-05-10T09:22:05Z</time><extensions><ns3:TrackPointExtension><ns3:hr>157</ns3:hr><ns3:cad>89</ns3:cad></ns3:TrackPointExtension></extensions></trkpt>
<trkpt lat="56.86344" lon="-4.07416"><ele>566.1</ele><time>2026-05-10T09:22:15Z</time><extensions><ns3:TrackPointExtension><ns3:hr>155</ns3:hr><ns3:cad>84</ns3:cad></ns3:TrackPointExtension></extensions></trkpt>
<trkpt lat="56.86359" lon="-4.07431"><ele>562.7</ele><time>2026-05-10T09:22:25Z</time><extensions><ns3:TrackPointExtension><ns3:hr>155</ns3:hr><ns3:cad>86</ns3:cad></ns3:TrackPointExtension></extensions></trkpt>
<trkpt lat="56.86373" lon="-4.07445"><ele>559.4</ele><time>2026-05-10T09:22:35Z</time><extensions><ns3:TrackPointExtension><ns3:hr>155</ns3:hr><ns3:cad>89</ns3:cad></ns3:TrackPointExtension></extensions></trkpt>
<trkpt lat="56.86388" lon="-4.07460"><ele>556.0</ele><time>2026-05-10T09:22:45Z</time><extensions><ns3:TrackPointExtension><ns3:hr>156</ns3:hr><ns3:cad>86</ns3:cad></ns3:TrackPointExtension></extensions></trkpt>
<trkpt lat="56.86404" lon="-4.07472"><ele>552.6</ele><time>2026-05-10T09:22:55Z</time><extensions><ns3:TrackPointExtension><ns3:hr>155</ns3:hr><ns3:cad>87</ns3:cad></ns3:TrackPointExtension></extensions></trkpt>
<trkpt lat="56.86418" lon="-4.07488"><ele>549.3</ele><time>2026-05-10T09:23:05Z</time><extensions><ns3:TrackPointExtension><ns3:hr>155</ns3:hr><ns3:cad>85</ns3:cad></ns3:TrackPointExtension></extensions></trkpt>
<trkpt lat="56.86433" lon="-4.07501"><ele>545.9</ele><time>2026-05-10T09:23:15Z</time><extensions><ns3:TrackPointExtension><ns3:hr>155</ns3:hr><ns3:cad>84</ns3:cad></ns3:TrackPointExtension></extensions></trkpt>
<trkpt lat="56.86437" lon="-4.07504"><ele>545.0</ele><time>2026-05-10T09:23:18Z</time><extensions><ns3:TrackPointExtension><ns3:hr>158</ns3:hr><ns3:cad>88</ns3:cad></ns3:TrackPointExtension></extensions></trkpt>
<trkpt lat="56.86461" lon="-4.07526"><ele>542.1</ele><time>2026-05-10T09:23:28Z</time><extensions><ns3:TrackPointExtension><ns3:hr>157</ns3:hr><ns3:cad>88</ns3:cad></ns3:TrackPointExtension></extensions></trkpt>
<trkpt lat="56.86483" lon="-4.07553"><ele>539.1</ele><time>2026-05-10T09:23:38Z</time><extensions><ns3:TrackPointExtension><ns3:hr>159</ns3:hr><ns3:cad>87</ns3:cad></ns3:TrackPointExtension></extensions></trkpt>
<trkpt lat="56.86504" lon="-4.07582"><ele>536.2</ele><time>2026-05-10T09:23:48Z</time><extensions><ns3:TrackPointExtension><ns3:hr>157</ns3:hr><ns3:cad>86</ns3:cad></ns3:TrackPointExtension></extensions></trkpt>
<trkpt lat="56.86526" lon="-4.07607"><ele>533.3</ele><time>2026-05-10T09:23:58Z</time><extensions><ns3:TrackPointExtension><ns3:hr>155</ns3:hr><ns3:cad>86</ns3:cad></ns3:TrackPointExtension></extensions></trkpt>
<trkpt lat="56.86548" lon="-4.07634"><ele>530.3</ele><time>2026-05-10T09:24:08Z</time><extensions><ns3:TrackPointExtension><ns3:hr>158</ns3:hr><ns3:cad>84</ns3:cad></ns3:TrackPointExtension></extensions></trkpt>
<trkpt lat="56.86569" lon="-4.07664"><ele>527.4</ele><time>2026-05-10T09:24:18Z</time><extensions><ns3:TrackPointExtension><ns3:hr>157</ns3:hr><ns3:cad>89</ns3:cad></ns3:TrackPointExtension></extensions></trkpt>
<trkpt lat="56.86588" lon="-4.07698"><ele>524.5</ele><time>2026-05-10T09:24:28Z</time><extensions><ns3:TrackPointExtension><ns3:hr>157</ns3:hr><ns3:cad>85</ns3:cad></ns3:TrackPointExtension></extensions></trkpt>
<trkpt lat="56.86609" lon="-4.07728"><ele>521.5</ele><time>2026-05-10T09:24:38Z</time><extensions><ns3:TrackPointExtension><ns3:hr>155</ns3:hr><ns3:cad>85</ns3:cad></ns3:TrackPointExtension></extensions></trkpt>
<trkpt lat="56.86630" lon="-4.07756"><ele>518.6</ele><time>2026-05-10T09:24:48Z</time><extensions><ns3:TrackPointExtension><ns3:hr>157</ns3:hr><ns3:cad>85</ns3:cad></ns3:TrackPointExtension></extensions></trkpt>
<trkpt lat="56.86651" lon="-4.07784"><ele>515.6</ele><time>2026-05-10T09:24:58Z</time><extensions><ns3:TrackPointExtension><ns3:hr>157</ns3:hr><ns3:cad>87</ns3:cad></ns3:TrackPointExtension></extensions></trkpt>
<trkpt lat="56.86673" lon="-4.07813"><ele>512.7</ele><time>2026-05-10T09:25:08Z</time><extensions><ns3:TrackPointExtension><ns3:hr>154</ns3:hr><ns3:cad>88</ns3:cad></ns3:TrackPointExtension></extensions></trkpt>
<trkpt lat="56.86693" lon="-4.07843"><ele>509.8</ele><time>2026-05-10T09:25:18Z</time><extensions><ns3:TrackPointExtension><ns3:hr>155</ns3:hr><ns3:cad>87</ns3:cad></ns3:TrackPointExtension></extensions></trkpt>
<trkpt lat="56.86713" lon="-4.07874"><ele>506.8</ele><time>2026-05-10T09:25:28Z</time><extensions><ns3:TrackPointExtension><ns3:hr>157</ns3:hr><ns3:cad>86</ns3:cad></ns3:TrackPointExtension></extensions></trkpt>
<trkpt lat="56.86735" lon="-4.07902"><ele>503.9</ele><time>2026-05-10T09:25:38Z</time><extensions><ns3:TrackPointExtension><ns3:hr>158</ns3:hr><ns3:cad>88</ns3:cad></ns3:TrackPointExtension></extensions></trkpt>
<trkpt lat="56.86754" lon="-4.07934"><ele>501.0</ele><time>2026-05-10T09:25:48Z</time><extensions><ns3:TrackPointExtension><ns3:hr>155</ns3:hr><ns3:cad>86</ns3:cad></ns3:TrackPointExtension></extensions></trkpt>
<trkpt lat="56.86776" lon="-4.07963"><ele>498.0</ele><time>2026-05-10T09:25:58Z</time><extensions><ns3:TrackPointExtension><ns3:hr>155</ns3:hr><ns3:cad>85</ns3:cad></ns3:TrackPointExtension></extensions></trkpt>
<trkpt lat="56.86798" lon="-4.07989"><ele>495.1</ele><time>2026-05-10T09:26:08Z</time><extensions><ns3:TrackPointExtension><ns3:hr>155</ns3:hr><ns3:cad>88</ns3:cad></ns3:TrackPointExtension></extensions></trkpt>
<trkpt lat="56.86819" lon="-4.08017"><ele>492.2</ele><time>2026-05-10T09:26:18Z</time><extensions><ns3:TrackPointExtension><ns3:hr>156</ns3:hr><ns3:cad>88</ns3:cad></ns3:TrackPointExtension></extensions></trkpt>
<trkpt lat="56.86840" lon="-4.08046"><ele>489.2</ele><time>2026-05-10T09:26:28Z</time><extensions><ns3:TrackPointExtension><ns3:hr>157</ns3:hr><ns3:cad>85</ns3:cad></ns3:TrackPointExtension></extensions></trkpt>
<trkpt lat="56.86860" lon="-4.08079"><ele>486.3</ele><time>2026-05-10T09:26:38Z</time><extensions><ns3:TrackPointExtension><ns3:hr>155</ns3:hr><ns3:cad>86</ns3:cad></ns3:TrackPointExtension></extensions></trkpt>
<trkpt lat="56.86881" lon="-4.08107"><ele>483.4</ele><time>2026-05-10T09:26:48Z</time><extensions><ns3:TrackPointExtension><ns3:hr>158</ns3:hr><ns3:cad>89</ns3:cad></ns3:TrackPointExtension></extensions></trkpt>
<trkpt lat="56.86900" lon="-4.08140"><ele>480.4</ele><time>2026-05-10T09:26:58Z</time><extensions><ns3:TrackPointExtension><ns3:hr>156</ns3:hr><ns3:cad>89</ns3:cad></ns3:TrackPointExtension></extensions></trkpt>
<trkpt lat="56.86922" lon="-4.08168"><ele>477.5</ele><time>2026-05-10T09:27:08Z</time><extensions><ns3:TrackPointExtension><ns3:hr>154</ns3:hr><ns3:cad>86</ns3:cad></ns3:TrackPointExtension></extensions></trkpt>
<trkpt lat="56.86942" lon="-4.08198"><ele>474.6</ele><time>2026-05-10T09:27:18Z</time><extensions><ns3:TrackPointExtension><ns3:hr>155</ns3:hr><ns3:cad>84</ns3:cad></ns3:TrackPointExtension></extensions></trkpt>
<trkpt lat="56.86965" lon="-4.08223"><ele>471.6</ele><time>2026-05-10T09:27:28Z</time><extensions><ns3:TrackPointExtension><ns3:hr>155</ns3:hr><ns3:cad>86</ns3:cad></ns3:TrackPointExtension></extensions></trkpt>
<trkpt lat="56.86989" lon="-4.08244"><ele>468.7</ele><time>2026-05-10T09:27:38Z</time><extensions><ns3:TrackPointExtension><ns3:hr>154</ns3:hr><ns3:cad>85</ns3:cad></ns3:TrackPointExtension></extensions></trkpt>
<trkpt lat="56.87013" lon="-4.08260"><ele>465.7</ele><time>2026-05-10T09:27:48Z</time><extensions><ns3:TrackPointExtension><ns3:hr>154</ns3:hr><ns3:cad>88</ns3:cad></ns3:TrackPointExtension></extensions></trkpt>
<trkpt lat="56.87039" lon="-4.08271"><ele>462.8</ele><time>2026-05-10T09:27:58Z</time><extensions><ns3:TrackPointExtension><ns3:hr>158</ns3:hr><ns3:cad>89</ns3:cad></ns3:TrackPointExtension></extensions></trkpt>
<trkpt lat="56.87065" lon="-4.08281"><ele>459.9</ele><time>2026-05-10T09:28:08Z</time><extensions><ns3:TrackPointExtension><ns3:hr>155</ns3:hr><ns3:cad>86</ns3:cad></ns3:TrackPointExtension></extensions></trkpt>
<trkpt lat="56.87091" lon="-4.08284"><ele>456.9</ele><time>2026-05-10T09:28:18Z</time><extensions><ns3:TrackPointExtension><ns3:hr>157</ns3:hr><ns3:cad>86</ns3:cad></ns3:TrackPointExtension></extensions></trkpt>
<trkpt lat="56.87118" lon="-4.08289"><ele>454.0</ele><time>2026-05-10T09:28:28Z</time><extensions><ns3:TrackPointExtension><ns3:hr>154</ns3:hr><ns3:cad>87</ns3:cad></ns3:TrackPointExtension></extensions></trkpt>
<trkpt lat="56.87144" lon="-4.08293"><ele>451.1</ele><time>2026-05-10T09:28:38Z</time><extensions><ns3:TrackPointExtension><ns3:hr>155</ns3:hr><ns3:cad>88</ns3:cad></ns3:TrackPointExtension></extensions></trkpt>
<trkpt lat="56.87170" lon="-4.08296"><ele>448.1</ele><time>2026-05-10T09:28:48Z</time><extensions><ns3:TrackPointExtension><ns3:hr>158</ns3:hr><ns3:cad>89</ns3:cad></ns3:TrackPointExtension></extensions></trkpt>
<trkpt lat="56.87196" lon="-4.08299"><ele>445.2</ele><time>2026-05-10T09:28:58Z</time><extensions><ns3:TrackPointExtension><ns3:hr>156</ns3:hr><ns3:cad>85</ns3:cad></ns3:TrackPointExtension></extensions></trkpt>
<trkpt lat="56.87223" lon="-4.08301"><ele>442.3</ele><time>2026-05-10T09:29:08Z</time><extensions><ns3:TrackPointExtension><ns3:hr>156</ns3:hr><ns3:cad>86</ns3:cad></ns3:TrackPointExtension></extensions></trkpt>
<trkpt lat="56.87249" lon="-4.08301"><ele>439.3</ele><time>2026-05-10T09:29:18Z</time><extensions><ns3:TrackPointExtension><ns3:hr>155</ns3:hr><ns3:cad>86</ns3:cad></ns3:TrackPointExtension></extensions></trkpt>
<trkpt lat="56.87276" lon="-4.08300"><ele>436.4</ele><time>2026-05-10T09:29:28Z</time><extensions><ns3:TrackPointExtension><ns3:hr>155</ns3:hr><ns3:cad>85</ns3:cad></ns3:TrackPointExtension></extensions></trkpt>
<trkpt lat="56.87302" lon="-4.08301"><ele>433.5</ele><time>2026-05-10T09:29:38Z</time><extensions><ns3:TrackPointExtension><ns3:hr>158</ns3:hr><ns3:cad>87</ns3:cad></ns3:TrackPointExtension></extensions></trkpt>
<trkpt lat="56.87328" lon="-4.08309"><ele>430.5</ele><time>2026-05-10T09:29:48Z</time><extensions><ns3:TrackPointExtension><ns3:hr>157</ns3:hr><ns3:cad>85</ns3:cad></ns3:TrackPointExtension></extensions></trkpt>
<trkpt lat="56.87354" lon="-4.08319"><ele>427.6</ele><time>2026-05-10T09:29:58Z</time><extensions><ns3:TrackPointExtension><ns3:hr>155</ns3:hr><ns3:cad>86</ns3:cad></ns3:TrackPointExtension></extensions></trkpt>
<trkpt lat="56.87379" lon="-4.08330"><ele>424.7</ele><time>2026-05-10T09:30:08Z</time><extensions><ns3:TrackPointExtension><ns3:hr>156</ns3:hr><ns3:cad>87</ns3:cad></ns3:TrackPointExtension></extensions></trkpt>
<trkpt lat="56.87404" lon="-4.08346"><ele>421.7</ele><time>2026-05-10T09:30:18Z</time><extensions><ns3:TrackPointExtension><ns3:hr>155</ns3:hr><ns3:cad>85</ns3:cad></ns3:TrackPointExtension></extensions></trkpt>
<trkpt lat="56.87429" lon="-4.08363"><ele>418.8</ele><time>2026-05-10T09:30:28Z</time><extensions><ns3:TrackPointExtension><ns3:hr>155</ns3:hr><ns3:cad>85</ns3:cad></ns3:TrackPointExtension></extensions></trkpt>
<trkpt lat="56.87453" lon="-4.08384"><ele>415.8</ele><time>2026-05-10T09:30:38Z</time><extensions><ns3:TrackPointExtension><ns3:hr>154</ns3:hr><ns3:cad>87</ns3:cad></ns3:TrackPointExtension></extensions></trkpt>
<trkpt lat="56.87476" lon="-4.08407"><ele>412.9</ele><time>2026-05-10T09:30:48Z</time><extensions><ns3:TrackPointExtension><ns3:hr>157</ns3:hr><ns3:cad>86</ns3:cad></ns3:TrackPointExtension></extensions></trkpt>
<trkpt lat="56.87500" lon="-4.08427"><ele>410.0</ele><time>2026-05-10T09:30:58Z</time><extensions><ns3:TrackPointExtension><ns3:hr>155</ns3:hr><ns3:cad>89</ns3:cad></ns3:TrackPointExtension></extensions></trkpt>
<trkpt lat="56.87523" lon="-4.08451"><ele>407.0</ele><time>2026-05-10T09:31:08Z</time><extensions><ns3:TrackPointExtension><ns3:hr>155</ns3:hr><ns3:cad>88</ns3:cad></ns3:TrackPointExtension></extensions></trkpt>
<trkpt lat="56.87544" lon="-4.08480"><ele>404.1</ele><time>2026-05-10T09:31:18Z</time><extensions><ns3:TrackPointExtension><ns3:hr>158</ns3:hr><ns3:cad>86</ns3:cad></ns3:TrackPointExtension></extensions></trkpt>
<trkpt lat="56.87564" lon="-4.08512"><ele>401.2</ele><time>2026-05-10T09:31:28Z</time><extensions><ns3:TrackPointExtension><ns3:hr>159</ns3:hr><ns3:cad>88</ns3:cad></ns3:TrackPointExtension></extensions></trkpt>
<trkpt lat="56.87585" lon="-4.08541"><ele>398.2</ele><time>2026-05-10T09:31:38Z</time><extensions><ns3:TrackPointExtension><ns3:hr>157</ns3:hr><ns3:cad>87</ns3:cad></ns3:TrackPointExtension></extensions></trkpt>
<trkpt lat="56.87606" lon="-4.08570"><ele>395.3</ele><time>2026-05-10T09:31:48Z</time><extensions><ns3:TrackPointExtension><ns3:hr>156</ns3:hr><ns3:cad>86</ns3:cad></ns3:TrackPointExtension></extensions></trkpt>
<trkpt lat="56.87627" lon="-4.08597"><ele>392.4</ele><time>2026-05-10T09:31:58Z</time><extensions><ns3:TrackPointExtension><ns3:hr>155</ns3:hr><ns3:cad>88</ns3:cad></ns3:TrackPointExtension></extensions></trkpt>
<trkpt lat="56.87647" lon="-4.08629"><ele>389.4</ele><time>2026-05-10T09:32:08Z</time><extensions><ns3:TrackPointExtension><ns3:hr>158</ns3:hr><ns3:cad>84</ns3:cad></ns3:TrackPointExtension></extensions></trkpt>
<trkpt lat="56.87665" lon="-4.08665"><ele>386.5</ele><time>2026-05-10T09:32:18Z</time><extensions><ns3:TrackPointExtension><ns3:hr>155</ns3:hr><ns3:cad>88</ns3:cad></ns3:TrackPointExtension></extensions></trkpt>
<trkpt lat="56.87683" lon="-4.08700"><ele>383.6</ele><time>2026-05-10T09:32:28Z</time><extensions><ns3:TrackPointExtension><ns3:hr>157</ns3:hr><ns3:cad>89</ns3:cad></ns3:TrackPointExtension></extensions></trkpt>
<trkpt lat="56.87700" lon="-4.08737"><ele>380.6</ele><time>2026-05-10T09:32:38Z</time><extensions><ns3:TrackPointExtension><ns3:hr>157</ns3:hr><ns3:cad>88</ns3:cad></ns3:TrackPointExtension></extensions></trkpt>
<trkpt lat="56.87718" lon="-4.08773"><ele>377.7</ele><time>2026-05-10T09:32:48Z</time><extensions><ns3:TrackPointExtension><ns3:hr>157</ns3:hr><ns3:cad>87</ns3:cad></ns3:TrackPointExtension></extensions></trkpt>
<trkpt lat="56.87735" lon="-4.08809"><ele>374.7</ele><time>2026-05-10T09:32:58Z</time><extensions><ns3:TrackPointExtension><ns3:hr>157</ns3:hr><ns3:cad>84</ns3:cad></ns3:TrackPointExtension></extensions></trkpt>
<trkpt lat="56.87750" lon="-4.08848"><ele>371.8</ele><time>2026-05-10T09:33:08Z</time><extensions><ns3:TrackPointExtension><ns3:hr>156</ns3:hr><ns3:cad>89</ns3:cad></ns3:TrackPointExtension></extensions></trkpt>
<trkpt lat="56.87766" lon="-4.08887"><ele>368.9</ele><time>2026-05-10T09:33:18Z</time><extensions><ns3:TrackPointExtension><ns3:hr>157</ns3:hr><ns3:cad>88</ns3:cad></ns3:TrackPointExtension></extensions></trkpt>
<trkpt lat="56.87781" lon="-4.08927"><ele>365.9</ele><time>2026-05-10T09:33:28Z</time><extensions><ns3:TrackPointExtension><ns3:hr>156</ns3:hr><ns3:cad>85</ns3:cad></ns3:TrackPointExtension></extensions></trkpt>
<trkpt lat="56.87794" lon="-4.08969"><ele>363.0</ele><time>2026-05-10T09:33:38Z</time><extensions><ns3:TrackPointExtension><ns3:hr>158</ns3:hr><ns3:cad>88</ns3:cad></ns3:TrackPointExtension></extensions></trkpt>
<trkpt lat="56.87806" lon="-4.09012"><ele>360.1</ele><time>2026-05-10T09:33:48Z</time><extensions><ns3:TrackPointExtension><ns3:hr>157</ns3:hr><ns3:cad>87</ns3:cad></ns3:TrackPointExtension></extensions></trkpt>
<trkpt lat="56.87817" lon="-4.09056"><ele>357.1</ele><time>2026-05-10T09:33:58Z</time><extensions><ns3:TrackPointExtension><ns3:hr>156</ns3:hr><ns3:cad>86</ns3:cad></ns3:TrackPointExtension></extensions></trkpt>
<trkpt lat="56.87830" lon="-4.09098"><ele>354.2</ele><time>2026-05-10T09:34:08Z</time><extensions><ns3:TrackPointExtension><ns3:hr>157</ns3:hr><ns3:cad>87</ns3:cad></ns3:TrackPointExtension></extensions></trkpt>
<trkpt lat="56.87840" lon="-4.09142"><ele>351.3</ele><time>2026-05-10T09:34:18Z</time><extensions><ns3:TrackPointExtension><ns3:hr>156</ns3:hr><ns3:cad>89</ns3:cad></ns3:TrackPointExtension></extensions></trkpt>
<trkpt lat="56.87852" lon="-4.09185"><ele>348.3</ele><time>2026-05-10T09:34:28Z</time><extensions><ns3:TrackPointExtension><ns3:hr>158</ns3:hr><ns3:cad>86</ns3:cad></ns3:TrackPointExtension></extensions></trkpt>
<trkpt lat="56.87863" lon="-4.09229"><ele>345.4</ele><time>2026-05-10T09:34:38Z</time><extensions><ns3:TrackPointExtension><ns3:hr>157</ns3:hr><ns3:cad>88</ns3:cad></ns3:TrackPointExtension></extensions></trkpt>
<trkpt lat="56.87864" lon="-4.09235"><ele>345.0</ele><time>2026-05-10T09:34:39Z</time><extensions><ns3:TrackPointExtension><ns3:hr>156</ns3:hr><ns3:cad>86</ns3:cad></ns3:TrackPointExtension></extensions></trkpt>
<trkpt lat="56.87877" lon="-4.09281"><ele>344.1</ele><time>2026-05-10T09:34:49Z</time><extensions><ns3:TrackPointExtension><ns3:hr>157</ns3:hr><ns3:cad>86</ns3:cad></ns3:TrackPointExtension></extensions></trkpt>
<trkpt lat="56.87892" lon="-4.09325"><ele>343.1</ele><time>2026-05-10T09:34:59Z</time><extensions><ns3:TrackPointExtension><ns3:hr>159</ns3:hr><ns3:cad>86</ns3:cad></ns3:TrackPointExtension></extensions></trkpt>
<trkpt lat="56.87906" lon="-4.09369"><ele>342.2</ele><time>2026-05-10T09:35:09Z</time><extensions><ns3:TrackPointExtension><ns3:hr>159</ns3:hr><ns3:cad>86</ns3:cad></ns3:TrackPointExtension></extensions></trkpt>
<trkpt lat="56.87918" lon="-4.09416"><ele>341.2</ele><time>2026-05-10T09:35:19Z</time><extensions><ns3:TrackPointExtension><ns3:hr>158</ns3:hr><ns3:cad>87</ns3:cad></ns3:TrackPointExtension></extensions></trkpt>
<trkpt lat="56.87930" lon="-4.09463"><ele>340.3</ele><time>2026-05-10T09:35:29Z</time><extensions><ns3:TrackPointExtension><ns3:hr>154</ns3:hr><ns3:cad>86</ns3:cad></ns3:TrackPointExtension></extensions></trkpt>
<trkpt lat="56.87942" lon="-4.09509"><ele>339.4</ele><time>2026-05-10T09:35:39Z</time><extensions><ns3:TrackPointExtension><ns3:hr>157</ns3:hr><ns3:cad>89</ns3:cad></ns3:TrackPointExtension></extensions></trkpt>
<trkpt lat="56.87954" lon="-4.09556"><ele>338.4</ele><time>2026-05-10T09:35:49Z</time><extensions><ns3:TrackPointExtension><ns3:hr>158</ns3:hr><ns3:cad>85</ns3:cad></ns3:TrackPointExtension></extensions></trkpt>
<trkpt lat="56.87963" lon="-4.09605"><ele>337.5</ele><time>2026-05-10T09:35:59Z</time><extensions><ns3:TrackPointExtension><ns3:hr>157</ns3:hr><ns3:cad>88</ns3:cad></ns3:TrackPointExtension></extensions></trkpt>
<trkpt lat="56.87971" lon="-4.09654"><ele>336.5</ele><time>2026-05-10T09:36:09Z</time><extensions><ns3:TrackPointExtension><ns3:hr>159</ns3:hr><ns3:cad>85</ns3:cad></ns3:TrackPointExtension></extensions></trkpt>
<trkpt lat="56.87980" lon="-4.09703"><ele>335.6</ele><time>2026-05-10T09:36:19Z</time><extensions><ns3:TrackPointExtension><ns3:hr>158</ns3:hr><ns3:cad>85</ns3:cad></ns3:TrackPointExtension></extensions></trkpt>
<trkpt lat="56.87989" lon="-4.09752"><ele>334.7</ele><time>2026-05-10T09:36:29Z</time><extensions><ns3:TrackPointExtension><ns3:hr>155</ns3:hr><ns3:cad>87</ns3:cad></ns3:TrackPointExtension></extensions></trkpt>
<trkpt lat="56.87995" lon="-4.09802"><ele>333.7</ele><time>2026-05-10T09:36:39Z</time><extensions><ns3:TrackPointExtension><ns3:hr>157</ns3:hr><ns3:cad>88</ns3:cad></ns3:TrackPointExtension></extensions></trkpt>
<trkpt lat="56.88001" lon="-4.09853"><ele>332.8</ele><time>2026-05-10T09:36:49Z</time><extensions><ns3:TrackPointExtension><ns3:hr>157</ns3:hr><ns3:cad>87</ns3:cad></ns3:TrackPointExtension></extensions></trkpt>
<trkpt lat="56.88003" lon="-4.09904"><ele>331.8</ele><time>2026-05-10T09:36:59Z</time><extensions><ns3:TrackPointExtension><ns3:hr>154</ns3:hr><ns3:cad>86</ns3:cad></ns3:TrackPointExtension></extensions></trkpt>
<trkpt lat="56.88008" lon="-4.09955"><ele>330.9</ele><time>2026-05-10T09:37:09Z</time><extensions><ns3:TrackPointExtension><ns3:hr>156</ns3:hr><ns3:cad>87</ns3:cad></ns3:TrackPointExtension></extensions></trkpt>
<trkpt lat="56.88015" lon="-4.10004"><ele>330.0</ele><time>2026-05-10T09:37:19Z</time><extensions><ns3:TrackPointExtension><ns3:hr>159</ns3:hr><ns3:cad>85</ns3:cad></ns3:TrackPointExtension></extensions></trkpt>
<trkpt lat="56.88021" lon="-4.10055"><ele>329.0</ele><time>2026-05-10T09:37:29Z</time><extensions><ns3:TrackPointExtension><ns3:hr>159</ns3:hr><ns3:cad>86</ns3:cad></ns3:TrackPointExtension></extensions></trkpt>
<trkpt lat="56.88028" lon="-4.10105"><ele>328.1</ele><time>2026-05-10T09:37:39Z</time><extensions><ns3:TrackPointExtension><ns3:hr>155</ns3:hr><ns3:cad>87</ns3:cad></ns3:TrackPointExtension></extensions></trkpt>
<trkpt lat="56.88037" lon="-4.10153"><ele>327.1</ele><time>2026-05-10T09:37:49Z</time><extensions><ns3:TrackPointExtension><ns3:hr>159</ns3:hr><ns3:cad>88</ns3:cad></ns3:TrackPointExtension></extensions></trkpt>
<trkpt lat="56.88048" lon="-4.10201"><ele>326.2</ele><time>2026-05-10T09:37:59Z</time><extensions><ns3:TrackPointExtension><ns3:hr>156</ns3:hr><ns3:cad>87</ns3:cad></ns3:TrackPointExtension></extensions></trkpt>
<trkpt lat="56.88060" lon="-4.10248"><ele>325.3</ele><time>2026-05-10T09:38:09Z</time><extensions><ns3:TrackPointExtension><ns3:hr>155</ns3:hr><ns3:cad>89</ns3:cad></ns3:TrackPointExtension></extensions></trkpt>
<trkpt lat="56.88074" lon="-4.10292"><ele>324.3</ele><time>2026-05-10T09:38:19Z</time><extensions><ns3:TrackPointExtension><ns3:hr>154</ns3:hr><ns3:cad>89</ns3:cad></ns3:TrackPointExtension></extensions></trkpt>
<trkpt lat="56.88091" lon="-4.10333"><ele>323.4</ele><time>2026-05-10T09:38:29Z</time><extensions><ns3:TrackPointExtension><ns3:hr>155</ns3:hr><ns3:cad>87</ns3:cad></ns3:TrackPointExtension></extensions></trkpt>
<trkpt lat="56.88106" lon="-4.10377"><ele>322.4</ele><time>2026-05-10T09:38:39Z</time><extensions><ns3:TrackPointExtension><ns3:hr>157</ns3:hr><ns3:cad>84</ns3:cad></ns3:TrackPointExtension></extensions></trkpt>
<trkpt lat="56.88123" lon="-4.10419"><ele>321.5</ele><time>2026-05-10T09:38:49Z</time><extensions><ns3:TrackPointExtension><ns3:hr>159</ns3:hr><ns3:cad>88</ns3:cad></ns3:TrackPointExtension></extensions></trkpt>
<trkpt lat="56.88137" lon="-4.10463"><ele>320.6</ele><time>2026-05-10T09:38:59Z</time><extensions><ns3:TrackPointExtension><ns3:hr>157</ns3:hr><ns3:cad>88</ns3:cad></ns3:TrackPointExtension></extensions></trkpt>
<trkpt lat="56.88152" lon="-4.10506"><ele>319.6</ele><time>2026-05-10T09:39:09Z</time><extensions><ns3:TrackPointExtension><ns3:hr>158</ns3:hr><ns3:cad>87</ns3:cad></ns3:TrackPointExtension></extensions></trkpt>
<trkpt lat="56.88168" lon="-4.10549"><ele>318.7</ele><time>2026-05-10T09:39:19Z</time><extensions><ns3:TrackPointExtension><ns3:hr>157</ns3:hr><ns3:cad>88</ns3:cad></ns3:TrackPointExtension></extensions></trkpt>
<trkpt lat="56.88181" lon="-4.10595"><ele>317.7</ele><time>2026-05-10T09:39:29Z</time><extensions><ns3:TrackPointExtension><ns3:hr>157</ns3:hr><ns3:cad>86</ns3:cad></ns3:TrackPointExtension></extensions></trkpt>
<trkpt lat="56.88192" lon="-4.10642"><ele>316.8</ele><time>2026-05-10T09:39:39Z</time><extensions><ns3:TrackPointExtension><ns3:hr>159</ns3:hr><ns3:cad>86</ns3:cad></ns3:TrackPointExtension></extensions></trkpt>
<trkpt lat="56.88201" lon="-4.10691"><ele>315.9</ele><time>2026-05-10T09:39:49Z</time><extensions><ns3:TrackPointExtension><ns3:hr>159</ns3:hr><ns3:cad>88</ns3:cad></ns3:TrackPointExtension></extensions></trkpt>
<trkpt lat="56.88211" lon="-4.10740"><ele>314.9</ele><time>2026-05-10T09:39:59Z</time><extensions><ns3:TrackPointExtension><ns3:hr>156</ns3:hr><ns3:cad>84</ns3:cad></ns3:TrackPointExtension></extensions></trkpt>
<trkpt lat="56.88220" lon="-4.10788"><ele>314.0</ele><time>2026-05-10T09:40:09Z</time><extensions><ns3:TrackPointExtension><ns3:hr>155</ns3:hr><ns3:cad>85</ns3:cad></ns3:TrackPointExtension></extensions></trkpt>
<trkpt lat="56.88232" lon="-4.10835"><ele>313.0</ele><time>2026-05-10T09:40:19Z</time><extensions><ns3:TrackPointExtension><ns3:hr>156</ns3:hr><ns3:cad>88</ns3:cad></ns3:TrackPointExtension></extensions></trkpt>
<trkpt lat="56.88243" lon="-4.10882"><ele>312.1</ele><time>2026-05-10T09:40:29Z</time><extensions><ns3:TrackPointExtension><ns3:hr>158</ns3:hr><ns3:cad>84</ns3:cad></ns3:TrackPointExtension></extensions></trkpt>
<trkpt lat="56.88253" lon="-4.10930"><ele>311.2</ele><time>2026-05-10T09:40:39Z</time><extensions><ns3:TrackPointExtension><ns3:hr>159</ns3:hr><ns3:cad>86</ns3:cad></ns3:TrackPointExtension></extensions></trkpt>
<trkpt lat="56.88266" lon="-4.10976"><ele>310.2</ele><time>2026-05-10T09:40:49Z</time><extensions><ns3:TrackPointExtension><ns3:hr>156</ns3:hr><ns3:cad>87</ns3:cad></ns3:TrackPointExtension></extensions></trkpt>
<trkpt lat="56.88280" lon="-4.11021"><ele>309.3</ele><time>2026-05-10T09:40:59Z</time><extensions><ns3:TrackPointExtension><ns3:hr>156</ns3:hr><ns3:cad>87</ns3:cad></ns3:TrackPointExtension></extensions></trkpt>
<trkpt lat="56.88293" lon="-4.11066"><ele>308.3</ele><time>2026-05-10T09:41:09Z</time><extensions><ns3:TrackPointExtension><ns3:hr>158</ns3:hr><ns3:cad>86</ns3:cad></ns3:TrackPointExtension></extensions></trkpt>
<trkpt lat="56.88304" lon="-4.11114"><ele>307.4</ele><time>2026-05-10T09:41:19Z</time><extensions><ns3:TrackPointExtension><ns3:hr>157</ns3:hr><ns3:cad>85</ns3:cad></ns3:TrackPointExtension></extensions></trkpt>
<trkpt lat="56.88312" lon="-4.11163"><ele>306.5</ele><time>2026-05-10T09:41:29Z</time><extensions><ns3:TrackPointExtension><ns3:hr>155</ns3:hr><ns3:cad>85</ns3:cad></ns3:TrackPointExtension></extensions></trkpt>
<trkpt lat="56.88322" lon="-4.11211"><ele>305.5</ele><time>2026-05-10T09:41:39Z</time><extensions><ns3:TrackPointExtension><ns3:hr>159</ns3:hr><ns3:cad>85</ns3:cad></ns3:TrackPointExtension></extensions></trkpt>
<trkpt lat="56.88331" lon="-4.11260"><ele>304.6</ele><time>2026-05-10T09:41:49Z</time><extensions><ns3:TrackPointExtension><ns3:hr>158</ns3:hr><ns3:cad>85</ns3:cad></ns3:TrackPointExtension></extensions></trkpt>
<trkpt lat="56.88343" lon="-4.11307"><ele>303.6</ele><time>2026-05-10T09:41:59Z</time><extensions><ns3:TrackPointExtension><ns3:hr>159</ns3:hr><ns3:cad>88</ns3:cad></ns3:TrackPointExtension></extensions></trkpt>
<trkpt lat="56.88355" lon="-4.11354"><ele>302.7</ele><time>2026-05-10T09:42:09Z</time><extensions><ns3:TrackPointExtension><ns3:hr>157</ns3:hr><ns3:cad>89</ns3:cad></ns3:TrackPointExtension></extensions></trkpt>
<trkpt lat="56.88368" lon="-4.11399"><ele>301.8</ele><time>2026-05-10T09:42:19Z</time><extensions><ns3:TrackPointExtension><ns3:hr>158</ns3:hr><ns3:cad>86</ns3:cad></ns3:TrackPointExtension></extensions></trkpt>
<trkpt lat="56.88382" lon="-4.11444"><ele>300.8</ele><time>2026-05-10T09:42:29Z</time><extensions><ns3:TrackPointExtension><ns3:hr>156</ns3:hr><ns3:cad>87</ns3:cad></ns3:TrackPointExtension></extensions></trkpt>
<trkpt lat="56.88395" lon="-4.11482"><ele>300.0</ele><time>2026-05-10T09:42:38Z</time><extensions><ns3:TrackPointExtension><ns3:hr>157</ns3:hr><ns3:cad>89</ns3:cad></ns3:TrackPointExtension></extensions></trkpt>
</trkseg></trk></gpx>
