<?xml version="1.0" encoding="UTF-8"?>
<gpx version="1.1" creator="Trail Profile synthetic demo (not a real run)" xmlns="http://www.topografix.com/GPX/1/1" xmlns:ns3="http://www.garmin.com/xmlschemas/TrackPointExtension/v1"><trk><name>Fictional Hill repeats (demo)</name><type>trail_running</type><trkseg>
<trkpt lat="56.82020" lon="-4.04967"><ele>300.3</ele><time>2026-04-12T08:30:10Z</time><extensions><ns3:TrackPointExtension><ns3:hr>103</ns3:hr><ns3:cad>89</ns3:cad></ns3:TrackPointExtension></extensions></trkpt>
<trkpt lat="56.82040" lon="-4.04933"><ele>300.6</ele><time>2026-04-12T08:30:20Z</time><extensions><ns3:TrackPointExtension><ns3:hr>125</ns3:hr><ns3:cad>87</ns3:cad></ns3:TrackPointExtension></extensions></trkpt>
<trkpt lat="56.82059" lon="-4.04899"><ele>300.9</ele><time>2026-04-12T08:30:30Z</time><extensions><ns3:TrackPointExtension><ns3:hr>135</ns3:hr><ns3:cad>84</ns3:cad></ns3:TrackPointExtension></extensions></trkpt>
<trkpt lat="56.82079" lon="-4.04866"><ele>301.2</ele><time>2026-04-12T08:30:40Z</time><extensions><ns3:TrackPointExtension><ns3:hr>145</ns3:hr><ns3:cad>89</ns3:cad></ns3:TrackPointExtension></extensions></trkpt>
<trkpt lat="56.82099" lon="-4.04833"><ele>301.5</ele><time>2026-04-12T08:30:50Z</time><extensions><ns3:TrackPointExtension><ns3:hr>153</ns3:hr><ns3:cad>86</ns3:cad></ns3:TrackPointExtension></extensions></trkpt>
<trkpt lat="56.82120" lon="-4.04801"><ele>301.8</ele><time>2026-04-12T08:31:00Z</time><extensions><ns3:TrackPointExtension><ns3:hr>155</ns3:hr><ns3:cad>88</ns3:cad></ns3:TrackPointExtension></extensions></trkpt>
<trkpt lat="56.82139" lon="-4.04766"><ele>302.1</ele><time>2026-04-12T08:31:10Z</time><extensions><ns3:TrackPointExtension><ns3:hr>161</ns3:hr><ns3:cad>86</ns3:cad></ns3:TrackPointExtension></extensions></trkpt>
<trkpt lat="56.82159" lon="-4.04733"><ele>302.4</ele><time>2026-04-12T08:31:20Z</time><extensions><ns3:TrackPointExtension><ns3:hr>163</ns3:hr><ns3:cad>84</ns3:cad></ns3:TrackPointExtension></extensions></trkpt>
<trkpt lat="56.82178" lon="-4.04698"><ele>302.7</ele><time>2026-04-12T08:31:30Z</time><extensions><ns3:TrackPointExtension><ns3:hr>165</ns3:hr><ns3:cad>88</ns3:cad></ns3:TrackPointExtension></extensions></trkpt>
<trkpt lat="56.82198" lon="-4.04666"><ele>303.0</ele><time>2026-04-12T08:31:40Z</time><extensions><ns3:TrackPointExtension><ns3:hr>163</ns3:hr><ns3:cad>87</ns3:cad></ns3:TrackPointExtension></extensions></trkpt>
<trkpt lat="56.82221" lon="-4.04638"><ele>303.3</ele><time>2026-04-12T08:31:50Z</time><extensions><ns3:TrackPointExtension><ns3:hr>163</ns3:hr><ns3:cad>87</ns3:cad></ns3:TrackPointExtension></extensions></trkpt>
<trkpt lat="56.82242" lon="-4.04608"><ele>303.6</ele><time>2026-04-12T08:32:00Z</time><extensions><ns3:TrackPointExtension><ns3:hr>163</ns3:hr><ns3:cad>87</ns3:cad></ns3:TrackPointExtension></extensions></trkpt>
<trkpt lat="56.82265" lon="-4.04583"><ele>303.9</ele><time>2026-04-12T08:32:10Z</time><extensions><ns3:TrackPointExtension><ns3:hr>165</ns3:hr><ns3:cad>87</ns3:cad></ns3:TrackPointExtension></extensions></trkpt>
<trkpt lat="56.82288" lon="-4.04556"><ele>304.2</ele><time>2026-04-12T08:32:20Z</time><extensions><ns3:TrackPointExtension><ns3:hr>166</ns3:hr><ns3:cad>88</ns3:cad></ns3:TrackPointExtension></extensions></trkpt>
<trkpt lat="56.82310" lon="-4.04526"><ele>304.5</ele><time>2026-04-12T08:32:30Z</time><extensions><ns3:TrackPointExtension><ns3:hr>164</ns3:hr><ns3:cad>88</ns3:cad></ns3:TrackPointExtension></extensions></trkpt>
<trkpt lat="56.82331" lon="-4.04497"><ele>304.8</ele><time>2026-04-12T08:32:40Z</time><extensions><ns3:TrackPointExtension><ns3:hr>167</ns3:hr><ns3:cad>85</ns3:cad></ns3:TrackPointExtension></extensions></trkpt>
<trkpt lat="56.82352" lon="-4.04465"><ele>305.1</ele><time>2026-04-12T08:32:50Z</time><extensions><ns3:TrackPointExtension><ns3:hr>164</ns3:hr><ns3:cad>84</ns3:cad></ns3:TrackPointExtension></extensions></trkpt>
<trkpt lat="56.82372" lon="-4.04432"><ele>305.4</ele><time>2026-04-12T08:33:00Z</time><extensions><ns3:TrackPointExtension><ns3:hr>163</ns3:hr><ns3:cad>85</ns3:cad></ns3:TrackPointExtension></extensions></trkpt>
<trkpt lat="56.82390" lon="-4.04396"><ele>305.7</ele><time>2026-04-12T08:33:10Z</time><extensions><ns3:TrackPointExtension><ns3:hr>164</ns3:hr><ns3:cad>86</ns3:cad></ns3:TrackPointExtension></extensions></trkpt>
<trkpt lat="56.82408" lon="-4.04359"><ele>306.0</ele><time>2026-04-12T08:33:20Z</time><extensions><ns3:TrackPointExtension><ns3:hr>166</ns3:hr><ns3:cad>87</ns3:cad></ns3:TrackPointExtension></extensions></trkpt>
<trkpt lat="56.82424" lon="-4.04320"><ele>306.3</ele><time>2026-04-12T08:33:30Z</time><extensions><ns3:TrackPointExtension><ns3:hr>166</ns3:hr><ns3:cad>87</ns3:cad></ns3:TrackPointExtension></extensions></trkpt>
<trkpt lat="56.82443" lon="-4.04283"><ele>306.6</ele><time>2026-04-12T08:33:40Z</time><extensions><ns3:TrackPointExtension><ns3:hr>164</ns3:hr><ns3:cad>84</ns3:cad></ns3:TrackPointExtension></extensions></trkpt>
<trkpt lat="56.82459" lon="-4.04244"><ele>306.9</ele><time>2026-04-12T08:33:50Z</time><extensions><ns3:TrackPointExtension><ns3:hr>168</ns3:hr><ns3:cad>85</ns3:cad></ns3:TrackPointExtension></extensions></trkpt>
<trkpt lat="56.82473" lon="-4.04202"><ele>307.2</ele><time>2026-04-12T08:34:00Z</time><extensions><ns3:TrackPointExtension><ns3:hr>164</ns3:hr><ns3:cad>86</ns3:cad></ns3:TrackPointExtension></extensions></trkpt>
<trkpt lat="56.82490" lon="-4.04163"><ele>307.5</ele><time>2026-04-12T08:34:10Z</time><extensions><ns3:TrackPointExtension><ns3:hr>163</ns3:hr><ns3:cad>85</ns3:cad></ns3:TrackPointExtension></extensions></trkpt>
<trkpt lat="56.82508" lon="-4.04126"><ele>307.8</ele><time>2026-04-12T08:34:20Z</time><extensions><ns3:TrackPointExtension><ns3:hr>165</ns3:hr><ns3:cad>89</ns3:cad></ns3:TrackPointExtension></extensions></trkpt>
<trkpt lat="56.82519" lon="-4.04103"><ele>308.0</ele><time>2026-04-12T08:34:26Z</time><extensions><ns3:TrackPointExtension><ns3:hr>165</ns3:hr><ns3:cad>86</ns3:cad></ns3:TrackPointExtension></extensions></trkpt>
<trkpt lat="56.82528" lon="-4.04083"><ele>310.6</ele><time>2026-04-12T08:34:36Z</time><extensions><ns3:TrackPointExtension><ns3:hr>165</ns3:hr><ns3:cad>84</ns3:cad></ns3:TrackPointExtension></extensions></trkpt>
<trkpt lat="56.82536" lon="-4.04062"><ele>313.1</ele><time>2026-04-12T08:34:46Z</time><extensions><ns3:TrackPointExtension><ns3:hr>165</ns3:hr><ns3:cad>88</ns3:cad></ns3:TrackPointExtension></extensions></trkpt>
<trkpt lat="56.82546" lon="-4.04042"><ele>315.7</ele><time>2026-04-12T08:34:56Z</time><extensions><ns3:TrackPointExtension><ns3:hr>166</ns3:hr><ns3:cad>87</ns3:cad></ns3:TrackPointExtension></extensions></trkpt>
<trkpt lat="56.82555" lon="-4.04021"><ele>318.3</ele><time>2026-04-12T08:35:06Z</time><extensions><ns3:TrackPointExtension><ns3:hr>166</ns3:hr><ns3:cad>86</ns3:cad></ns3:TrackPointExtension></extensions></trkpt>
<trkpt lat="56.82563" lon="-4.04000"><ele>320.8</ele><time>2026-04-12T08:35:16Z</time><extensions><ns3:TrackPointExtension><ns3:hr>164</ns3:hr><ns3:cad>84</ns3:cad></ns3:TrackPointExtension></extensions></trkpt>
<trkpt lat="56.82573" lon="-4.03980"><ele>323.4</ele><time>2026-04-12T08:35:26Z</time><extensions><ns3:TrackPointExtension><ns3:hr>166</ns3:hr><ns3:cad>85</ns3:cad></ns3:TrackPointExtension></extensions></trkpt>
<trkpt lat="56.82581" lon="-4.03958"><ele>326.0</ele><time>2026-04-12T08:35:36Z</time><extensions><ns3:TrackPointExtension><ns3:hr>167</ns3:hr><ns3:cad>87</ns3:cad></ns3:TrackPointExtension></extensions></trkpt>
<trkpt lat="56.82590" lon="-4.03938"><ele>328.5</ele><time>2026-04-12T08:35:46Z</time><extensions><ns3:TrackPointExtension><ns3:hr>168</ns3:hr><ns3:cad>87</ns3:cad></ns3:TrackPointExtension></extensions></trkpt>
<trkpt lat="56.82599" lon="-4.03917"><ele>331.1</ele><time>2026-04-12T08:35:56Z</time><extensions><ns3:TrackPointExtension><ns3:hr>163</ns3:hr><ns3:cad>84</ns3:cad></ns3:TrackPointExtension></extensions></trkpt>
<trkpt lat="56.82607" lon="-4.03895"><ele>333.7</ele><time>2026-04-12T08:36:06Z</time><extensions><ns3:TrackPointExtension><ns3:hr>166</ns3:hr><ns3:cad>86</ns3:cad></ns3:TrackPointExtension></extensions></trkpt>
<trkpt lat="56.82614" lon="-4.03872"><ele>336.2</ele><time>2026-04-12T08:36:16Z</time><extensions><ns3:TrackPointExtension><ns3:hr>166</ns3:hr><ns3:cad>88</ns3:cad></ns3:TrackPointExtension></extensions></trkpt>
<trkpt lat="56.82621" lon="-4.03850"><ele>338.8</ele><time>2026-04-12T08:36:26Z</time><extensions><ns3:TrackPointExtension><ns3:hr>163</ns3:hr><ns3:cad>86</ns3:cad></ns3:TrackPointExtension></extensions></trkpt>
<trkpt lat="56.82630" lon="-4.03829"><ele>341.4</ele><time>2026-04-12T08:36:36Z</time><extensions><ns3:TrackPointExtension><ns3:hr>167</ns3:hr><ns3:cad>86</ns3:cad></ns3:TrackPointExtension></extensions></trkpt>
<trkpt lat="56.82639" lon="-4.03807"><ele>344.0</ele><time>2026-04-12T08:36:46Z</time><extensions><ns3:TrackPointExtension><ns3:hr>165</ns3:hr><ns3:cad>84</ns3:cad></ns3:TrackPointExtension></extensions></trkpt>
<trkpt lat="56.82648" lon="-4.03787"><ele>346.5</ele><time>2026-04-12T08:36:56Z</time><extensions><ns3:TrackPointExtension><ns3:hr>166</ns3:hr><ns3:cad>86</ns3:cad></ns3:TrackPointExtension></extensions></trkpt>
<trkpt lat="56.82656" lon="-4.03765"><ele>349.1</ele><time>2026-04-12T08:37:06Z</time><extensions><ns3:TrackPointExtension><ns3:hr>163</ns3:hr><ns3:cad>89</ns3:cad></ns3:TrackPointExtension></extensions></trkpt>
<trkpt lat="56.82663" lon="-4.03742"><ele>351.7</ele><time>2026-04-12T08:37:16Z</time><extensions><ns3:TrackPointExtension><ns3:hr>166</ns3:hr><ns3:cad>87</ns3:cad></ns3:TrackPointExtension></extensions></trkpt>
<trkpt lat="56.82670" lon="-4.03719"><ele>354.2</ele><time>2026-04-12T08:37:26Z</time><extensions><ns3:TrackPointExtension><ns3:hr>165</ns3:hr><ns3:cad>87</ns3:cad></ns3:TrackPointExtension></extensions></trkpt>
<trkpt lat="56.82677" lon="-4.03696"><ele>356.8</ele><time>2026-04-12T08:37:36Z</time><extensions><ns3:TrackPointExtension><ns3:hr>164</ns3:hr><ns3:cad>84</ns3:cad></ns3:TrackPointExtension></extensions></trkpt>
<trkpt lat="56.82685" lon="-4.03675"><ele>359.4</ele><time>2026-04-12T08:37:46Z</time><extensions><ns3:TrackPointExtension><ns3:hr>168</ns3:hr><ns3:cad>87</ns3:cad></ns3:TrackPointExtension></extensions></trkpt>
<trkpt lat="56.82694" lon="-4.03654"><ele>361.9</ele><time>2026-04-12T08:37:56Z</time><extensions><ns3:TrackPointExtension><ns3:hr>166</ns3:hr><ns3:cad>85</ns3:cad></ns3:TrackPointExtension></extensions></trkpt>
<trkpt lat="56.82702" lon="-4.03632"><ele>364.5</ele><time>2026-04-12T08:38:06Z</time><extensions><ns3:TrackPointExtension><ns3:hr>167</ns3:hr><ns3:cad>85</ns3:cad></ns3:TrackPointExtension></extensions></trkpt>
<trkpt lat="56.82712" lon="-4.03612"><ele>367.1</ele><time>2026-04-12T08:38:16Z</time><extensions><ns3:TrackPointExtension><ns3:hr>166</ns3:hr><ns3:cad>88</ns3:cad></ns3:TrackPointExtension></extensions></trkpt>
<trkpt lat="56.82721" lon="-4.03592"><ele>369.6</ele><time>2026-04-12T08:38:26Z</time><extensions><ns3:TrackPointExtension><ns3:hr>164</ns3:hr><ns3:cad>88</ns3:cad></ns3:TrackPointExtension></extensions></trkpt>
<trkpt lat="56.82729" lon="-4.03570"><ele>372.2</ele><time>2026-04-12T08:38:36Z</time><extensions><ns3:TrackPointExtension><ns3:hr>164</ns3:hr><ns3:cad>84</ns3:cad></ns3:TrackPointExtension></extensions></trkpt>
<trkpt lat="56.82737" lon="-4.03548"><ele>374.8</ele><time>2026-04-12T08:38:46Z</time><extensions><ns3:TrackPointExtension><ns3:hr>164</ns3:hr><ns3:cad>86</ns3:cad></ns3:TrackPointExtension></extensions></trkpt>
<trkpt lat="56.82746" lon="-4.03528"><ele>377.3</ele><time>2026-04-12T08:38:56Z</time><extensions><ns3:TrackPointExtension><ns3:hr>167</ns3:hr><ns3:cad>85</ns3:cad></ns3:TrackPointExtension></extensions></trkpt>
<trkpt lat="56.82757" lon="-4.03510"><ele>379.9</ele><time>2026-04-12T08:39:06Z</time><extensions><ns3:TrackPointExtension><ns3:hr>164</ns3:hr><ns3:cad>86</ns3:cad></ns3:TrackPointExtension></extensions></trkpt>
<trkpt lat="56.82768" lon="-4.03494"><ele>382.5</ele><time>2026-04-12T08:39:16Z</time><extensions><ns3:TrackPointExtension><ns3:hr>167</ns3:hr><ns3:cad>84</ns3:cad></ns3:TrackPointExtension></extensions></trkpt>
<trkpt lat="56.82779" lon="-4.03477"><ele>385.0</ele><time>2026-04-12T08:39:26Z</time><extensions><ns3:TrackPointExtension><ns3:hr>163</ns3:hr><ns3:cad>88</ns3:cad></ns3:TrackPointExtension></extensions></trkpt>
<trkpt lat="56.82790" lon="-4.03460"><ele>387.6</ele><time>2026-04-12T08:39:36Z</time><extensions><ns3:TrackPointExtension><ns3:hr>167</ns3:hr><ns3:cad>86</ns3:cad></ns3:TrackPointExtension></extensions></trkpt>
<trkpt lat="56.82802" lon="-4.03445"><ele>390.2</ele><time>2026-04-12T08:39:46Z</time><extensions><ns3:TrackPointExtension><ns3:hr>166</ns3:hr><ns3:cad>86</ns3:cad></ns3:TrackPointExtension></extensions></trkpt>
<trkpt lat="56.82813" lon="-4.03428"><ele>392.7</ele><time>2026-04-12T08:39:56Z</time><extensions><ns3:TrackPointExtension><ns3:hr>167</ns3:hr><ns3:cad>87</ns3:cad></ns3:TrackPointExtension></extensions></trkpt>
<trkpt lat="56.82825" lon="-4.03412"><ele>395.3</ele><time>2026-04-12T08:40:06Z</time><extensions><ns3:TrackPointExtension><ns3:hr>165</ns3:hr><ns3:cad>87</ns3:cad></ns3:TrackPointExtension></extensions></trkpt>
<trkpt lat="56.82835" lon="-4.03395"><ele>397.9</ele><time>2026-04-12T08:40:16Z</time><extensions><ns3:TrackPointExtension><ns3:hr>168</ns3:hr><ns3:cad>86</ns3:cad></ns3:TrackPointExtension></extensions></trkpt>
<trkpt lat="56.82847" lon="-4.03379"><ele>400.4</ele><time>2026-04-12T08:40:26Z</time><extensions><ns3:TrackPointExtension><ns3:hr>163</ns3:hr><ns3:cad>88</ns3:cad></ns3:TrackPointExtension></extensions></trkpt>
<trkpt lat="56.82859" lon="-4.03364"><ele>403.0</ele><time>2026-04-12T08:40:36Z</time><extensions><ns3:TrackPointExtension><ns3:hr>166</ns3:hr><ns3:cad>88</ns3:cad></ns3:TrackPointExtension></extensions></trkpt>
<trkpt lat="56.82870" lon="-4.03346"><ele>405.6</ele><time>2026-04-12T08:40:46Z</time><extensions><ns3:TrackPointExtension><ns3:hr>167</ns3:hr><ns3:cad>88</ns3:cad></ns3:TrackPointExtension></extensions></trkpt>
<trkpt lat="56.82882" lon="-4.03331"><ele>408.1</ele><time>2026-04-12T08:40:56Z</time><extensions><ns3:TrackPointExtension><ns3:hr>165</ns3:hr><ns3:cad>86</ns3:cad></ns3:TrackPointExtension></extensions></trkpt>
<trkpt lat="56.82894" lon="-4.03319"><ele>410.7</ele><time>2026-04-12T08:41:06Z</time><extensions><ns3:TrackPointExtension><ns3:hr>165</ns3:hr><ns3:cad>87</ns3:cad></ns3:TrackPointExtension></extensions></trkpt>
<trkpt lat="56.82907" lon="-4.03306"><ele>413.3</ele><time>2026-04-12T08:41:16Z</time><extensions><ns3:TrackPointExtension><ns3:hr>167</ns3:hr><ns3:cad>87</ns3:cad></ns3:TrackPointExtension></extensions></trkpt>
<trkpt lat="56.82919" lon="-4.03292"><ele>415.9</ele><time>2026-04-12T08:41:26Z</time><extensions><ns3:TrackPointExtension><ns3:hr>163</ns3:hr><ns3:cad>88</ns3:cad></ns3:TrackPointExtension></extensions></trkpt>
<trkpt lat="56.82931" lon="-4.03278"><ele>418.4</ele><time>2026-04-12T08:41:36Z</time><extensions><ns3:TrackPointExtension><ns3:hr>165</ns3:hr><ns3:cad>85</ns3:cad></ns3:TrackPointExtension></extensions></trkpt>
<trkpt lat="56.82939" lon="-4.03270"><ele>420.0</ele><time>2026-04-12T08:41:42Z</time><extensions><ns3:TrackPointExtension><ns3:hr>163</ns3:hr><ns3:cad>85</ns3:cad></ns3:TrackPointExtension></extensions></trkpt>
<trkpt lat="56.82956" lon="-4.03252"><ele>416.5</ele><time>2026-04-12T08:41:52Z</time><extensions><ns3:TrackPointExtension><ns3:hr>163</ns3:hr><ns3:cad>85</ns3:cad></ns3:TrackPointExtension></extensions></trkpt>
<trkpt lat="56.82972" lon="-4.03232"><ele>413.1</ele><time>2026-04-12T08:42:02Z</time><extensions><ns3:TrackPointExtension><ns3:hr>164</ns3:hr><ns3:cad>85</ns3:cad></ns3:TrackPointExtension></extensions></trkpt>
<trkpt lat="56.82989" lon="-4.03216"><ele>409.6</ele><time>2026-04-12T08:42:12Z</time><extensions><ns3:TrackPointExtension><ns3:hr>164</ns3:hr><ns3:cad>88</ns3:cad></ns3:TrackPointExtension></extensions></trkpt>
<trkpt lat="56.83006" lon="-4.03199"><ele>406.1</ele><time>2026-04-12T08:42:22Z</time><extensions><ns3:TrackPointExtension><ns3:hr>165</ns3:hr><ns3:cad>86</ns3:cad></ns3:TrackPointExtension></extensions></trkpt>
<trkpt lat="56.83023" lon="-4.03179"><ele>402.7</ele><time>2026-04-12T08:42:32Z</time><extensions><ns3:TrackPointExtension><ns3:hr>165</ns3:hr><ns3:cad>87</ns3:cad></ns3:TrackPointExtension></extensions></trkpt>
<trkpt lat="56.83038" lon="-4.03158"><ele>399.2</ele><time>2026-04-12T08:42:42Z</time><extensions><ns3:TrackPointExtension><ns3:hr>166</ns3:hr><ns3:cad>86</ns3:cad></ns3:TrackPointExtension></extensions></trkpt>
<trkpt lat="56.83055" lon="-4.03140"><ele>395.7</ele><time>2026-04-12T08:42:52Z</time><extensions><ns3:TrackPointExtension><ns3:hr>163</ns3:hr><ns3:cad>84</ns3:cad></ns3:TrackPointExtension></extensions></trkpt>
<trkpt lat="56.83072" lon="-4.03123"><ele>392.3</ele><time>2026-04-12T08:43:02Z</time><extensions><ns3:TrackPointExtension><ns3:hr>166</ns3:hr><ns3:cad>85</ns3:cad></ns3:TrackPointExtension></extensions></trkpt>
<trkpt lat="56.83088" lon="-4.03104"><ele>388.8</ele><time>2026-04-12T08:43:12Z</time><extensions><ns3:TrackPointExtension><ns3:hr>167</ns3:hr><ns3:cad>86</ns3:cad></ns3:TrackPointExtension></extensions></trkpt>
<trkpt lat="56.83106" lon="-4.03089"><ele>385.3</ele><time>2026-04-12T08:43:22Z</time><extensions><ns3:TrackPointExtension><ns3:hr>165</ns3:hr><ns3:cad>86</ns3:cad></ns3:TrackPointExtension></extensions></trkpt>
<trkpt lat="56.83123" lon="-4.03071"><ele>381.9</ele><time>2026-04-12T08:43:32Z</time><extensions><ns3:TrackPointExtension><ns3:hr>164</ns3:hr><ns3:cad>87</ns3:cad></ns3:TrackPointExtension></extensions></trkpt>
<trkpt lat="56.83139" lon="-4.03051"><ele>378.4</ele><time>2026-04-12T08:43:42Z</time><extensions><ns3:TrackPointExtension><ns3:hr>165</ns3:hr><ns3:cad>88</ns3:cad></ns3:TrackPointExtension></extensions></trkpt>
<trkpt lat="56.83156" lon="-4.03034"><ele>374.9</ele><time>2026-04-12T08:43:52Z</time><extensions><ns3:TrackPointExtension><ns3:hr>167</ns3:hr><ns3:cad>85</ns3:cad></ns3:TrackPointExtension></extensions></trkpt>
<trkpt lat="56.83172" lon="-4.03014"><ele>371.5</ele><time>2026-04-12T08:44:02Z</time><extensions><ns3:TrackPointExtension><ns3:hr>166</ns3:hr><ns3:cad>88</ns3:cad></ns3:TrackPointExtension></extensions></trkpt>
<trkpt lat="56.83188" lon="-4.02994"><ele>368.0</ele><time>2026-04-12T08:44:12Z</time><extensions><ns3:TrackPointExtension><ns3:hr>166</ns3:hr><ns3:cad>88</ns3:cad></ns3:TrackPointExtension></extensions></trkpt>
<trkpt lat="56.83203" lon="-4.02972"><ele>364.5</ele><time>2026-04-12T08:44:22Z</time><extensions><ns3:TrackPointExtension><ns3:hr>164</ns3:hr><ns3:cad>84</ns3:cad></ns3:TrackPointExtension></extensions></trkpt>
<trkpt lat="56.83218" lon="-4.02949"><ele>361.1</ele><time>2026-04-12T08:44:32Z</time><extensions><ns3:TrackPointExtension><ns3:hr>165</ns3:hr><ns3:cad>86</ns3:cad></ns3:TrackPointExtension></extensions></trkpt>
<trkpt lat="56.83234" lon="-4.02928"><ele>357.6</ele><time>2026-04-12T08:44:42Z</time><extensions><ns3:TrackPointExtension><ns3:hr>166</ns3:hr><ns3:cad>85</ns3:cad></ns3:TrackPointExtension></extensions></trkpt>
<trkpt lat="56.83251" lon="-4.02910"><ele>354.2</ele><time>2026-04-12T08:44:52Z</time><extensions><ns3:TrackPointExtension><ns3:hr>166</ns3:hr><ns3:cad>86</ns3:cad></ns3:TrackPointExtension></extensions></trkpt>
<trkpt lat="56.83268" lon="-4.02893"><ele>350.7</ele><time>2026-04-12T08:45:02Z</time><extensions><ns3:TrackPointExtension><ns3:hr>166</ns3:hr><ns3:cad>86</ns3:cad></ns3:TrackPointExtension></extensions></trkpt>
<trkpt lat="56.83286" lon="-4.02879"><ele>347.2</ele><time>2026-04-12T08:45:12Z</time><extensions><ns3:TrackPointExtension><ns3:hr>166</ns3:hr><ns3:cad>88</ns3:cad></ns3:TrackPointExtension></extensions></trkpt>
<trkpt lat="56.83303" lon="-4.02863"><ele>343.8</ele><time>2026-04-12T08:45:22Z</time><extensions><ns3:TrackPointExtension><ns3:hr>163</ns3:hr><ns3:cad>88</ns3:cad></ns3:TrackPointExtension></extensions></trkpt>
<trkpt lat="56.83319" lon="-4.02844"><ele>340.3</ele><time>2026-04-12T08:45:32Z</time><extensions><ns3:TrackPointExtension><ns3:hr>167</ns3:hr><ns3:cad>87</ns3:cad></ns3:TrackPointExtension></extensions></trkpt>
<trkpt lat="56.83336" lon="-4.02825"><ele>336.8</ele><time>2026-04-12T08:45:42Z</time><extensions><ns3:TrackPointExtension><ns3:hr>164</ns3:hr><ns3:cad>89</ns3:cad></ns3:TrackPointExtension></extensions></trkpt>
<trkpt lat="56.83353" lon="-4.02806"><ele>333.4</ele><time>2026-04-12T08:45:52Z</time><extensions><ns3:TrackPointExtension><ns3:hr>168</ns3:hr><ns3:cad>85</ns3:cad></ns3:TrackPointExtension></extensions></trkpt>
<trkpt lat="56.83368" lon="-4.02786"><ele>329.9</ele><time>2026-04-12T08:46:02Z</time><extensions><ns3:TrackPointExtension><ns3:hr>165</ns3:hr><ns3:cad>89</ns3:cad></ns3:TrackPointExtension></extensions></trkpt>
<trkpt lat="56.83383" lon="-4.02763"><ele>326.4</ele><time>2026-04-12T08:46:12Z</time><extensions><ns3:TrackPointExtension><ns3:hr>166</ns3:hr><ns3:cad>84</ns3:cad></ns3:TrackPointExtension></extensions></trkpt>
<trkpt lat="56.83398" lon="-4.02739"><ele>323.0</ele><time>2026-04-12T08:46:22Z</time><extensions><ns3:TrackPointExtension><ns3:hr>168</ns3:hr><ns3:cad>84</ns3:cad></ns3:TrackPointExtension></extensions></trkpt>
<trkpt lat="56.83414" lon="-4.02718"><ele>319.5</ele><time>2026-04-12T08:46:32Z</time><extensions><ns3:TrackPointExtension><ns3:hr>166</ns3:hr><ns3:cad>84</ns3:cad></ns3:TrackPointExtension></extensions></trkpt>
<trkpt lat="56.83428" lon="-4.02694"><ele>316.0</ele><time>2026-04-12T08:46:42Z</time><extensions><ns3:TrackPointExtension><ns3:hr>165</ns3:hr><ns3:cad>87</ns3:cad></ns3:TrackPointExtension></extensions></trkpt>
<trkpt lat="56.83442" lon="-4.02669"><ele>312.6</ele><time>2026-04-12T08:46:52Z</time><extensions><ns3:TrackPointExtension><ns3:hr>167</ns3:hr><ns3:cad>87</ns3:cad></ns3:TrackPointExtension></extensions></trkpt>
<trkpt lat="56.83457" lon="-4.02647"><ele>309.1</ele><time>2026-04-12T08:47:02Z</time><extensions><ns3:TrackPointExtension><ns3:hr>164</ns3:hr><ns3:cad>87</ns3:cad></ns3:TrackPointExtension></extensions></trkpt>
<trkpt lat="56.83462" lon="-4.02640"><ele>308.0</ele><time>2026-04-12T08:47:05Z</time><extensions><ns3:TrackPointExtension><ns3:hr>166</ns3:hr><ns3:cad>88</ns3:cad></ns3:TrackPointExtension></extensions></trkpt>
<trkpt lat="56.83472" lon="-4.02621"><ele>310.6</ele><time>2026-04-12T08:47:15Z</time><extensions><ns3:TrackPointExtension><ns3:hr>168</ns3:hr><ns3:cad>89</ns3:cad></ns3:TrackPointExtension></extensions></trkpt>
<trkpt lat="56.83483" lon="-4.02605"><ele>313.1</ele><time>2026-04-12T08:47:25Z</time><extensions><ns3:TrackPointExtension><ns3:hr>168</ns3:hr><ns3:cad>85</ns3:cad></ns3:TrackPointExtension></extensions></trkpt>
<trkpt lat="56.83494" lon="-4.02586"><ele>315.7</ele><time>2026-04-12T08:47:35Z</time><extensions><ns3:TrackPointExtension><ns3:hr>164</ns3:hr><ns3:cad>88</ns3:cad></ns3:TrackPointExtension></extensions></trkpt>
<trkpt lat="56.83504" lon="-4.02568"><ele>318.3</ele><time>2026-04-12T08:47:45Z</time><extensions><ns3:TrackPointExtension><ns3:hr>165</ns3:hr><ns3:cad>84</ns3:cad></ns3:TrackPointExtension></extensions></trkpt>
<trkpt lat="56.83515" lon="-4.02551"><ele>320.8</ele><time>2026-04-12T08:47:55Z</time><extensions><ns3:TrackPointExtension><ns3:hr>166</ns3:hr><ns3:cad>89</ns3:cad></ns3:TrackPointExtension></extensions></trkpt>
<trkpt lat="56.83526" lon="-4.02534"><ele>323.4</ele><time>2026-04-12T08:48:05Z</time><extensions><ns3:TrackPointExtension><ns3:hr>165</ns3:hr><ns3:cad>86</ns3:cad></ns3:TrackPointExtension></extensions></trkpt>
<trkpt lat="56.83538" lon="-4.02519"><ele>326.0</ele><time>2026-04-12T08:48:15Z</time><extensions><ns3:TrackPointExtension><ns3:hr>165</ns3:hr><ns3:cad>84</ns3:cad></ns3:TrackPointExtension></extensions></trkpt>
<trkpt lat="56.83549" lon="-4.02503"><ele>328.5</ele><time>2026-04-12T08:48:25Z</time><extensions><ns3:TrackPointExtension><ns3:hr>165</ns3:hr><ns3:cad>88</ns3:cad></ns3:TrackPointExtension></extensions></trkpt>
<trkpt lat="56.83560" lon="-4.02486"><ele>331.1</ele><time>2026-04-12T08:48:35Z</time><extensions><ns3:TrackPointExtension><ns3:hr>168</ns3:hr><ns3:cad>85</ns3:cad></ns3:TrackPointExtension></extensions></trkpt>
<trkpt lat="56.83572" lon="-4.02470"><ele>333.7</ele><time>2026-04-12T08:48:45Z</time><extensions><ns3:TrackPointExtension><ns3:hr>165</ns3:hr><ns3:cad>85</ns3:cad></ns3:TrackPointExtension></extensions></trkpt>
<trkpt lat="56.83583" lon="-4.02453"><ele>336.2</ele><time>2026-04-12T08:48:55Z</time><extensions><ns3:TrackPointExtension><ns3:hr>164</ns3:hr><ns3:cad>85</ns3:cad></ns3:TrackPointExtension></extensions></trkpt>
<trkpt lat="56.83592" lon="-4.02433"><ele>338.8</ele><time>2026-04-12T08:49:05Z</time><extensions><ns3:TrackPointExtension><ns3:hr>165</ns3:hr><ns3:cad>86</ns3:cad></ns3:TrackPointExtension></extensions></trkpt>
<trkpt lat="56.83601" lon="-4.02412"><ele>341.4</ele><time>2026-04-12T08:49:15Z</time><extensions><ns3:TrackPointExtension><ns3:hr>167</ns3:hr><ns3:cad>86</ns3:cad></ns3:TrackPointExtension></extensions></trkpt>
<trkpt lat="56.83609" lon="-4.02390"><ele>344.0</ele><time>2026-04-12T08:49:25Z</time><extensions><ns3:TrackPointExtension><ns3:hr>168</ns3:hr><ns3:cad>85</ns3:cad></ns3:TrackPointExtension></extensions></trkpt>
<trkpt lat="56.83617" lon="-4.02368"><ele>346.5</ele><time>2026-04-12T08:49:35Z</time><extensions><ns3:TrackPointExtension><ns3:hr>164</ns3:hr><ns3:cad>88</ns3:cad></ns3:TrackPointExtension></extensions></trkpt>
<trkpt lat="56.83624" lon="-4.02346"><ele>349.1</ele><time>2026-04-12T08:49:45Z</time><extensions><ns3:TrackPointExtension><ns3:hr>164</ns3:hr><ns3:cad>88</ns3:cad></ns3:TrackPointExtension></extensions></trkpt>
<trkpt lat="56.83633" lon="-4.02325"><ele>351.7</ele><time>2026-04-12T08:49:55Z</time><extensions><ns3:TrackPointExtension><ns3:hr>164</ns3:hr><ns3:cad>88</ns3:cad></ns3:TrackPointExtension></extensions></trkpt>
<trkpt lat="56.83641" lon="-4.02302"><ele>354.2</ele><time>2026-04-12T08:50:05Z</time><extensions><ns3:TrackPointExtension><ns3:hr>164</ns3:hr><ns3:cad>89</ns3:cad></ns3:TrackPointExtension></extensions></trkpt>
<trkpt lat="56.83649" lon="-4.02280"><ele>356.8</ele><time>2026-04-12T08:50:15Z</time><extensions><ns3:TrackPointExtension><ns3:hr>167</ns3:hr><ns3:cad>87</ns3:cad></ns3:TrackPointExtension></extensions></trkpt>
<trkpt lat="56.83657" lon="-4.02259"><ele>359.4</ele><time>2026-04-12T08:50:25Z</time><extensions><ns3:TrackPointExtension><ns3:hr>165</ns3:hr><ns3:cad>86</ns3:cad></ns3:TrackPointExtension></extensions></trkpt>
<trkpt lat="56.83667" lon="-4.02239"><ele>361.9</ele><time>2026-04-12T08:50:35Z</time><extensions><ns3:TrackPointExtension><ns3:hr>168</ns3:hr><ns3:cad>88</ns3:cad></ns3:TrackPointExtension></extensions></trkpt>
<trkpt lat="56.83677" lon="-4.02222"><ele>364.5</ele><time>2026-04-12T08:50:45Z</time><extensions><ns3:TrackPointExtension><ns3:hr>166</ns3:hr><ns3:cad>86</ns3:cad></ns3:TrackPointExtension></extensions></trkpt>
<trkpt lat="56.83689" lon="-4.02206"><ele>367.1</ele><time>2026-04-12T08:50:55Z</time><extensions><ns3:TrackPointExtension><ns3:hr>167</ns3:hr><ns3:cad>86</ns3:cad></ns3:TrackPointExtension></extensions></trkpt>
<trkpt lat="56.83700" lon="-4.02189"><ele>369.6</ele><time>2026-04-12T08:51:05Z</time><extensions><ns3:TrackPointExtension><ns3:hr>167</ns3:hr><ns3:cad>88</ns3:cad></ns3:TrackPointExtension></extensions></trkpt>
<trkpt lat="56.83711" lon="-4.02171"><ele>372.2</ele><time>2026-04-12T08:51:15Z</time><extensions><ns3:TrackPointExtension><ns3:hr>168</ns3:hr><ns3:cad>89</ns3:cad></ns3:TrackPointExtension></extensions></trkpt>
<trkpt lat="56.83722" lon="-4.02154"><ele>374.8</ele><time>2026-04-12T08:51:25Z</time><extensions><ns3:TrackPointExtension><ns3:hr>168</ns3:hr><ns3:cad>85</ns3:cad></ns3:TrackPointExtension></extensions></trkpt>
<trkpt lat="56.83733" lon="-4.02139"><ele>377.3</ele><time>2026-04-12T08:51:35Z</time><extensions><ns3:TrackPointExtension><ns3:hr>165</ns3:hr><ns3:cad>86</ns3:cad></ns3:TrackPointExtension></extensions></trkpt>
<trkpt lat="56.83746" lon="-4.02124"><ele>379.9</ele><time>2026-04-12T08:51:45Z</time><extensions><ns3:TrackPointExtension><ns3:hr>164</ns3:hr><ns3:cad>88</ns3:cad></ns3:TrackPointExtension></extensions></trkpt>
<trkpt lat="56.83758" lon="-4.02110"><ele>382.5</ele><time>2026-04-12T08:51:55Z</time><extensions><ns3:TrackPointExtension><ns3:hr>168</ns3:hr><ns3:cad>88</ns3:cad></ns3:TrackPointExtension></extensions></trkpt>
<trkpt lat="56.83769" lon="-4.02094"><ele>385.0</ele><time>2026-04-12T08:52:05Z</time><extensions><ns3:TrackPointExtension><ns3:hr>168</ns3:hr><ns3:cad>84</ns3:cad></ns3:TrackPointExtension></extensions></trkpt>
<trkpt lat="56.83781" lon="-4.02079"><ele>387.6</ele><time>2026-04-12T08:52:15Z</time><extensions><ns3:TrackPointExtension><ns3:hr>168</ns3:hr><ns3:cad>88</ns3:cad></ns3:TrackPointExtension></extensions></trkpt>
<trkpt lat="56.83793" lon="-4.02066"><ele>390.2</ele><time>2026-04-12T08:52:25Z</time><extensions><ns3:TrackPointExtension><ns3:hr>168</ns3:hr><ns3:cad>86</ns3:cad></ns3:TrackPointExtension></extensions></trkpt>
<trkpt lat="56.83806" lon="-4.02052"><ele>392.7</ele><time>2026-04-12T08:52:35Z</time><extensions><ns3:TrackPointExtension><ns3:hr>166</ns3:hr><ns3:cad>84</ns3:cad></ns3:TrackPointExtension></extensions></trkpt>
<trkpt lat="56.83818" lon="-4.02038"><ele>395.3</ele><time>2026-04-12T08:52:45Z</time><extensions><ns3:TrackPointExtension><ns3:hr>167</ns3:hr><ns3:cad>86</ns3:cad></ns3:TrackPointExtension></extensions></trkpt>
<trkpt lat="56.83830" lon="-4.02022"><ele>397.9</ele><time>2026-04-12T08:52:55Z</time><extensions><ns3:TrackPointExtension><ns3:hr>167</ns3:hr><ns3:cad>88</ns3:cad></ns3:TrackPointExtension></extensions></trkpt>
<trkpt lat="56.83842" lon="-4.02009"><ele>400.4</ele><time>2026-04-12T08:53:05Z</time><extensions><ns3:TrackPointExtension><ns3:hr>166</ns3:hr><ns3:cad>87</ns3:cad></ns3:TrackPointExtension></extensions></trkpt>
<trkpt lat="56.83854" lon="-4.01994"><ele>403.0</ele><time>2026-04-12T08:53:15Z</time><extensions><ns3:TrackPointExtension><ns3:hr>165</ns3:hr><ns3:cad>84</ns3:cad></ns3:TrackPointExtension></extensions></trkpt>
<trkpt lat="56.83865" lon="-4.01977"><ele>405.6</ele><time>2026-04-12T08:53:25Z</time><extensions><ns3:TrackPointExtension><ns3:hr>168</ns3:hr><ns3:cad>88</ns3:cad></ns3:TrackPointExtension></extensions></trkpt>
<trkpt lat="56.83875" lon="-4.01958"><ele>408.1</ele><time>2026-04-12T08:53:35Z</time><extensions><ns3:TrackPointExtension><ns3:hr>164</ns3:hr><ns3:cad>86</ns3:cad></ns3:TrackPointExtension></extensions></trkpt>
<trkpt lat="56.83886" lon="-4.01941"><ele>410.7</ele><time>2026-04-12T08:53:45Z</time><extensions><ns3:TrackPointExtension><ns3:hr>168</ns3:hr><ns3:cad>89</ns3:cad></ns3:TrackPointExtension></extensions></trkpt>
<trkpt lat="56.83895" lon="-4.01921"><ele>413.3</ele><time>2026-04-12T08:53:55Z</time><extensions><ns3:TrackPointExtension><ns3:hr>167</ns3:hr><ns3:cad>86</ns3:cad></ns3:TrackPointExtension></extensions></trkpt>
<trkpt lat="56.83906" lon="-4.01903"><ele>415.9</ele><time>2026-04-12T08:54:05Z</time><extensions><ns3:TrackPointExtension><ns3:hr>165</ns3:hr><ns3:cad>85</ns3:cad></ns3:TrackPointExtension></extensions></trkpt>
<trkpt lat="56.83916" lon="-4.01884"><ele>418.4</ele><time>2026-04-12T08:54:15Z</time><extensions><ns3:TrackPointExtension><ns3:hr>167</ns3:hr><ns3:cad>89</ns3:cad></ns3:TrackPointExtension></extensions></trkpt>
<trkpt lat="56.83922" lon="-4.01873"><ele>420.0</ele><time>2026-04-12T08:54:21Z</time><extensions><ns3:TrackPointExtension><ns3:hr>164</ns3:hr><ns3:cad>89</ns3:cad></ns3:TrackPointExtension></extensions></trkpt>
<trkpt lat="56.83935" lon="-4.01846"><ele>416.5</ele><time>2026-04-12T08:54:31Z</time><extensions><ns3:TrackPointExtension><ns3:hr>165</ns3:hr><ns3:cad>89</ns3:cad></ns3:TrackPointExtension></extensions></trkpt>
<trkpt lat="56.83947" lon="-4.01817"><ele>413.1</ele><time>2026-04-12T08:54:41Z</time><extensions><ns3:TrackPointExtension><ns3:hr>167</ns3:hr><ns3:cad>86</ns3:cad></ns3:TrackPointExtension></extensions></trkpt>
<trkpt lat="56.83958" lon="-4.01789"><ele>409.6</ele><time>2026-04-12T08:54:51Z</time><extensions><ns3:TrackPointExtension><ns3:hr>165</ns3:hr><ns3:cad>85</ns3:cad></ns3:TrackPointExtension></extensions></trkpt>
<trkpt lat="56.83968" lon="-4.01758"><ele>406.1</ele><time>2026-04-12T08:55:01Z</time><extensions><ns3:TrackPointExtension><ns3:hr>165</ns3:hr><ns3:cad>86</ns3:cad></ns3:TrackPointExtension></extensions></trkpt>
<trkpt lat="56.83978" lon="-4.01728"><ele>402.7</ele><time>2026-04-12T08:55:11Z</time><extensions><ns3:TrackPointExtension><ns3:hr>168</ns3:hr><ns3:cad>89</ns3:cad></ns3:TrackPointExtension></extensions></trkpt>
<trkpt lat="56.83988" lon="-4.01697"><ele>399.2</ele><time>2026-04-12T08:55:21Z</time><extensions><ns3:TrackPointExtension><ns3:hr>167</ns3:hr><ns3:cad>86</ns3:cad></ns3:TrackPointExtension></extensions></trkpt>
<trkpt lat="56.83998" lon="-4.01666"><ele>395.7</ele><time>2026-04-12T08:55:31Z</time><extensions><ns3:TrackPointExtension><ns3:hr>168</ns3:hr><ns3:cad>86</ns3:cad></ns3:TrackPointExtension></extensions></trkpt>
<trkpt lat="56.84009" lon="-4.01637"><ele>392.3</ele><time>2026-04-12T08:55:41Z</time><extensions><ns3:TrackPointExtension><ns3:hr>166</ns3:hr><ns3:cad>84</ns3:cad></ns3:TrackPointExtension></extensions></trkpt>
<trkpt lat="56.84020" lon="-4.01608"><ele>388.8</ele><time>2026-04-12T08:55:51Z</time><extensions><ns3:TrackPointExtension><ns3:hr>166</ns3:hr><ns3:cad>85</ns3:cad></ns3:TrackPointExtension></extensions></trkpt>
<trkpt lat="56.84032" lon="-4.01580"><ele>385.3</ele><time>2026-04-12T08:56:01Z</time><extensions><ns3:TrackPointExtension><ns3:hr>165</ns3:hr><ns3:cad>85</ns3:cad></ns3:TrackPointExtension></extensions></trkpt>
<trkpt lat="56.84045" lon="-4.01554"><ele>381.9</ele><time>2026-04-12T08:56:11Z</time><extensions><ns3:TrackPointExtension><ns3:hr>164</ns3:hr><ns3:cad>85</ns3:cad></ns3:TrackPointExtension></extensions></trkpt>
<trkpt lat="56.84057" lon="-4.01526"><ele>378.4</ele><time>2026-04-12T08:56:21Z</time><extensions><ns3:TrackPointExtension><ns3:hr>164</ns3:hr><ns3:cad>85</ns3:cad></ns3:TrackPointExtension></extensions></trkpt>
<trkpt lat="56.84067" lon="-4.01495"><ele>374.9</ele><time>2026-04-12T08:56:31Z</time><extensions><ns3:TrackPointExtension><ns3:hr>166</ns3:hr><ns3:cad>88</ns3:cad></ns3:TrackPointExtension></extensions></trkpt>
<trkpt lat="56.84078" lon="-4.01465"><ele>371.5</ele><time>2026-04-12T08:56:41Z</time><extensions><ns3:TrackPointExtension><ns3:hr>168</ns3:hr><ns3:cad>88</ns3:cad></ns3:TrackPointExtension></extensions></trkpt>
<trkpt lat="56.84089" lon="-4.01437"><ele>368.0</ele><time>2026-04-12T08:56:51Z</time><extensions><ns3:TrackPointExtension><ns3:hr>168</ns3:hr><ns3:cad>88</ns3:cad></ns3:TrackPointExtension></extensions></trkpt>
<trkpt lat="56.84099" lon="-4.01406"><ele>364.5</ele><time>2026-04-12T08:57:01Z</time><extensions><ns3:TrackPointExtension><ns3:hr>166</ns3:hr><ns3:cad>87</ns3:cad></ns3:TrackPointExtension></extensions></trkpt>
<trkpt lat="56.84110" lon="-4.01376"><ele>361.1</ele><time>2026-04-12T08:57:11Z</time><extensions><ns3:TrackPointExtension><ns3:hr>168</ns3:hr><ns3:cad>88</ns3:cad></ns3:TrackPointExtension></extensions></trkpt>
<trkpt lat="56.84118" lon="-4.01344"><ele>357.6</ele><time>2026-04-12T08:57:21Z</time><extensions><ns3:TrackPointExtension><ns3:hr>168</ns3:hr><ns3:cad>85</ns3:cad></ns3:TrackPointExtension></extensions></trkpt>
<trkpt lat="56.84128" lon="-4.01314"><ele>354.2</ele><time>2026-04-12T08:57:31Z</time><extensions><ns3:TrackPointExtension><ns3:hr>165</ns3:hr><ns3:cad>85</ns3:cad></ns3:TrackPointExtension></extensions></trkpt>
<trkpt lat="56.84137" lon="-4.01282"><ele>350.7</ele><time>2026-04-12T08:57:41Z</time><extensions><ns3:TrackPointExtension><ns3:hr>168</ns3:hr><ns3:cad>85</ns3:cad></ns3:TrackPointExtension></extensions></trkpt>
<trkpt lat="56.84145" lon="-4.01249"><ele>347.2</ele><time>2026-04-12T08:57:51Z</time><extensions><ns3:TrackPointExtension><ns3:hr>164</ns3:hr><ns3:cad>86</ns3:cad></ns3:TrackPointExtension></extensions></trkpt>
<trkpt lat="56.84154" lon="-4.01218"><ele>343.8</ele><time>2026-04-12T08:58:01Z</time><extensions><ns3:TrackPointExtension><ns3:hr>167</ns3:hr><ns3:cad>88</ns3:cad></ns3:TrackPointExtension></extensions></trkpt>
<trkpt lat="56.84163" lon="-4.01186"><ele>340.3</ele><time>2026-04-12T08:58:11Z</time><extensions><ns3:TrackPointExtension><ns3:hr>167</ns3:hr><ns3:cad>84</ns3:cad></ns3:TrackPointExtension></extensions></trkpt>
<trkpt lat="56.84172" lon="-4.01155"><ele>336.8</ele><time>2026-04-12T08:58:21Z</time><extensions><ns3:TrackPointExtension><ns3:hr>164</ns3:hr><ns3:cad>89</ns3:cad></ns3:TrackPointExtension></extensions></trkpt>
<trkpt lat="56.84181" lon="-4.01123"><ele>333.4</ele><time>2026-04-12T08:58:31Z</time><extensions><ns3:TrackPointExtension><ns3:hr>166</ns3:hr><ns3:cad>89</ns3:cad></ns3:TrackPointExtension></extensions></trkpt>
<trkpt lat="56.84188" lon="-4.01090"><ele>329.9</ele><time>2026-04-12T08:58:41Z</time><extensions><ns3:TrackPointExtension><ns3:hr>167</ns3:hr><ns3:cad>86</ns3:cad></ns3:TrackPointExtension></extensions></trkpt>
<trkpt lat="56.84193" lon="-4.01056"><ele>326.4</ele><time>2026-04-12T08:58:51Z</time><extensions><ns3:TrackPointExtension><ns3:hr>164</ns3:hr><ns3:cad>88</ns3:cad></ns3:TrackPointExtension></extensions></trkpt>
<trkpt lat="56.84197" lon="-4.01021"><ele>323.0</ele><time>2026-04-12T08:59:01Z</time><extensions><ns3:TrackPointExtension><ns3:hr>168</ns3:hr><ns3:cad>88</ns3:cad></ns3:TrackPointExtension></extensions></trkpt>
<trkpt lat="56.84200" lon="-4.00986"><ele>319.5</ele><time>2026-04-12T08:59:11Z</time><extensions><ns3:TrackPointExtension><ns3:hr>166</ns3:hr><ns3:cad>87</ns3:cad></ns3:TrackPointExtension></extensions></trkpt>
<trkpt lat="56.84203" lon="-4.00951"><ele>316.0</ele><time>2026-04-12T08:59:21Z</time><extensions><ns3:TrackPointExtension><ns3:hr>167</ns3:hr><ns3:cad>88</ns3:cad></ns3:TrackPointExtension></extensions></trkpt>
<trkpt lat="56.84204" lon="-4.00915"><ele>312.6</ele><time>2026-04-12T08:59:31Z</time><extensions><ns3:TrackPointExtension><ns3:hr>168</ns3:hr><ns3:cad>88</ns3:cad></ns3:TrackPointExtension></extensions></trkpt>
<trkpt lat="56.84202" lon="-4.00880"><ele>309.1</ele><time>2026-04-12T08:59:41Z</time><extensions><ns3:TrackPointExtension><ns3:hr>168</ns3:hr><ns3:cad>85</ns3:cad></ns3:TrackPointExtension></extensions></trkpt>
<trkpt lat="56.84202" lon="-4.00868"><ele>308.0</ele><time>2026-04-12T08:59:44Z</time><extensions><ns3:TrackPointExtension><ns3:hr>166</ns3:hr><ns3:cad>89</ns3:cad></ns3:TrackPointExtension></extensions></trkpt>
<trkpt lat="56.84200" lon="-4.00842"><ele>310.6</ele><time>2026-04-12T08:59:54Z</time><extensions><ns3:TrackPointExtension><ns3:hr>169</ns3:hr><ns3:cad>84</ns3:cad></ns3:TrackPointExtension></extensions></trkpt>
<trkpt lat="56.84199" lon="-4.00816"><ele>313.1</ele><time>2026-04-12T09:00:04Z</time><extensions><ns3:TrackPointExtension><ns3:hr>169</ns3:hr><ns3:cad>86</ns3:cad></ns3:TrackPointExtension></extensions></trkpt>
<trkpt lat="56.84197" lon="-4.00790"><ele>315.7</ele><time>2026-04-12T09:00:14Z</time><extensions><ns3:TrackPointExtension><ns3:hr>164</ns3:hr><ns3:cad>85</ns3:cad></ns3:TrackPointExtension></extensions></trkpt>
<trkpt lat="56.84194" lon="-4.00764"><ele>318.3</ele><time>2026-04-12T09:00:24Z</time><extensions><ns3:TrackPointExtension><ns3:hr>166</ns3:hr><ns3:cad>89</ns3:cad></ns3:TrackPointExtension></extensions></trkpt>
<trkpt lat="56.84190" lon="-4.00738"><ele>320.8</ele><time>2026-04-12T09:00:34Z</time><extensions><ns3:TrackPointExtension><ns3:hr>165</ns3:hr><ns3:cad>86</ns3:cad></ns3:TrackPointExtension></extensions></trkpt>
<trkpt lat="56.84188" lon="-4.00712"><ele>323.4</ele><time>2026-04-12T09:00:44Z</time><extensions><ns3:TrackPointExtension><ns3:hr>166</ns3:hr><ns3:cad>88</ns3:cad></ns3:TrackPointExtension></extensions></trkpt>
<trkpt lat="56.84187" lon="-4.00686"><ele>326.0</ele><time>2026-04-12T09:00:54Z</time><extensions><ns3:TrackPointExtension><ns3:hr>166</ns3:hr><ns3:cad>85</ns3:cad></ns3:TrackPointExtension></extensions></trkpt>
<trkpt lat="56.84187" lon="-4.00660"><ele>328.5</ele><time>2026-04-12T09:01:04Z</time><extensions><ns3:TrackPointExtension><ns3:hr>168</ns3:hr><ns3:cad>87</ns3:cad></ns3:TrackPointExtension></extensions></trkpt>
<trkpt lat="56.84186" lon="-4.00633"><ele>331.1</ele><time>2026-04-12T09:01:14Z</time><extensions><ns3:TrackPointExtension><ns3:hr>168</ns3:hr><ns3:cad>87</ns3:cad></ns3:TrackPointExtension></extensions></trkpt>
<trkpt lat="56.84184" lon="-4.00607"><ele>333.7</ele><time>2026-04-12T09:01:24Z</time><extensions><ns3:TrackPointExtension><ns3:hr>164</ns3:hr><ns3:cad>85</ns3:cad></ns3:TrackPointExtension></extensions></trkpt>
<trkpt lat="56.84182" lon="-4.00581"><ele>336.2</ele><time>2026-04-12T09:01:34Z</time><extensions><ns3:TrackPointExtension><ns3:hr>168</ns3:hr><ns3:cad>88</ns3:cad></ns3:TrackPointExtension></extensions></trkpt>
<trkpt lat="56.84179" lon="-4.00555"><ele>338.8</ele><time>2026-04-12T09:01:44Z</time><extensions><ns3:TrackPointExtension><ns3:hr>167</ns3:hr><ns3:cad>87</ns3:cad></ns3:TrackPointExtension></extensions></trkpt>
<trkpt lat="56.84177" lon="-4.00530"><ele>341.4</ele><time>2026-04-12T09:01:54Z</time><extensions><ns3:TrackPointExtension><ns3:hr>168</ns3:hr><ns3:cad>86</ns3:cad></ns3:TrackPointExtension></extensions></trkpt>
<trkpt lat="56.84173" lon="-4.00504"><ele>344.0</ele><time>2026-04-12T09:02:04Z</time><extensions><ns3:TrackPointExtension><ns3:hr>168</ns3:hr><ns3:cad>86</ns3:cad></ns3:TrackPointExtension></extensions></trkpt>
<trkpt lat="56.84170" lon="-4.00478"><ele>346.5</ele><time>2026-04-12T09:02:14Z</time><extensions><ns3:TrackPointExtension><ns3:hr>165</ns3:hr><ns3:cad>88</ns3:cad></ns3:TrackPointExtension></extensions></trkpt>
<trkpt lat="56.84167" lon="-4.00452"><ele>349.1</ele><time>2026-04-12T09:02:24Z</time><extensions><ns3:TrackPointExtension><ns3:hr>165</ns3:hr><ns3:cad>85</ns3:cad></ns3:TrackPointExtension></extensions></trkpt>
<trkpt lat="56.84165" lon="-4.00426"><ele>351.7</ele><time>2026-04-12T09:02:34Z</time><extensions><ns3:TrackPointExtension><ns3:hr>164</ns3:hr><ns3:cad>86</ns3:cad></ns3:TrackPointExtension></extensions></trkpt>
<trkpt lat="56.84163" lon="-4.00400"><ele>354.2</ele><time>2026-04-12T09:02:44Z</time><extensions><ns3:TrackPointExtension><ns3:hr>165</ns3:hr><ns3:cad>88</ns3:cad></ns3:TrackPointExtension></extensions></trkpt>
<trkpt lat="56.84161" lon="-4.00374"><ele>356.8</ele><time>2026-04-12T09:02:54Z</time><extensions><ns3:TrackPointExtension><ns3:hr>166</ns3:hr><ns3:cad>89</ns3:cad></ns3:TrackPointExtension></extensions></trkpt>
<trkpt lat="56.84160" lon="-4.00348"><ele>359.4</ele><time>2026-04-12T09:03:04Z</time><extensions><ns3:TrackPointExtension><ns3:hr>168</ns3:hr><ns3:cad>87</ns3:cad></ns3:TrackPointExtension></extensions></trkpt>
<trkpt lat="56.84160" lon="-4.00322"><ele>361.9</ele><time>2026-04-12T09:03:14Z</time><extensions><ns3:TrackPointExtension><ns3:hr>166</ns3:hr><ns3:cad>88</ns3:cad></ns3:TrackPointExtension></extensions></trkpt>
<trkpt lat="56.84160" lon="-4.00295"><ele>364.5</ele><time>2026-04-12T09:03:24Z</time><extensions><ns3:TrackPointExtension><ns3:hr>167</ns3:hr><ns3:cad>89</ns3:cad></ns3:TrackPointExtension></extensions></trkpt>
<trkpt lat="56.84161" lon="-4.00269"><ele>367.1</ele><time>2026-04-12T09:03:34Z</time><extensions><ns3:TrackPointExtension><ns3:hr>167</ns3:hr><ns3:cad>87</ns3:cad></ns3:TrackPointExtension></extensions></trkpt>
<trkpt lat="56.84161" lon="-4.00243"><ele>369.6</ele><time>2026-04-12T09:03:44Z</time><extensions><ns3:TrackPointExtension><ns3:hr>168</ns3:hr><ns3:cad>87</ns3:cad></ns3:TrackPointExtension></extensions></trkpt>
<trkpt lat="56.84163" lon="-4.00216"><ele>372.2</ele><time>2026-04-12T09:03:54Z</time><extensions><ns3:TrackPointExtension><ns3:hr>165</ns3:hr><ns3:cad>89</ns3:cad></ns3:TrackPointExtension></extensions></trkpt>
<trkpt lat="56.84166" lon="-4.00191"><ele>374.8</ele><time>2026-04-12T09:04:04Z</time><extensions><ns3:TrackPointExtension><ns3:hr>168</ns3:hr><ns3:cad>86</ns3:cad></ns3:TrackPointExtension></extensions></trkpt>
<trkpt lat="56.84168" lon="-4.00164"><ele>377.3</ele><time>2026-04-12T09:04:14Z</time><extensions><ns3:TrackPointExtension><ns3:hr>167</ns3:hr><ns3:cad>84</ns3:cad></ns3:TrackPointExtension></extensions></trkpt>
<trkpt lat="56.84170" lon="-4.00138"><ele>379.9</ele><time>2026-04-12T09:04:24Z</time><extensions><ns3:TrackPointExtension><ns3:hr>165</ns3:hr><ns3:cad>87</ns3:cad></ns3:TrackPointExtension></extensions></trkpt>
<trkpt lat="56.84172" lon="-4.00112"><ele>382.5</ele><time>2026-04-12T09:04:34Z</time><extensions><ns3:TrackPointExtension><ns3:hr>169</ns3:hr><ns3:cad>86</ns3:cad></ns3:TrackPointExtension></extensions></trkpt>
<trkpt lat="56.84175" lon="-4.00087"><ele>385.0</ele><time>2026-04-12T09:04:44Z</time><extensions><ns3:TrackPointExtension><ns3:hr>167</ns3:hr><ns3:cad>84</ns3:cad></ns3:TrackPointExtension></extensions></trkpt>
<trkpt lat="56.84177" lon="-4.00061"><ele>387.6</ele><time>2026-04-12T09:04:54Z</time><extensions><ns3:TrackPointExtension><ns3:hr>168</ns3:hr><ns3:cad>85</ns3:cad></ns3:TrackPointExtension></extensions></trkpt>
<trkpt lat="56.84179" lon="-4.00034"><ele>390.2</ele><time>2026-04-12T09:05:04Z</time><extensions><ns3:TrackPointExtension><ns3:hr>165</ns3:hr><ns3:cad>88</ns3:cad></ns3:TrackPointExtension></extensions></trkpt>
<trkpt lat="56.84178" lon="-4.00008"><ele>392.7</ele><time>2026-04-12T09:05:14Z</time><extensions><ns3:TrackPointExtension><ns3:hr>166</ns3:hr><ns3:cad>85</ns3:cad></ns3:TrackPointExtension></extensions></trkpt>
<trkpt lat="56.84178" lon="-3.99982"><ele>395.3</ele><time>2026-04-12T09:05:24Z</time><extensions><ns3:TrackPointExtension><ns3:hr>169</ns3:hr><ns3:cad>84</ns3:cad></ns3:TrackPointExtension></extensions></trkpt>
<trkpt lat="56.84178" lon="-3.99955"><ele>397.9</ele><time>2026-04-12T09:05:34Z</time><extensions><ns3:TrackPointExtension><ns3:hr>168</ns3:hr><ns3:cad>84</ns3:cad></ns3:TrackPointExtension></extensions></trkpt>
<trkpt lat="56.84181" lon="-3.99929"><ele>400.4</ele><time>2026-04-12T09:05:44Z</time><extensions><ns3:TrackPointExtension><ns3:hr>167</ns3:hr><ns3:cad>84</ns3:cad></ns3:TrackPointExtension></extensions></trkpt>
<trkpt lat="56.84185" lon="-3.99904"><ele>403.0</ele><time>2026-04-12T09:05:54Z</time><extensions><ns3:TrackPointExtension><ns3:hr>167</ns3:hr><ns3:cad>86</ns3:cad></ns3:TrackPointExtension></extensions></trkpt>
<trkpt lat="56.84190" lon="-3.99880"><ele>405.6</ele><time>2026-04-12T09:06:04Z</time><extensions><ns3:TrackPointExtension><ns3:hr>167</ns3:hr><ns3:cad>89</ns3:cad></ns3:TrackPointExtension></extensions></trkpt>
<trkpt lat="56.84195" lon="-3.99855"><ele>408.1</ele><time>2026-04-12T09:06:14Z</time><extensions><ns3:TrackPointExtension><ns3:hr>166</ns3:hr><ns3:cad>88</ns3:cad></ns3:TrackPointExtension></extensions></trkpt>
<trkpt lat="56.84198" lon="-3.99829"><ele>410.7</ele><time>2026-04-12T09:06:24Z</time><extensions><ns3:TrackPointExtension><ns3:hr>167</ns3:hr><ns3:cad>85</ns3:cad></ns3:TrackPointExtension></extensions></trkpt>
<trkpt lat="56.84201" lon="-3.99803"><ele>413.3</ele><time>2026-04-12T09:06:34Z</time><extensions><ns3:TrackPointExtension><ns3:hr>167</ns3:hr><ns3:cad>85</ns3:cad></ns3:TrackPointExtension></extensions></trkpt>
<trkpt lat="56.84202" lon="-3.99777"><ele>415.9</ele><time>2026-04-12T09:06:44Z</time><extensions><ns3:TrackPointExtension><ns3:hr>165</ns3:hr><ns3:cad>85</ns3:cad></ns3:TrackPointExtension></extensions></trkpt>
<trkpt lat="56.84204" lon="-3.99751"><ele>418.4</ele><time>2026-04-12T09:06:54Z</time><extensions><ns3:TrackPointExtension><ns3:hr>167</ns3:hr><ns3:cad>86</ns3:cad></ns3:TrackPointExtension></extensions></trkpt>
<trkpt lat="56.84207" lon="-3.99735"><ele>420.0</ele><time>2026-04-12T09:07:00Z</time><extensions><ns3:TrackPointExtension><ns3:hr>168</ns3:hr><ns3:cad>86</ns3:cad></ns3:TrackPointExtension></extensions></trkpt>
<trkpt lat="56.84211" lon="-3.99700"><ele>416.5</ele><time>2026-04-12T09:07:10Z</time><extensions><ns3:TrackPointExtension><ns3:hr>169</ns3:hr><ns3:cad>89</ns3:cad></ns3:TrackPointExtension></extensions></trkpt>
<trkpt lat="56.84213" lon="-3.99665"><ele>413.1</ele><time>2026-04-12T09:07:20Z</time><extensions><ns3:TrackPointExtension><ns3:hr>165</ns3:hr><ns3:cad>88</ns3:cad></ns3:TrackPointExtension></extensions></trkpt>
<trkpt lat="56.84216" lon="-3.99630"><ele>409.6</ele><time>2026-04-12T09:07:30Z</time><extensions><ns3:TrackPointExtension><ns3:hr>166</ns3:hr><ns3:cad>84</ns3:cad></ns3:TrackPointExtension></extensions></trkpt>
<trkpt lat="56.84218" lon="-3.99595"><ele>406.1</ele><time>2026-04-12T09:07:40Z</time><extensions><ns3:TrackPointExtension><ns3:hr>167</ns3:hr><ns3:cad>89</ns3:cad></ns3:TrackPointExtension></extensions></trkpt>
<trkpt lat="56.84219" lon="-3.99559"><ele>402.7</ele><time>2026-04-12T09:07:50Z</time><extensions><ns3:TrackPointExtension><ns3:hr>166</ns3:hr><ns3:cad>87</ns3:cad></ns3:TrackPointExtension></extensions></trkpt>
<trkpt lat="56.84220" lon="-3.99524"><ele>399.2</ele><time>2026-04-12T09:08:00Z</time><extensions><ns3:TrackPointExtension><ns3:hr>169</ns3:hr><ns3:cad>86</ns3:cad></ns3:TrackPointExtension></extensions></trkpt>
<trkpt lat="56.84224" lon="-3.99488"><ele>395.7</ele><time>2026-04-12T09:08:10Z</time><extensions><ns3:TrackPointExtension><ns3:hr>166</ns3:hr><ns3:cad>85</ns3:cad></ns3:TrackPointExtension></extensions></trkpt>
<trkpt lat="56.84225" lon="-3.99453"><ele>392.3</ele><time>2026-04-12T09:08:20Z</time><extensions><ns3:TrackPointExtension><ns3:hr>169</ns3:hr><ns3:cad>86</ns3:cad></ns3:TrackPointExtension></extensions></trkpt>
<trkpt lat="56.84224" lon="-3.99417"><ele>388.8</ele><time>2026-04-12T09:08:30Z</time><extensions><ns3:TrackPointExtension><ns3:hr>167</ns3:hr><ns3:cad>88</ns3:cad></ns3:TrackPointExtension></extensions></trkpt>
<trkpt lat="56.84224" lon="-3.99382"><ele>385.3</ele><time>2026-04-12T09:08:40Z</time><extensions><ns3:TrackPointExtension><ns3:hr>166</ns3:hr><ns3:cad>89</ns3:cad></ns3:TrackPointExtension></extensions></trkpt>
<trkpt lat="56.84226" lon="-3.99346"><ele>381.9</ele><time>2026-04-12T09:08:50Z</time><extensions><ns3:TrackPointExtension><ns3:hr>166</ns3:hr><ns3:cad>85</ns3:cad></ns3:TrackPointExtension></extensions></trkpt>
<trkpt lat="56.84227" lon="-3.99311"><ele>378.4</ele><time>2026-04-12T09:09:00Z</time><extensions><ns3:TrackPointExtension><ns3:hr>167</ns3:hr><ns3:cad>87</ns3:cad></ns3:TrackPointExtension></extensions></trkpt>
<trkpt lat="56.84227" lon="-3.99275"><ele>374.9</ele><time>2026-04-12T09:09:10Z</time><extensions><ns3:TrackPointExtension><ns3:hr>165</ns3:hr><ns3:cad>88</ns3:cad></ns3:TrackPointExtension></extensions></trkpt>
<trkpt lat="56.84224" lon="-3.99240"><ele>371.5</ele><time>2026-04-12T09:09:20Z</time><extensions><ns3:TrackPointExtension><ns3:hr>165</ns3:hr><ns3:cad>84</ns3:cad></ns3:TrackPointExtension></extensions></trkpt>
<trkpt lat="56.84224" lon="-3.99204"><ele>368.0</ele><time>2026-04-12T09:09:30Z</time><extensions><ns3:TrackPointExtension><ns3:hr>166</ns3:hr><ns3:cad>87</ns3:cad></ns3:TrackPointExtension></extensions></trkpt>
<trkpt lat="56.84223" lon="-3.99169"><ele>364.5</ele><time>2026-04-12T09:09:40Z</time><extensions><ns3:TrackPointExtension><ns3:hr>168</ns3:hr><ns3:cad>86</ns3:cad></ns3:TrackPointExtension></extensions></trkpt>
<trkpt lat="56.84221" lon="-3.99134"><ele>361.1</ele><time>2026-04-12T09:09:50Z</time><extensions><ns3:TrackPointExtension><ns3:hr>165</ns3:hr><ns3:cad>85</ns3:cad></ns3:TrackPointExtension></extensions></trkpt>
<trkpt lat="56.84220" lon="-3.99098"><ele>357.6</ele><time>2026-04-12T09:10:00Z</time><extensions><ns3:TrackPointExtension><ns3:hr>167</ns3:hr><ns3:cad>86</ns3:cad></ns3:TrackPointExtension></extensions></trkpt>
<trkpt lat="56.84219" lon="-3.99062"><ele>354.2</ele><time>2026-04-12T09:10:10Z</time><extensions><ns3:TrackPointExtension><ns3:hr>164</ns3:hr><ns3:cad>86</ns3:cad></ns3:TrackPointExtension></extensions></trkpt>
<trkpt lat="56.84220" lon="-3.99027"><ele>350.7</ele><time>2026-04-12T09:10:20Z</time><extensions><ns3:TrackPointExtension><ns3:hr>166</ns3:hr><ns3:cad>86</ns3:cad></ns3:TrackPointExtension></extensions></trkpt>
<trkpt lat="56.84220" lon="-3.98991"><ele>347.2</ele><time>2026-04-12T09:10:30Z</time><extensions><ns3:TrackPointExtension><ns3:hr>166</ns3:hr><ns3:cad>88</ns3:cad></ns3:TrackPointExtension></extensions></trkpt>
<trkpt lat="56.84220" lon="-3.98956"><ele>343.8</ele><time>2026-04-12T09:10:40Z</time><extensions><ns3:TrackPointExtension><ns3:hr>168</ns3:hr><ns3:cad>86</ns3:cad></ns3:TrackPointExtension></extensions></trkpt>
<trkpt lat="56.84222" lon="-3.98920"><ele>340.3</ele><time>2026-04-12T09:10:50Z</time><extensions><ns3:TrackPointExtension><ns3:hr>168</ns3:hr><ns3:cad>85</ns3:cad></ns3:TrackPointExtension></extensions></trkpt>
<trkpt lat="56.84224" lon="-3.98885"><ele>336.8</ele><time>2026-04-12T09:11:00Z</time><extensions><ns3:TrackPointExtension><ns3:hr>166</ns3:hr><ns3:cad>84</ns3:cad></ns3:TrackPointExtension></extensions></trkpt>
<trkpt lat="56.84229" lon="-3.98850"><ele>333.4</ele><time>2026-04-12T09:11:10Z</time><extensions><ns3:TrackPointExtension><ns3:hr>167</ns3:hr><ns3:cad>89</ns3:cad></ns3:TrackPointExtension></extensions></trkpt>
<trkpt lat="56.84235" lon="-3.98817"><ele>329.9</ele><time>2026-04-12T09:11:20Z</time><extensions><ns3:TrackPointExtension><ns3:hr>165</ns3:hr><ns3:cad>84</ns3:cad></ns3:TrackPointExtension></extensions></trkpt>
<trkpt lat="56.84240" lon="-3.98782"><ele>326.4</ele><time>2026-04-12T09:11:30Z</time><extensions><ns3:TrackPointExtension><ns3:hr>168</ns3:hr><ns3:cad>88</ns3:cad></ns3:TrackPointExtension></extensions></trkpt>
<trkpt lat="56.84245" lon="-3.98748"><ele>323.0</ele><time>2026-04-12T09:11:40Z</time><extensions><ns3:TrackPointExtension><ns3:hr>168</ns3:hr><ns3:cad>88</ns3:cad></ns3:TrackPointExtension></extensions></trkpt>
<trkpt lat="56.84251" lon="-3.98714"><ele>319.5</ele><time>2026-04-12T09:11:50Z</time><extensions><ns3:TrackPointExtension><ns3:hr>168</ns3:hr><ns3:cad>88</ns3:cad></ns3:TrackPointExtension></extensions></trkpt>
<trkpt lat="56.84259" lon="-3.98682"><ele>316.0</ele><time>2026-04-12T09:12:00Z</time><extensions><ns3:TrackPointExtension><ns3:hr>169</ns3:hr><ns3:cad>84</ns3:cad></ns3:TrackPointExtension></extensions></trkpt>
<trkpt lat="56.84267" lon="-3.98649"><ele>312.6</ele><time>2026-04-12T09:12:10Z</time><extensions><ns3:TrackPointExtension><ns3:hr>168</ns3:hr><ns3:cad>89</ns3:cad></ns3:TrackPointExtension></extensions></trkpt>
<trkpt lat="56.84275" lon="-3.98617"><ele>309.1</ele><time>2026-04-12T09:12:20Z</time><extensions><ns3:TrackPointExtension><ns3:hr>168</ns3:hr><ns3:cad>88</ns3:cad></ns3:TrackPointExtension></extensions></trkpt>
<trkpt lat="56.84278" lon="-3.98607"><ele>308.0</ele><time>2026-04-12T09:12:24Z</time><extensions><ns3:TrackPointExtension><ns3:hr>169</ns3:hr><ns3:cad>89</ns3:cad></ns3:TrackPointExtension></extensions></trkpt>
<trkpt lat="56.84289" lon="-3.98558"><ele>307.7</ele><time>2026-04-12T09:12:34Z</time><extensions><ns3:TrackPointExtension><ns3:hr>167</ns3:hr><ns3:cad>87</ns3:cad></ns3:TrackPointExtension></extensions></trkpt>
<trkpt lat="56.84302" lon="-3.98510"><ele>307.4</ele><time>2026-04-12T09:12:44Z</time><extensions><ns3:TrackPointExtension><ns3:hr>168</ns3:hr><ns3:cad>87</ns3:cad></ns3:TrackPointExtension></extensions></trkpt>
<trkpt lat="56.84312" lon="-3.98461"><ele>307.0</ele><time>2026-04-12T09:12:54Z</time><extensions><ns3:TrackPointExtension><ns3:hr>166</ns3:hr><ns3:cad>85</ns3:cad></ns3:TrackPointExtension></extensions></trkpt>
<trkpt lat="56.84320" lon="-3.98409"><ele>306.7</ele><time>2026-04-12T09:13:04Z</time><extensions><ns3:TrackPointExtension><ns3:hr>166</ns3:hr><ns3:cad>85</ns3:cad></ns3:TrackPointExtension></extensions></trkpt>
<trkpt lat="56.84330" lon="-3.98359"><ele>306.4</ele><time>2026-04-12T09:13:14Z</time><extensions><ns3:TrackPointExtension><ns3:hr>167</ns3:hr><ns3:cad>88</ns3:cad></ns3:TrackPointExtension></extensions></trkpt>
<trkpt lat="56.84339" lon="-3.98309"><ele>306.1</ele><time>2026-04-12T09:13:24Z</time><extensions><ns3:TrackPointExtension><ns3:hr>167</ns3:hr><ns3:cad>85</ns3:cad></ns3:TrackPointExtension></extensions></trkpt>
<trkpt lat="56.84351" lon="-3.98260"><ele>305.7</ele><time>2026-04-12T09:13:34Z</time><extensions><ns3:TrackPointExtension><ns3:hr>167</ns3:hr><ns3:cad>88</ns3:cad></ns3:TrackPointExtension></extensions></trkpt>
<trkpt lat="56.84365" lon="-3.98214"><ele>305.4</ele><time>2026-04-12T09:13:44Z</time><extensions><ns3:TrackPointExtension><ns3:hr>169</ns3:hr><ns3:cad>85</ns3:cad></ns3:TrackPointExtension></extensions></trkpt>
<trkpt lat="56.84381" lon="-3.98170"><ele>305.1</ele><time>2026-04-12T09:13:54Z</time><extensions><ns3:TrackPointExtension><ns3:hr>168</ns3:hr><ns3:cad>86</ns3:cad></ns3:TrackPointExtension></extensions></trkpt>
<trkpt lat="56.84400" lon="-3.98129"><ele>304.8</ele><time>2026-04-12T09:14:04Z</time><extensions><ns3:TrackPointExtension><ns3:hr>166</ns3:hr><ns3:cad>89</ns3:cad></ns3:TrackPointExtension></extensions></trkpt>
<trkpt lat="56.84422" lon="-3.98093"><ele>304.4</ele><time>2026-04-12T09:14:14Z</time><extensions><ns3:TrackPointExtension><ns3:hr>168</ns3:hr><ns3:cad>84</ns3:cad></ns3:TrackPointExtension></extensions></trkpt>
<trkpt lat="56.84444" lon="-3.98059"><ele>304.1</ele><time>2026-04-12T09:14:24Z</time><extensions><ns3:TrackPointExtension><ns3:hr>169</ns3:hr><ns3:cad>88</ns3:cad></ns3:TrackPointExtension></extensions></trkpt>
<trkpt lat="56.84466" lon="-3.98024"><ele>303.8</ele><time>2026-04-12T09:14:34Z</time><extensions><ns3:TrackPointExtension><ns3:hr>169</ns3:hr><ns3:cad>86</ns3:cad></ns3:TrackPointExtension></extensions></trkpt>
<trkpt lat="56.84490" lon="-3.97994"><ele>303.5</ele><time>2026-04-12T09:14:44Z</time><extensions><ns3:TrackPointExtension><ns3:hr>167</ns3:hr><ns3:cad>88</ns3:cad></ns3:TrackPointExtension></extensions></trkpt>
<trkpt lat="56.84512" lon="-3.97961"><ele>303.1</ele><time>2026-04-12T09:14:54Z</time><extensions><ns3:TrackPointExtension><ns3:hr>169</ns3:hr><ns3:cad>87</ns3:cad></ns3:TrackPointExtension></extensions></trkpt>
<trkpt lat="56.84533" lon="-3.97923"><ele>302.8</ele><time>2026-04-12T09:15:04Z</time><extensions><ns3:TrackPointExtension><ns3:hr>169</ns3:hr><ns3:cad>85</ns3:cad></ns3:TrackPointExtension></extensions></trkpt>
<trkpt lat="56.84552" lon="-3.97883"><ele>302.5</ele><time>2026-04-12T09:15:14Z</time><extensions><ns3:TrackPointExtension><ns3:hr>166</ns3:hr><ns3:cad>89</ns3:cad></ns3:TrackPointExtension></extensions></trkpt>
<trkpt lat="56.84568" lon="-3.97839"><ele>302.2</ele><time>2026-04-12T09:15:24Z</time><extensions><ns3:TrackPointExtension><ns3:hr>166</ns3:hr><ns3:cad>85</ns3:cad></ns3:TrackPointExtension></extensions></trkpt>
<trkpt lat="56.84587" lon="-3.97799"><ele>301.8</ele><time>2026-04-12T09:15:34Z</time><extensions><ns3:TrackPointExtension><ns3:hr>168</ns3:hr><ns3:cad>87</ns3:cad></ns3:TrackPointExtension></extensions></trkpt>
<trkpt lat="56.84604" lon="-3.97755"><ele>301.5</ele><time>2026-04-12T09:15:44Z</time><extensions><ns3:TrackPointExtension><ns3:hr>165</ns3:hr><ns3:cad>86</ns3:cad></ns3:TrackPointExtension></extensions></trkpt>
<trkpt lat="56.84622" lon="-3.97714"><ele>301.2</ele><time>2026-04-12T09:15:54Z</time><extensions><ns3:TrackPointExtension><ns3:hr>167</ns3:hr><ns3:cad>88</ns3:cad></ns3:TrackPointExtension></extensions></trkpt>
<trkpt lat="56.84639" lon="-3.97670"><ele>300.9</ele><time>2026-04-12T09:16:04Z</time><extensions><ns3:TrackPointExtension><ns3:hr>169</ns3:hr><ns3:cad>88</ns3:cad></ns3:TrackPointExtension></extensions></trkpt>
<trkpt lat="56.84654" lon="-3.97625"><ele>300.6</ele><time>2026-04-12T09:16:14Z</time><extensions><ns3:TrackPointExtension><ns3:hr>168</ns3:hr><ns3:cad>85</ns3:cad></ns3:TrackPointExtension></extensions></trkpt>
<trkpt lat="56.84668" lon="-3.97578"><ele>300.2</ele><time>2026-04-12T09:16:24Z</time><extensions><ns3:TrackPointExtension><ns3:hr>169</ns3:hr><ns3:cad>88</ns3:cad></ns3:TrackPointExtension></extensions></trkpt>
<trkpt lat="56.84677" lon="-3.97544"><ele>300.0</ele><time>2026-04-12T09:16:31Z</time><extensions><ns3:TrackPointExtension><ns3:hr>169</ns3:hr><ns3:cad>88</ns3:cad></ns3:TrackPointExtension></extensions></trkpt>
</trkseg></trk></gpx>
