<?xml version="1.0" encoding="UTF-8"?>
<gpx version="1.1" creator="Trail Profile synthetic demo (not a real run)" xmlns="http://www.topografix.com/GPX/1/1" xmlns:ns3="http://www.garmin.com/xmlschemas/TrackPointExtension/v1"><trk><name>Glen Fictional loop (demo)</name><type>trail_running</type><trkseg>
<trkpt lat="56.82020" lon="-4.04973"><ele>300.3</ele><time>2026-06-21T08:30:10Z</time><extensions><ns3:TrackPointExtension><ns3:hr>100</ns3:hr><ns3:cad>86</ns3:cad></ns3:TrackPointExtension></extensions></trkpt>
<trkpt lat="56.82041" lon="-4.04946"><ele>300.6</ele><time>2026-06-21T08:30:20Z</time><extensions><ns3:TrackPointExtension><ns3:hr>116</ns3:hr><ns3:cad>85</ns3:cad></ns3:TrackPointExtension></extensions></trkpt>
<trkpt lat="56.82061" lon="-4.04919"><ele>300.8</ele><time>2026-06-21T08:30:30Z</time><extensions><ns3:TrackPointExtension><ns3:hr>127</ns3:hr><ns3:cad>88</ns3:cad></ns3:TrackPointExtension></extensions></trkpt>
<trkpt lat="56.82081" lon="-4.04890"><ele>301.1</ele><time>2026-06-21T08:30:40Z</time><extensions><ns3:TrackPointExtension><ns3:hr>136</ns3:hr><ns3:cad>84</ns3:cad></ns3:TrackPointExtension></extensions></trkpt>
<trkpt lat="56.82101" lon="-4.04864"><ele>301.4</ele><time>2026-06-21T08:30:50Z</time><extensions><ns3:TrackPointExtension><ns3:hr>142</ns3:hr><ns3:cad>87</ns3:cad></ns3:TrackPointExtension></extensions></trkpt>
<trkpt lat="56.82121" lon="-4.04837"><ele>301.7</ele><time>2026-06-21T08:31:00Z</time><extensions><ns3:TrackPointExtension><ns3:hr>144</ns3:hr><ns3:cad>87</ns3:cad></ns3:TrackPointExtension></extensions></trkpt>
<trkpt lat="56.82143" lon="-4.04812"><ele>302.0</ele><time>2026-06-21T08:31:10Z</time><extensions><ns3:TrackPointExtension><ns3:hr>148</ns3:hr><ns3:cad>87</ns3:cad></ns3:TrackPointExtension></extensions></trkpt>
<trkpt lat="56.82165" lon="-4.04790"><ele>302.2</ele><time>2026-06-21T08:31:20Z</time><extensions><ns3:TrackPointExtension><ns3:hr>145</ns3:hr><ns3:cad>89</ns3:cad></ns3:TrackPointExtension></extensions></trkpt>
<trkpt lat="56.82186" lon="-4.04766"><ele>302.5</ele><time>2026-06-21T08:31:30Z</time><extensions><ns3:TrackPointExtension><ns3:hr>149</ns3:hr><ns3:cad>86</ns3:cad></ns3:TrackPointExtension></extensions></trkpt>
<trkpt lat="56.82208" lon="-4.04744"><ele>302.8</ele><time>2026-06-21T08:31:40Z</time><extensions><ns3:TrackPointExtension><ns3:hr>150</ns3:hr><ns3:cad>86</ns3:cad></ns3:TrackPointExtension></extensions></trkpt>
<trkpt lat="56.82231" lon="-4.04723"><ele>303.1</ele><time>2026-06-21T08:31:50Z</time><extensions><ns3:TrackPointExtension><ns3:hr>150</ns3:hr><ns3:cad>86</ns3:cad></ns3:TrackPointExtension></extensions></trkpt>
<trkpt lat="56.82253" lon="-4.04704"><ele>303.4</ele><time>2026-06-21T08:32:00Z</time><extensions><ns3:TrackPointExtension><ns3:hr>150</ns3:hr><ns3:cad>86</ns3:cad></ns3:TrackPointExtension></extensions></trkpt>
<trkpt lat="56.82275" lon="-4.04682"><ele>303.6</ele><time>2026-06-21T08:32:10Z</time><extensions><ns3:TrackPointExtension><ns3:hr>152</ns3:hr><ns3:cad>89</ns3:cad></ns3:TrackPointExtension></extensions></trkpt>
<trkpt lat="56.82296" lon="-4.04655"><ele>303.9</ele><time>2026-06-21T08:32:20Z</time><extensions><ns3:TrackPointExtension><ns3:hr>153</ns3:hr><ns3:cad>87</ns3:cad></ns3:TrackPointExtension></extensions></trkpt>
<trkpt lat="56.82317" lon="-4.04629"><ele>304.2</ele><time>2026-06-21T08:32:30Z</time><extensions><ns3:TrackPointExtension><ns3:hr>153</ns3:hr><ns3:cad>87</ns3:cad></ns3:TrackPointExtension></extensions></trkpt>
<trkpt lat="56.82337" lon="-4.04602"><ele>304.5</ele><time>2026-06-21T08:32:40Z</time><extensions><ns3:TrackPointExtension><ns3:hr>149</ns3:hr><ns3:cad>89</ns3:cad></ns3:TrackPointExtension></extensions></trkpt>
<trkpt lat="56.82357" lon="-4.04574"><ele>304.8</ele><time>2026-06-21T08:32:50Z</time><extensions><ns3:TrackPointExtension><ns3:hr>149</ns3:hr><ns3:cad>86</ns3:cad></ns3:TrackPointExtension></extensions></trkpt>
<trkpt lat="56.82377" lon="-4.04546"><ele>305.0</ele><time>2026-06-21T08:33:00Z</time><extensions><ns3:TrackPointExtension><ns3:hr>149</ns3:hr><ns3:cad>88</ns3:cad></ns3:TrackPointExtension></extensions></trkpt>
<trkpt lat="56.82398" lon="-4.04521"><ele>305.3</ele><time>2026-06-21T08:33:10Z</time><extensions><ns3:TrackPointExtension><ns3:hr>153</ns3:hr><ns3:cad>87</ns3:cad></ns3:TrackPointExtension></extensions></trkpt>
<trkpt lat="56.82418" lon="-4.04494"><ele>305.6</ele><time>2026-06-21T08:33:20Z</time><extensions><ns3:TrackPointExtension><ns3:hr>150</ns3:hr><ns3:cad>89</ns3:cad></ns3:TrackPointExtension></extensions></trkpt>
<trkpt lat="56.82437" lon="-4.04463"><ele>305.9</ele><time>2026-06-21T08:33:30Z</time><extensions><ns3:TrackPointExtension><ns3:hr>152</ns3:hr><ns3:cad>86</ns3:cad></ns3:TrackPointExtension></extensions></trkpt>
<trkpt lat="56.82456" lon="-4.04433"><ele>306.2</ele><time>2026-06-21T08:33:40Z</time><extensions><ns3:TrackPointExtension><ns3:hr>151</ns3:hr><ns3:cad>88</ns3:cad></ns3:TrackPointExtension></extensions></trkpt>
<trkpt lat="56.82473" lon="-4.04400"><ele>306.4</ele><time>2026-06-21T08:33:50Z</time><extensions><ns3:TrackPointExtension><ns3:hr>152</ns3:hr><ns3:cad>88</ns3:cad></ns3:TrackPointExtension></extensions></trkpt>
<trkpt lat="56.82490" lon="-4.04367"><ele>306.7</ele><time>2026-06-21T08:34:00Z</time><extensions><ns3:TrackPointExtension><ns3:hr>153</ns3:hr><ns3:cad>87</ns3:cad></ns3:TrackPointExtension></extensions></trkpt>
<trkpt lat="56.82509" lon="-4.04336"><ele>307.0</ele><time>2026-06-21T08:34:10Z</time><extensions><ns3:TrackPointExtension><ns3:hr>150</ns3:hr><ns3:cad>88</ns3:cad></ns3:TrackPointExtension></extensions></trkpt>
<trkpt lat="56.82527" lon="-4.04304"><ele>307.3</ele><time>2026-06-21T08:34:20Z</time><extensions><ns3:TrackPointExtension><ns3:hr>153</ns3:hr><ns3:cad>85</ns3:cad></ns3:TrackPointExtension></extensions></trkpt>
<trkpt lat="56.82544" lon="-4.04270"><ele>307.6</ele><time>2026-06-21T08:34:30Z</time><extensions><ns3:TrackPointExtension><ns3:hr>151</ns3:hr><ns3:cad>85</ns3:cad></ns3:TrackPointExtension></extensions></trkpt>
<trkpt lat="56.82563" lon="-4.04240"><ele>307.8</ele><time>2026-06-21T08:34:40Z</time><extensions><ns3:TrackPointExtension><ns3:hr>152</ns3:hr><ns3:cad>88</ns3:cad></ns3:TrackPointExtension></extensions></trkpt>
<trkpt lat="56.82580" lon="-4.04206"><ele>308.1</ele><time>2026-06-21T08:34:50Z</time><extensions><ns3:TrackPointExtension><ns3:hr>151</ns3:hr><ns3:cad>84</ns3:cad></ns3:TrackPointExtension></extensions></trkpt>
<trkpt lat="56.82595" lon="-4.04169"><ele>308.4</ele><time>2026-06-21T08:35:00Z</time><extensions><ns3:TrackPointExtension><ns3:hr>153</ns3:hr><ns3:cad>88</ns3:cad></ns3:TrackPointExtension></extensions></trkpt>
<trkpt lat="56.82609" lon="-4.04131"><ele>308.7</ele><time>2026-06-21T08:35:10Z</time><extensions><ns3:TrackPointExtension><ns3:hr>150</ns3:hr><ns3:cad>84</ns3:cad></ns3:TrackPointExtension></extensions></trkpt>
<trkpt lat="56.82625" lon="-4.04095"><ele>309.0</ele><time>2026-06-21T08:35:20Z</time><extensions><ns3:TrackPointExtension><ns3:hr>149</ns3:hr><ns3:cad>88</ns3:cad></ns3:TrackPointExtension></extensions></trkpt>
<trkpt lat="56.82628" lon="-4.04090"><ele>309.0</ele><time>2026-06-21T08:35:21Z</time><extensions><ns3:TrackPointExtension><ns3:hr>151</ns3:hr><ns3:cad>86</ns3:cad></ns3:TrackPointExtension></extensions></trkpt>
<trkpt lat="56.82639" lon="-4.04066"><ele>310.8</ele><time>2026-06-21T08:35:31Z</time><extensions><ns3:TrackPointExtension><ns3:hr>153</ns3:hr><ns3:cad>85</ns3:cad></ns3:TrackPointExtension></extensions></trkpt>
<trkpt lat="56.82651" lon="-4.04041"><ele>312.5</ele><time>2026-06-21T08:35:41Z</time><extensions><ns3:TrackPointExtension><ns3:hr>150</ns3:hr><ns3:cad>89</ns3:cad></ns3:TrackPointExtension></extensions></trkpt>
<trkpt lat="56.82662" lon="-4.04017"><ele>314.3</ele><time>2026-06-21T08:35:51Z</time><extensions><ns3:TrackPointExtension><ns3:hr>149</ns3:hr><ns3:cad>85</ns3:cad></ns3:TrackPointExtension></extensions></trkpt>
<trkpt lat="56.82674" lon="-4.03992"><ele>316.1</ele><time>2026-06-21T08:36:01Z</time><extensions><ns3:TrackPointExtension><ns3:hr>153</ns3:hr><ns3:cad>89</ns3:cad></ns3:TrackPointExtension></extensions></trkpt>
<trkpt lat="56.82684" lon="-4.03967"><ele>317.8</ele><time>2026-06-21T08:36:11Z</time><extensions><ns3:TrackPointExtension><ns3:hr>152</ns3:hr><ns3:cad>85</ns3:cad></ns3:TrackPointExtension></extensions></trkpt>
<trkpt lat="56.82696" lon="-4.03942"><ele>319.6</ele><time>2026-06-21T08:36:21Z</time><extensions><ns3:TrackPointExtension><ns3:hr>152</ns3:hr><ns3:cad>87</ns3:cad></ns3:TrackPointExtension></extensions></trkpt>
<trkpt lat="56.82706" lon="-4.03916"><ele>321.3</ele><time>2026-06-21T08:36:31Z</time><extensions><ns3:TrackPointExtension><ns3:hr>149</ns3:hr><ns3:cad>86</ns3:cad></ns3:TrackPointExtension></extensions></trkpt>
<trkpt lat="56.82716" lon="-4.03890"><ele>323.1</ele><time>2026-06-21T08:36:41Z</time><extensions><ns3:TrackPointExtension><ns3:hr>150</ns3:hr><ns3:cad>89</ns3:cad></ns3:TrackPointExtension></extensions></trkpt>
<trkpt lat="56.82728" lon="-4.03865"><ele>324.9</ele><time>2026-06-21T08:36:51Z</time><extensions><ns3:TrackPointExtension><ns3:hr>150</ns3:hr><ns3:cad>87</ns3:cad></ns3:TrackPointExtension></extensions></trkpt>
<trkpt lat="56.82740" lon="-4.03843"><ele>326.6</ele><time>2026-06-21T08:37:01Z</time><extensions><ns3:TrackPointExtension><ns3:hr>152</ns3:hr><ns3:cad>85</ns3:cad></ns3:TrackPointExtension></extensions></trkpt>
<trkpt lat="56.82752" lon="-4.03820"><ele>328.4</ele><time>2026-06-21T08:37:11Z</time><extensions><ns3:TrackPointExtension><ns3:hr>153</ns3:hr><ns3:cad>87</ns3:cad></ns3:TrackPointExtension></extensions></trkpt>
<trkpt lat="56.82766" lon="-4.03798"><ele>330.2</ele><time>2026-06-21T08:37:21Z</time><extensions><ns3:TrackPointExtension><ns3:hr>149</ns3:hr><ns3:cad>87</ns3:cad></ns3:TrackPointExtension></extensions></trkpt>
<trkpt lat="56.82778" lon="-4.03776"><ele>331.9</ele><time>2026-06-21T08:37:31Z</time><extensions><ns3:TrackPointExtension><ns3:hr>150</ns3:hr><ns3:cad>85</ns3:cad></ns3:TrackPointExtension></extensions></trkpt>
<trkpt lat="56.82791" lon="-4.03754"><ele>333.7</ele><time>2026-06-21T08:37:41Z</time><extensions><ns3:TrackPointExtension><ns3:hr>152</ns3:hr><ns3:cad>84</ns3:cad></ns3:TrackPointExtension></extensions></trkpt>
<trkpt lat="56.82805" lon="-4.03734"><ele>335.4</ele><time>2026-06-21T08:37:51Z</time><extensions><ns3:TrackPointExtension><ns3:hr>153</ns3:hr><ns3:cad>88</ns3:cad></ns3:TrackPointExtension></extensions></trkpt>
<trkpt lat="56.82819" lon="-4.03714"><ele>337.2</ele><time>2026-06-21T08:38:01Z</time><extensions><ns3:TrackPointExtension><ns3:hr>152</ns3:hr><ns3:cad>87</ns3:cad></ns3:TrackPointExtension></extensions></trkpt>
<trkpt lat="56.82833" lon="-4.03696"><ele>339.0</ele><time>2026-06-21T08:38:11Z</time><extensions><ns3:TrackPointExtension><ns3:hr>150</ns3:hr><ns3:cad>86</ns3:cad></ns3:TrackPointExtension></extensions></trkpt>
<trkpt lat="56.82847" lon="-4.03676"><ele>340.7</ele><time>2026-06-21T08:38:21Z</time><extensions><ns3:TrackPointExtension><ns3:hr>151</ns3:hr><ns3:cad>88</ns3:cad></ns3:TrackPointExtension></extensions></trkpt>
<trkpt lat="56.82860" lon="-4.03655"><ele>342.5</ele><time>2026-06-21T08:38:31Z</time><extensions><ns3:TrackPointExtension><ns3:hr>151</ns3:hr><ns3:cad>89</ns3:cad></ns3:TrackPointExtension></extensions></trkpt>
<trkpt lat="56.82875" lon="-4.03637"><ele>344.3</ele><time>2026-06-21T08:38:41Z</time><extensions><ns3:TrackPointExtension><ns3:hr>153</ns3:hr><ns3:cad>88</ns3:cad></ns3:TrackPointExtension></extensions></trkpt>
<trkpt lat="56.82889" lon="-4.03618"><ele>346.0</ele><time>2026-06-21T08:38:51Z</time><extensions><ns3:TrackPointExtension><ns3:hr>149</ns3:hr><ns3:cad>86</ns3:cad></ns3:TrackPointExtension></extensions></trkpt>
<trkpt lat="56.82905" lon="-4.03603"><ele>347.8</ele><time>2026-06-21T08:39:01Z</time><extensions><ns3:TrackPointExtension><ns3:hr>153</ns3:hr><ns3:cad>88</ns3:cad></ns3:TrackPointExtension></extensions></trkpt>
<trkpt lat="56.82921" lon="-4.03589"><ele>349.6</ele><time>2026-06-21T08:39:11Z</time><extensions><ns3:TrackPointExtension><ns3:hr>149</ns3:hr><ns3:cad>88</ns3:cad></ns3:TrackPointExtension></extensions></trkpt>
<trkpt lat="56.82937" lon="-4.03576"><ele>351.3</ele><time>2026-06-21T08:39:21Z</time><extensions><ns3:TrackPointExtension><ns3:hr>151</ns3:hr><ns3:cad>88</ns3:cad></ns3:TrackPointExtension></extensions></trkpt>
<trkpt lat="56.82952" lon="-4.03561"><ele>353.1</ele><time>2026-06-21T08:39:31Z</time><extensions><ns3:TrackPointExtension><ns3:hr>152</ns3:hr><ns3:cad>88</ns3:cad></ns3:TrackPointExtension></extensions></trkpt>
<trkpt lat="56.82968" lon="-4.03546"><ele>354.8</ele><time>2026-06-21T08:39:41Z</time><extensions><ns3:TrackPointExtension><ns3:hr>149</ns3:hr><ns3:cad>88</ns3:cad></ns3:TrackPointExtension></extensions></trkpt>
<trkpt lat="56.82984" lon="-4.03535"><ele>356.6</ele><time>2026-06-21T08:39:51Z</time><extensions><ns3:TrackPointExtension><ns3:hr>150</ns3:hr><ns3:cad>87</ns3:cad></ns3:TrackPointExtension></extensions></trkpt>
<trkpt lat="56.83001" lon="-4.03523"><ele>358.4</ele><time>2026-06-21T08:40:01Z</time><extensions><ns3:TrackPointExtension><ns3:hr>153</ns3:hr><ns3:cad>87</ns3:cad></ns3:TrackPointExtension></extensions></trkpt>
<trkpt lat="56.83017" lon="-4.03512"><ele>360.1</ele><time>2026-06-21T08:40:11Z</time><extensions><ns3:TrackPointExtension><ns3:hr>150</ns3:hr><ns3:cad>89</ns3:cad></ns3:TrackPointExtension></extensions></trkpt>
<trkpt lat="56.83033" lon="-4.03498"><ele>361.9</ele><time>2026-06-21T08:40:21Z</time><extensions><ns3:TrackPointExtension><ns3:hr>154</ns3:hr><ns3:cad>86</ns3:cad></ns3:TrackPointExtension></extensions></trkpt>
<trkpt lat="56.83048" lon="-4.03480"><ele>363.7</ele><time>2026-06-21T08:40:31Z</time><extensions><ns3:TrackPointExtension><ns3:hr>151</ns3:hr><ns3:cad>86</ns3:cad></ns3:TrackPointExtension></extensions></trkpt>
<trkpt lat="56.83063" lon="-4.03465"><ele>365.4</ele><time>2026-06-21T08:40:41Z</time><extensions><ns3:TrackPointExtension><ns3:hr>152</ns3:hr><ns3:cad>88</ns3:cad></ns3:TrackPointExtension></extensions></trkpt>
<trkpt lat="56.83079" lon="-4.03451"><ele>367.2</ele><time>2026-06-21T08:40:51Z</time><extensions><ns3:TrackPointExtension><ns3:hr>153</ns3:hr><ns3:cad>89</ns3:cad></ns3:TrackPointExtension></extensions></trkpt>
<trkpt lat="56.83095" lon="-4.03438"><ele>368.9</ele><time>2026-06-21T08:41:01Z</time><extensions><ns3:TrackPointExtension><ns3:hr>153</ns3:hr><ns3:cad>88</ns3:cad></ns3:TrackPointExtension></extensions></trkpt>
<trkpt lat="56.83112" lon="-4.03426"><ele>370.7</ele><time>2026-06-21T08:41:11Z</time><extensions><ns3:TrackPointExtension><ns3:hr>152</ns3:hr><ns3:cad>86</ns3:cad></ns3:TrackPointExtension></extensions></trkpt>
<trkpt lat="56.83128" lon="-4.03413"><ele>372.5</ele><time>2026-06-21T08:41:21Z</time><extensions><ns3:TrackPointExtension><ns3:hr>150</ns3:hr><ns3:cad>85</ns3:cad></ns3:TrackPointExtension></extensions></trkpt>
<trkpt lat="56.83143" lon="-4.03398"><ele>374.2</ele><time>2026-06-21T08:41:31Z</time><extensions><ns3:TrackPointExtension><ns3:hr>151</ns3:hr><ns3:cad>87</ns3:cad></ns3:TrackPointExtension></extensions></trkpt>
<trkpt lat="56.83159" lon="-4.03383"><ele>376.0</ele><time>2026-06-21T08:41:41Z</time><extensions><ns3:TrackPointExtension><ns3:hr>150</ns3:hr><ns3:cad>88</ns3:cad></ns3:TrackPointExtension></extensions></trkpt>
<trkpt lat="56.83175" lon="-4.03370"><ele>377.8</ele><time>2026-06-21T08:41:51Z</time><extensions><ns3:TrackPointExtension><ns3:hr>153</ns3:hr><ns3:cad>88</ns3:cad></ns3:TrackPointExtension></extensions></trkpt>
<trkpt lat="56.83191" lon="-4.03359"><ele>379.5</ele><time>2026-06-21T08:42:01Z</time><extensions><ns3:TrackPointExtension><ns3:hr>151</ns3:hr><ns3:cad>86</ns3:cad></ns3:TrackPointExtension></extensions></trkpt>
<trkpt lat="56.83208" lon="-4.03346"><ele>381.3</ele><time>2026-06-21T08:42:11Z</time><extensions><ns3:TrackPointExtension><ns3:hr>150</ns3:hr><ns3:cad>88</ns3:cad></ns3:TrackPointExtension></extensions></trkpt>
<trkpt lat="56.83224" lon="-4.03335"><ele>383.1</ele><time>2026-06-21T08:42:21Z</time><extensions><ns3:TrackPointExtension><ns3:hr>153</ns3:hr><ns3:cad>89</ns3:cad></ns3:TrackPointExtension></extensions></trkpt>
<trkpt lat="56.83241" lon="-4.03325"><ele>384.8</ele><time>2026-06-21T08:42:31Z</time><extensions><ns3:TrackPointExtension><ns3:hr>150</ns3:hr><ns3:cad>85</ns3:cad></ns3:TrackPointExtension></extensions></trkpt>
<trkpt lat="56.83257" lon="-4.03312"><ele>386.6</ele><time>2026-06-21T08:42:41Z</time><extensions><ns3:TrackPointExtension><ns3:hr>153</ns3:hr><ns3:cad>88</ns3:cad></ns3:TrackPointExtension></extensions></trkpt>
<trkpt lat="56.83273" lon="-4.03301"><ele>388.3</ele><time>2026-06-21T08:42:51Z</time><extensions><ns3:TrackPointExtension><ns3:hr>150</ns3:hr><ns3:cad>84</ns3:cad></ns3:TrackPointExtension></extensions></trkpt>
<trkpt lat="56.83290" lon="-4.03291"><ele>390.1</ele><time>2026-06-21T08:43:01Z</time><extensions><ns3:TrackPointExtension><ns3:hr>151</ns3:hr><ns3:cad>84</ns3:cad></ns3:TrackPointExtension></extensions></trkpt>
<trkpt lat="56.83307" lon="-4.03285"><ele>391.9</ele><time>2026-06-21T08:43:11Z</time><extensions><ns3:TrackPointExtension><ns3:hr>152</ns3:hr><ns3:cad>86</ns3:cad></ns3:TrackPointExtension></extensions></trkpt>
<trkpt lat="56.83324" lon="-4.03275"><ele>393.6</ele><time>2026-06-21T08:43:21Z</time><extensions><ns3:TrackPointExtension><ns3:hr>153</ns3:hr><ns3:cad>85</ns3:cad></ns3:TrackPointExtension></extensions></trkpt>
<trkpt lat="56.83340" lon="-4.03261"><ele>395.4</ele><time>2026-06-21T08:43:31Z</time><extensions><ns3:TrackPointExtension><ns3:hr>149</ns3:hr><ns3:cad>85</ns3:cad></ns3:TrackPointExtension></extensions></trkpt>
<trkpt lat="56.83356" lon="-4.03247"><ele>397.2</ele><time>2026-06-21T08:43:41Z</time><extensions><ns3:TrackPointExtension><ns3:hr>154</ns3:hr><ns3:cad>86</ns3:cad></ns3:TrackPointExtension></extensions></trkpt>
<trkpt lat="56.83371" lon="-4.03229"><ele>398.9</ele><time>2026-06-21T08:43:51Z</time><extensions><ns3:TrackPointExtension><ns3:hr>149</ns3:hr><ns3:cad>86</ns3:cad></ns3:TrackPointExtension></extensions></trkpt>
<trkpt lat="56.83385" lon="-4.03210"><ele>400.7</ele><time>2026-06-21T08:44:01Z</time><extensions><ns3:TrackPointExtension><ns3:hr>153</ns3:hr><ns3:cad>86</ns3:cad></ns3:TrackPointExtension></extensions></trkpt>
<trkpt lat="56.83397" lon="-4.03187"><ele>402.4</ele><time>2026-06-21T08:44:11Z</time><extensions><ns3:TrackPointExtension><ns3:hr>153</ns3:hr><ns3:cad>89</ns3:cad></ns3:TrackPointExtension></extensions></trkpt>
<trkpt lat="56.83410" lon="-4.03166"><ele>404.2</ele><time>2026-06-21T08:44:21Z</time><extensions><ns3:TrackPointExtension><ns3:hr>151</ns3:hr><ns3:cad>87</ns3:cad></ns3:TrackPointExtension></extensions></trkpt>
<trkpt lat="56.83422" lon="-4.03142"><ele>406.0</ele><time>2026-06-21T08:44:31Z</time><extensions><ns3:TrackPointExtension><ns3:hr>151</ns3:hr><ns3:cad>85</ns3:cad></ns3:TrackPointExtension></extensions></trkpt>
<trkpt lat="56.83435" lon="-4.03120"><ele>407.7</ele><time>2026-06-21T08:44:41Z</time><extensions><ns3:TrackPointExtension><ns3:hr>152</ns3:hr><ns3:cad>88</ns3:cad></ns3:TrackPointExtension></extensions></trkpt>
<trkpt lat="56.83447" lon="-4.03096"><ele>409.5</ele><time>2026-06-21T08:44:51Z</time><extensions><ns3:TrackPointExtension><ns3:hr>150</ns3:hr><ns3:cad>86</ns3:cad></ns3:TrackPointExtension></extensions></trkpt>
<trkpt lat="56.83458" lon="-4.03071"><ele>411.3</ele><time>2026-06-21T08:45:01Z</time><extensions><ns3:TrackPointExtension><ns3:hr>149</ns3:hr><ns3:cad>87</ns3:cad></ns3:TrackPointExtension></extensions></trkpt>
<trkpt lat="56.83470" lon="-4.03047"><ele>413.0</ele><time>2026-06-21T08:45:11Z</time><extensions><ns3:TrackPointExtension><ns3:hr>152</ns3:hr><ns3:cad>88</ns3:cad></ns3:TrackPointExtension></extensions></trkpt>
<trkpt lat="56.83482" lon="-4.03025"><ele>414.8</ele><time>2026-06-21T08:45:21Z</time><extensions><ns3:TrackPointExtension><ns3:hr>153</ns3:hr><ns3:cad>85</ns3:cad></ns3:TrackPointExtension></extensions></trkpt>
<trkpt lat="56.83496" lon="-4.03005"><ele>416.6</ele><time>2026-06-21T08:45:31Z</time><extensions><ns3:TrackPointExtension><ns3:hr>151</ns3:hr><ns3:cad>86</ns3:cad></ns3:TrackPointExtension></extensions></trkpt>
<trkpt lat="56.83511" lon="-4.02987"><ele>418.3</ele><time>2026-06-21T08:45:41Z</time><extensions><ns3:TrackPointExtension><ns3:hr>151</ns3:hr><ns3:cad>86</ns3:cad></ns3:TrackPointExtension></extensions></trkpt>
<trkpt lat="56.83524" lon="-4.02967"><ele>420.1</ele><time>2026-06-21T08:45:51Z</time><extensions><ns3:TrackPointExtension><ns3:hr>152</ns3:hr><ns3:cad>88</ns3:cad></ns3:TrackPointExtension></extensions></trkpt>
<trkpt lat="56.83537" lon="-4.02944"><ele>421.8</ele><time>2026-06-21T08:46:01Z</time><extensions><ns3:TrackPointExtension><ns3:hr>150</ns3:hr><ns3:cad>88</ns3:cad></ns3:TrackPointExtension></extensions></trkpt>
<trkpt lat="56.83549" lon="-4.02920"><ele>423.6</ele><time>2026-06-21T08:46:11Z</time><extensions><ns3:TrackPointExtension><ns3:hr>152</ns3:hr><ns3:cad>84</ns3:cad></ns3:TrackPointExtension></extensions></trkpt>
<trkpt lat="56.83560" lon="-4.02896"><ele>425.4</ele><time>2026-06-21T08:46:21Z</time><extensions><ns3:TrackPointExtension><ns3:hr>150</ns3:hr><ns3:cad>86</ns3:cad></ns3:TrackPointExtension></extensions></trkpt>
<trkpt lat="56.83573" lon="-4.02873"><ele>427.1</ele><time>2026-06-21T08:46:31Z</time><extensions><ns3:TrackPointExtension><ns3:hr>153</ns3:hr><ns3:cad>85</ns3:cad></ns3:TrackPointExtension></extensions></trkpt>
<trkpt lat="56.83584" lon="-4.02849"><ele>428.9</ele><time>2026-06-21T08:46:41Z</time><extensions><ns3:TrackPointExtension><ns3:hr>152</ns3:hr><ns3:cad>88</ns3:cad></ns3:TrackPointExtension></extensions></trkpt>
<trkpt lat="56.83594" lon="-4.02822"><ele>430.7</ele><time>2026-06-21T08:46:51Z</time><extensions><ns3:TrackPointExtension><ns3:hr>150</ns3:hr><ns3:cad>84</ns3:cad></ns3:TrackPointExtension></extensions></trkpt>
<trkpt lat="56.83603" lon="-4.02794"><ele>432.4</ele><time>2026-06-21T08:47:01Z</time><extensions><ns3:TrackPointExtension><ns3:hr>154</ns3:hr><ns3:cad>87</ns3:cad></ns3:TrackPointExtension></extensions></trkpt>
<trkpt lat="56.83610" lon="-4.02765"><ele>434.2</ele><time>2026-06-21T08:47:11Z</time><extensions><ns3:TrackPointExtension><ns3:hr>151</ns3:hr><ns3:cad>88</ns3:cad></ns3:TrackPointExtension></extensions></trkpt>
<trkpt lat="56.83614" lon="-4.02752"><ele>435.0</ele><time>2026-06-21T08:47:16Z</time><extensions><ns3:TrackPointExtension><ns3:hr>152</ns3:hr><ns3:cad>89</ns3:cad></ns3:TrackPointExtension></extensions></trkpt>
<trkpt lat="56.83620" lon="-4.02731"><ele>437.5</ele><time>2026-06-21T08:47:26Z</time><extensions><ns3:TrackPointExtension><ns3:hr>154</ns3:hr><ns3:cad>84</ns3:cad></ns3:TrackPointExtension></extensions></trkpt>
<trkpt lat="56.83626" lon="-4.02709"><ele>439.9</ele><time>2026-06-21T08:47:36Z</time><extensions><ns3:TrackPointExtension><ns3:hr>153</ns3:hr><ns3:cad>87</ns3:cad></ns3:TrackPointExtension></extensions></trkpt>
<trkpt lat="56.83631" lon="-4.02688"><ele>442.4</ele><time>2026-06-21T08:47:46Z</time><extensions><ns3:TrackPointExtension><ns3:hr>150</ns3:hr><ns3:cad>85</ns3:cad></ns3:TrackPointExtension></extensions></trkpt>
<trkpt lat="56.83635" lon="-4.02665"><ele>444.9</ele><time>2026-06-21T08:47:56Z</time><extensions><ns3:TrackPointExtension><ns3:hr>153</ns3:hr><ns3:cad>89</ns3:cad></ns3:TrackPointExtension></extensions></trkpt>
<trkpt lat="56.83640" lon="-4.02643"><ele>447.3</ele><time>2026-06-21T08:48:06Z</time><extensions><ns3:TrackPointExtension><ns3:hr>154</ns3:hr><ns3:cad>88</ns3:cad></ns3:TrackPointExtension></extensions></trkpt>
<trkpt lat="56.83645" lon="-4.02621"><ele>449.8</ele><time>2026-06-21T08:48:16Z</time><extensions><ns3:TrackPointExtension><ns3:hr>149</ns3:hr><ns3:cad>86</ns3:cad></ns3:TrackPointExtension></extensions></trkpt>
<trkpt lat="56.83651" lon="-4.02600"><ele>452.2</ele><time>2026-06-21T08:48:26Z</time><extensions><ns3:TrackPointExtension><ns3:hr>152</ns3:hr><ns3:cad>86</ns3:cad></ns3:TrackPointExtension></extensions></trkpt>
<trkpt lat="56.83658" lon="-4.02580"><ele>454.7</ele><time>2026-06-21T08:48:36Z</time><extensions><ns3:TrackPointExtension><ns3:hr>152</ns3:hr><ns3:cad>89</ns3:cad></ns3:TrackPointExtension></extensions></trkpt>
<trkpt lat="56.83665" lon="-4.02560"><ele>457.2</ele><time>2026-06-21T08:48:46Z</time><extensions><ns3:TrackPointExtension><ns3:hr>153</ns3:hr><ns3:cad>88</ns3:cad></ns3:TrackPointExtension></extensions></trkpt>
<trkpt lat="56.83671" lon="-4.02539"><ele>459.6</ele><time>2026-06-21T08:48:56Z</time><extensions><ns3:TrackPointExtension><ns3:hr>153</ns3:hr><ns3:cad>89</ns3:cad></ns3:TrackPointExtension></extensions></trkpt>
<trkpt lat="56.83679" lon="-4.02520"><ele>462.1</ele><time>2026-06-21T08:49:06Z</time><extensions><ns3:TrackPointExtension><ns3:hr>154</ns3:hr><ns3:cad>86</ns3:cad></ns3:TrackPointExtension></extensions></trkpt>
<trkpt lat="56.83686" lon="-4.02500"><ele>464.6</ele><time>2026-06-21T08:49:16Z</time><extensions><ns3:TrackPointExtension><ns3:hr>150</ns3:hr><ns3:cad>88</ns3:cad></ns3:TrackPointExtension></extensions></trkpt>
<trkpt lat="56.83694" lon="-4.02481"><ele>467.0</ele><time>2026-06-21T08:49:26Z</time><extensions><ns3:TrackPointExtension><ns3:hr>152</ns3:hr><ns3:cad>88</ns3:cad></ns3:TrackPointExtension></extensions></trkpt>
<trkpt lat="56.83701" lon="-4.02461"><ele>469.5</ele><time>2026-06-21T08:49:36Z</time><extensions><ns3:TrackPointExtension><ns3:hr>153</ns3:hr><ns3:cad>85</ns3:cad></ns3:TrackPointExtension></extensions></trkpt>
<trkpt lat="56.83707" lon="-4.02440"><ele>471.9</ele><time>2026-06-21T08:49:46Z</time><extensions><ns3:TrackPointExtension><ns3:hr>150</ns3:hr><ns3:cad>85</ns3:cad></ns3:TrackPointExtension></extensions></trkpt>
<trkpt lat="56.83714" lon="-4.02420"><ele>474.4</ele><time>2026-06-21T08:49:56Z</time><extensions><ns3:TrackPointExtension><ns3:hr>152</ns3:hr><ns3:cad>89</ns3:cad></ns3:TrackPointExtension></extensions></trkpt>
<trkpt lat="56.83721" lon="-4.02399"><ele>476.9</ele><time>2026-06-21T08:50:06Z</time><extensions><ns3:TrackPointExtension><ns3:hr>151</ns3:hr><ns3:cad>86</ns3:cad></ns3:TrackPointExtension></extensions></trkpt>
<trkpt lat="56.83727" lon="-4.02379"><ele>479.3</ele><time>2026-06-21T08:50:16Z</time><extensions><ns3:TrackPointExtension><ns3:hr>150</ns3:hr><ns3:cad>84</ns3:cad></ns3:TrackPointExtension></extensions></trkpt>
<trkpt lat="56.83735" lon="-4.02359"><ele>481.8</ele><time>2026-06-21T08:50:26Z</time><extensions><ns3:TrackPointExtension><ns3:hr>150</ns3:hr><ns3:cad>84</ns3:cad></ns3:TrackPointExtension></extensions></trkpt>
<trkpt lat="56.83740" lon="-4.02338"><ele>484.3</ele><time>2026-06-21T08:50:36Z</time><extensions><ns3:TrackPointExtension><ns3:hr>153</ns3:hr><ns3:cad>88</ns3:cad></ns3:TrackPointExtension></extensions></trkpt>
<trkpt lat="56.83747" lon="-4.02317"><ele>486.7</ele><time>2026-06-21T08:50:46Z</time><extensions><ns3:TrackPointExtension><ns3:hr>151</ns3:hr><ns3:cad>87</ns3:cad></ns3:TrackPointExtension></extensions></trkpt>
<trkpt lat="56.83753" lon="-4.02296"><ele>489.2</ele><time>2026-06-21T08:50:56Z</time><extensions><ns3:TrackPointExtension><ns3:hr>151</ns3:hr><ns3:cad>86</ns3:cad></ns3:TrackPointExtension></extensions></trkpt>
<trkpt lat="56.83759" lon="-4.02275"><ele>491.6</ele><time>2026-06-21T08:51:06Z</time><extensions><ns3:TrackPointExtension><ns3:hr>151</ns3:hr><ns3:cad>86</ns3:cad></ns3:TrackPointExtension></extensions></trkpt>
<trkpt lat="56.83766" lon="-4.02256"><ele>494.1</ele><time>2026-06-21T08:51:16Z</time><extensions><ns3:TrackPointExtension><ns3:hr>152</ns3:hr><ns3:cad>88</ns3:cad></ns3:TrackPointExtension></extensions></trkpt>
<trkpt lat="56.83775" lon="-4.02237"><ele>496.6</ele><time>2026-06-21T08:51:26Z</time><extensions><ns3:TrackPointExtension><ns3:hr>152</ns3:hr><ns3:cad>89</ns3:cad></ns3:TrackPointExtension></extensions></trkpt>
<trkpt lat="56.83782" lon="-4.02218"><ele>499.0</ele><time>2026-06-21T08:51:36Z</time><extensions><ns3:TrackPointExtension><ns3:hr>154</ns3:hr><ns3:cad>89</ns3:cad></ns3:TrackPointExtension></extensions></trkpt>
<trkpt lat="56.83791" lon="-4.02200"><ele>501.5</ele><time>2026-06-21T08:51:46Z</time><extensions><ns3:TrackPointExtension><ns3:hr>151</ns3:hr><ns3:cad>88</ns3:cad></ns3:TrackPointExtension></extensions></trkpt>
<trkpt lat="56.83799" lon="-4.02182"><ele>504.0</ele><time>2026-06-21T08:51:56Z</time><extensions><ns3:TrackPointExtension><ns3:hr>154</ns3:hr><ns3:cad>88</ns3:cad></ns3:TrackPointExtension></extensions></trkpt>
<trkpt lat="56.83808" lon="-4.02165"><ele>506.4</ele><time>2026-06-21T08:52:06Z</time><extensions><ns3:TrackPointExtension><ns3:hr>151</ns3:hr><ns3:cad>87</ns3:cad></ns3:TrackPointExtension></extensions></trkpt>
<trkpt lat="56.83818" lon="-4.02149"><ele>508.9</ele><time>2026-06-21T08:52:16Z</time><extensions><ns3:TrackPointExtension><ns3:hr>150</ns3:hr><ns3:cad>84</ns3:cad></ns3:TrackPointExtension></extensions></trkpt>
<trkpt lat="56.83829" lon="-4.02135"><ele>511.4</ele><time>2026-06-21T08:52:26Z</time><extensions><ns3:TrackPointExtension><ns3:hr>152</ns3:hr><ns3:cad>84</ns3:cad></ns3:TrackPointExtension></extensions></trkpt>
<trkpt lat="56.83838" lon="-4.02120"><ele>513.8</ele><time>2026-06-21T08:52:36Z</time><extensions><ns3:TrackPointExtension><ns3:hr>153</ns3:hr><ns3:cad>87</ns3:cad></ns3:TrackPointExtension></extensions></trkpt>
<trkpt lat="56.83848" lon="-4.02104"><ele>516.3</ele><time>2026-06-21T08:52:46Z</time><extensions><ns3:TrackPointExtension><ns3:hr>149</ns3:hr><ns3:cad>88</ns3:cad></ns3:TrackPointExtension></extensions></trkpt>
<trkpt lat="56.83857" lon="-4.02087"><ele>518.7</ele><time>2026-06-21T08:52:56Z</time><extensions><ns3:TrackPointExtension><ns3:hr>150</ns3:hr><ns3:cad>85</ns3:cad></ns3:TrackPointExtension></extensions></trkpt>
<trkpt lat="56.83866" lon="-4.02070"><ele>521.2</ele><time>2026-06-21T08:53:06Z</time><extensions><ns3:TrackPointExtension><ns3:hr>150</ns3:hr><ns3:cad>86</ns3:cad></ns3:TrackPointExtension></extensions></trkpt>
<trkpt lat="56.83876" lon="-4.02054"><ele>523.7</ele><time>2026-06-21T08:53:16Z</time><extensions><ns3:TrackPointExtension><ns3:hr>152</ns3:hr><ns3:cad>89</ns3:cad></ns3:TrackPointExtension></extensions></trkpt>
<trkpt lat="56.83886" lon="-4.02038"><ele>526.1</ele><time>2026-06-21T08:53:26Z</time><extensions><ns3:TrackPointExtension><ns3:hr>151</ns3:hr><ns3:cad>86</ns3:cad></ns3:TrackPointExtension></extensions></trkpt>
<trkpt lat="56.83896" lon="-4.02023"><ele>528.6</ele><time>2026-06-21T08:53:36Z</time><extensions><ns3:TrackPointExtension><ns3:hr>151</ns3:hr><ns3:cad>89</ns3:cad></ns3:TrackPointExtension></extensions></trkpt>
<trkpt lat="56.83906" lon="-4.02009"><ele>531.1</ele><time>2026-06-21T08:53:46Z</time><extensions><ns3:TrackPointExtension><ns3:hr>149</ns3:hr><ns3:cad>84</ns3:cad></ns3:TrackPointExtension></extensions></trkpt>
<trkpt lat="56.83915" lon="-4.01992"><ele>533.5</ele><time>2026-06-21T08:53:56Z</time><extensions><ns3:TrackPointExtension><ns3:hr>153</ns3:hr><ns3:cad>87</ns3:cad></ns3:TrackPointExtension></extensions></trkpt>
<trkpt lat="56.83925" lon="-4.01975"><ele>536.0</ele><time>2026-06-21T08:54:06Z</time><extensions><ns3:TrackPointExtension><ns3:hr>151</ns3:hr><ns3:cad>85</ns3:cad></ns3:TrackPointExtension></extensions></trkpt>
<trkpt lat="56.83934" lon="-4.01958"><ele>538.4</ele><time>2026-06-21T08:54:16Z</time><extensions><ns3:TrackPointExtension><ns3:hr>151</ns3:hr><ns3:cad>84</ns3:cad></ns3:TrackPointExtension></extensions></trkpt>
<trkpt lat="56.83943" lon="-4.01941"><ele>540.9</ele><time>2026-06-21T08:54:26Z</time><extensions><ns3:TrackPointExtension><ns3:hr>150</ns3:hr><ns3:cad>87</ns3:cad></ns3:TrackPointExtension></extensions></trkpt>
<trkpt lat="56.83952" lon="-4.01924"><ele>543.4</ele><time>2026-06-21T08:54:36Z</time><extensions><ns3:TrackPointExtension><ns3:hr>150</ns3:hr><ns3:cad>85</ns3:cad></ns3:TrackPointExtension></extensions></trkpt>
<trkpt lat="56.83962" lon="-4.01908"><ele>545.8</ele><time>2026-06-21T08:54:46Z</time><extensions><ns3:TrackPointExtension><ns3:hr>153</ns3:hr><ns3:cad>84</ns3:cad></ns3:TrackPointExtension></extensions></trkpt>
<trkpt lat="56.83972" lon="-4.01894"><ele>548.3</ele><time>2026-06-21T08:54:56Z</time><extensions><ns3:TrackPointExtension><ns3:hr>153</ns3:hr><ns3:cad>87</ns3:cad></ns3:TrackPointExtension></extensions></trkpt>
<trkpt lat="56.83983" lon="-4.01881"><ele>550.8</ele><time>2026-06-21T08:55:06Z</time><extensions><ns3:TrackPointExtension><ns3:hr>150</ns3:hr><ns3:cad>89</ns3:cad></ns3:TrackPointExtension></extensions></trkpt>
<trkpt lat="56.83993" lon="-4.01865"><ele>553.2</ele><time>2026-06-21T08:55:16Z</time><extensions><ns3:TrackPointExtension><ns3:hr>154</ns3:hr><ns3:cad>85</ns3:cad></ns3:TrackPointExtension></extensions></trkpt>
<trkpt lat="56.84003" lon="-4.01851"><ele>555.7</ele><time>2026-06-21T08:55:26Z</time><extensions><ns3:TrackPointExtension><ns3:hr>151</ns3:hr><ns3:cad>88</ns3:cad></ns3:TrackPointExtension></extensions></trkpt>
<trkpt lat="56.84014" lon="-4.01838"><ele>558.1</ele><time>2026-06-21T08:55:36Z</time><extensions><ns3:TrackPointExtension><ns3:hr>149</ns3:hr><ns3:cad>87</ns3:cad></ns3:TrackPointExtension></extensions></trkpt>
<trkpt lat="56.84026" lon="-4.01827"><ele>560.6</ele><time>2026-06-21T08:55:46Z</time><extensions><ns3:TrackPointExtension><ns3:hr>153</ns3:hr><ns3:cad>85</ns3:cad></ns3:TrackPointExtension></extensions></trkpt>
<trkpt lat="56.84038" lon="-4.01818"><ele>563.1</ele><time>2026-06-21T08:55:56Z</time><extensions><ns3:TrackPointExtension><ns3:hr>153</ns3:hr><ns3:cad>88</ns3:cad></ns3:TrackPointExtension></extensions></trkpt>
<trkpt lat="56.84050" lon="-4.01809"><ele>565.5</ele><time>2026-06-21T08:56:06Z</time><extensions><ns3:TrackPointExtension><ns3:hr>154</ns3:hr><ns3:cad>86</ns3:cad></ns3:TrackPointExtension></extensions></trkpt>
<trkpt lat="56.84061" lon="-4.01797"><ele>568.0</ele><time>2026-06-21T08:56:16Z</time><extensions><ns3:TrackPointExtension><ns3:hr>150</ns3:hr><ns3:cad>86</ns3:cad></ns3:TrackPointExtension></extensions></trkpt>
<trkpt lat="56.84073" lon="-4.01786"><ele>570.5</ele><time>2026-06-21T08:56:26Z</time><extensions><ns3:TrackPointExtension><ns3:hr>153</ns3:hr><ns3:cad>84</ns3:cad></ns3:TrackPointExtension></extensions></trkpt>
<trkpt lat="56.84084" lon="-4.01775"><ele>572.9</ele><time>2026-06-21T08:56:36Z</time><extensions><ns3:TrackPointExtension><ns3:hr>154</ns3:hr><ns3:cad>85</ns3:cad></ns3:TrackPointExtension></extensions></trkpt>
<trkpt lat="56.84096" lon="-4.01767"><ele>575.4</ele><time>2026-06-21T08:56:46Z</time><extensions><ns3:TrackPointExtension><ns3:hr>154</ns3:hr><ns3:cad>89</ns3:cad></ns3:TrackPointExtension></extensions></trkpt>
<trkpt lat="56.84109" lon="-4.01760"><ele>577.9</ele><time>2026-06-21T08:56:56Z</time><extensions><ns3:TrackPointExtension><ns3:hr>151</ns3:hr><ns3:cad>88</ns3:cad></ns3:TrackPointExtension></extensions></trkpt>
<trkpt lat="56.84121" lon="-4.01754"><ele>580.3</ele><time>2026-06-21T08:57:06Z</time><extensions><ns3:TrackPointExtension><ns3:hr>152</ns3:hr><ns3:cad>85</ns3:cad></ns3:TrackPointExtension></extensions></trkpt>
<trkpt lat="56.84134" lon="-4.01747"><ele>582.8</ele><time>2026-06-21T08:57:16Z</time><extensions><ns3:TrackPointExtension><ns3:hr>153</ns3:hr><ns3:cad>84</ns3:cad></ns3:TrackPointExtension></extensions></trkpt>
<trkpt lat="56.84146" lon="-4.01740"><ele>585.2</ele><time>2026-06-21T08:57:26Z</time><extensions><ns3:TrackPointExtension><ns3:hr>151</ns3:hr><ns3:cad>86</ns3:cad></ns3:TrackPointExtension></extensions></trkpt>
<trkpt lat="56.84158" lon="-4.01731"><ele>587.7</ele><time>2026-06-21T08:57:36Z</time><extensions><ns3:TrackPointExtension><ns3:hr>154</ns3:hr><ns3:cad>89</ns3:cad></ns3:TrackPointExtension></extensions></trkpt>
<trkpt lat="56.84160" lon="-4.01730"><ele>588.0</ele><time>2026-06-21T08:57:37Z</time><extensions><ns3:TrackPointExtension><ns3:hr>154</ns3:hr><ns3:cad>87</ns3:cad></ns3:TrackPointExtension></extensions></trkpt>
<trkpt lat="56.84170" lon="-4.01723"><ele>590.8</ele><time>2026-06-21T08:57:47Z</time><extensions><ns3:TrackPointExtension><ns3:hr>150</ns3:hr><ns3:cad>57</ns3:cad></ns3:TrackPointExtension></extensions></trkpt>
<trkpt lat="56.84179" lon="-4.01715"><ele>593.7</ele><time>2026-06-21T08:57:57Z</time><extensions><ns3:TrackPointExtension><ns3:hr>150</ns3:hr><ns3:cad>56</ns3:cad></ns3:TrackPointExtension></extensions></trkpt>
<trkpt lat="56.84190" lon="-4.01709"><ele>596.5</ele><time>2026-06-21T08:58:07Z</time><extensions><ns3:TrackPointExtension><ns3:hr>150</ns3:hr><ns3:cad>55</ns3:cad></ns3:TrackPointExtension></extensions></trkpt>
<trkpt lat="56.84200" lon="-4.01703"><ele>599.4</ele><time>2026-06-21T08:58:17Z</time><extensions><ns3:TrackPointExtension><ns3:hr>150</ns3:hr><ns3:cad>58</ns3:cad></ns3:TrackPointExtension></extensions></trkpt>
<trkpt lat="56.84209" lon="-4.01694"><ele>602.2</ele><time>2026-06-21T08:58:27Z</time><extensions><ns3:TrackPointExtension><ns3:hr>152</ns3:hr><ns3:cad>55</ns3:cad></ns3:TrackPointExtension></extensions></trkpt>
<trkpt lat="56.84219" lon="-4.01685"><ele>605.1</ele><time>2026-06-21T08:58:37Z</time><extensions><ns3:TrackPointExtension><ns3:hr>149</ns3:hr><ns3:cad>56</ns3:cad></ns3:TrackPointExtension></extensions></trkpt>
<trkpt lat="56.84228" lon="-4.01675"><ele>607.9</ele><time>2026-06-21T08:58:47Z</time><extensions><ns3:TrackPointExtension><ns3:hr>150</ns3:hr><ns3:cad>57</ns3:cad></ns3:TrackPointExtension></extensions></trkpt>
<trkpt lat="56.84237" lon="-4.01664"><ele>610.8</ele><time>2026-06-21T08:58:57Z</time><extensions><ns3:TrackPointExtension><ns3:hr>153</ns3:hr><ns3:cad>58</ns3:cad></ns3:TrackPointExtension></extensions></trkpt>
<trkpt lat="56.84245" lon="-4.01653"><ele>613.6</ele><time>2026-06-21T08:59:07Z</time><extensions><ns3:TrackPointExtension><ns3:hr>154</ns3:hr><ns3:cad>57</ns3:cad></ns3:TrackPointExtension></extensions></trkpt>
<trkpt lat="56.84254" lon="-4.01640"><ele>616.5</ele><time>2026-06-21T08:59:17Z</time><extensions><ns3:TrackPointExtension><ns3:hr>150</ns3:hr><ns3:cad>57</ns3:cad></ns3:TrackPointExtension></extensions></trkpt>
<trkpt lat="56.84261" lon="-4.01627"><ele>619.3</ele><time>2026-06-21T08:59:27Z</time><extensions><ns3:TrackPointExtension><ns3:hr>154</ns3:hr><ns3:cad>56</ns3:cad></ns3:TrackPointExtension></extensions></trkpt>
<trkpt lat="56.84268" lon="-4.01612"><ele>622.2</ele><time>2026-06-21T08:59:37Z</time><extensions><ns3:TrackPointExtension><ns3:hr>151</ns3:hr><ns3:cad>55</ns3:cad></ns3:TrackPointExtension></extensions></trkpt>
<trkpt lat="56.84275" lon="-4.01598"><ele>625.0</ele><time>2026-06-21T08:59:47Z</time><extensions><ns3:TrackPointExtension><ns3:hr>154</ns3:hr><ns3:cad>56</ns3:cad></ns3:TrackPointExtension></extensions></trkpt>
<trkpt lat="56.84282" lon="-4.01582"><ele>627.8</ele><time>2026-06-21T08:59:57Z</time><extensions><ns3:TrackPointExtension><ns3:hr>150</ns3:hr><ns3:cad>56</ns3:cad></ns3:TrackPointExtension></extensions></trkpt>
<trkpt lat="56.84288" lon="-4.01567"><ele>630.7</ele><time>2026-06-21T09:00:07Z</time><extensions><ns3:TrackPointExtension><ns3:hr>150</ns3:hr><ns3:cad>55</ns3:cad></ns3:TrackPointExtension></extensions></trkpt>
<trkpt lat="56.84293" lon="-4.01549"><ele>633.5</ele><time>2026-06-21T09:00:17Z</time><extensions><ns3:TrackPointExtension><ns3:hr>150</ns3:hr><ns3:cad>58</ns3:cad></ns3:TrackPointExtension></extensions></trkpt>
<trkpt lat="56.84298" lon="-4.01532"><ele>636.4</ele><time>2026-06-21T09:00:27Z</time><extensions><ns3:TrackPointExtension><ns3:hr>152</ns3:hr><ns3:cad>58</ns3:cad></ns3:TrackPointExtension></extensions></trkpt>
<trkpt lat="56.84304" lon="-4.01516"><ele>639.2</ele><time>2026-06-21T09:00:37Z</time><extensions><ns3:TrackPointExtension><ns3:hr>150</ns3:hr><ns3:cad>54</ns3:cad></ns3:TrackPointExtension></extensions></trkpt>
<trkpt lat="56.84310" lon="-4.01500"><ele>642.1</ele><time>2026-06-21T09:00:47Z</time><extensions><ns3:TrackPointExtension><ns3:hr>152</ns3:hr><ns3:cad>55</ns3:cad></ns3:TrackPointExtension></extensions></trkpt>
<trkpt lat="56.84316" lon="-4.01484"><ele>644.9</ele><time>2026-06-21T09:00:57Z</time><extensions><ns3:TrackPointExtension><ns3:hr>151</ns3:hr><ns3:cad>57</ns3:cad></ns3:TrackPointExtension></extensions></trkpt>
<trkpt lat="56.84321" lon="-4.01467"><ele>647.8</ele><time>2026-06-21T09:01:07Z</time><extensions><ns3:TrackPointExtension><ns3:hr>153</ns3:hr><ns3:cad>56</ns3:cad></ns3:TrackPointExtension></extensions></trkpt>
<trkpt lat="56.84327" lon="-4.01451"><ele>650.6</ele><time>2026-06-21T09:01:17Z</time><extensions><ns3:TrackPointExtension><ns3:hr>150</ns3:hr><ns3:cad>55</ns3:cad></ns3:TrackPointExtension></extensions></trkpt>
<trkpt lat="56.84333" lon="-4.01435"><ele>653.5</ele><time>2026-06-21T09:01:27Z</time><extensions><ns3:TrackPointExtension><ns3:hr>151</ns3:hr><ns3:cad>58</ns3:cad></ns3:TrackPointExtension></extensions></trkpt>
<trkpt lat="56.84340" lon="-4.01420"><ele>656.3</ele><time>2026-06-21T09:01:37Z</time><extensions><ns3:TrackPointExtension><ns3:hr>151</ns3:hr><ns3:cad>58</ns3:cad></ns3:TrackPointExtension></extensions></trkpt>
<trkpt lat="56.84347" lon="-4.01405"><ele>659.2</ele><time>2026-06-21T09:01:47Z</time><extensions><ns3:TrackPointExtension><ns3:hr>154</ns3:hr><ns3:cad>58</ns3:cad></ns3:TrackPointExtension></extensions></trkpt>
<trkpt lat="56.84353" lon="-4.01389"><ele>662.0</ele><time>2026-06-21T09:01:57Z</time><extensions><ns3:TrackPointExtension><ns3:hr>150</ns3:hr><ns3:cad>58</ns3:cad></ns3:TrackPointExtension></extensions></trkpt>
<trkpt lat="56.84359" lon="-4.01372"><ele>664.8</ele><time>2026-06-21T09:02:07Z</time><extensions><ns3:TrackPointExtension><ns3:hr>152</ns3:hr><ns3:cad>54</ns3:cad></ns3:TrackPointExtension></extensions></trkpt>
<trkpt lat="56.84365" lon="-4.01356"><ele>667.7</ele><time>2026-06-21T09:02:17Z</time><extensions><ns3:TrackPointExtension><ns3:hr>152</ns3:hr><ns3:cad>57</ns3:cad></ns3:TrackPointExtension></extensions></trkpt>
<trkpt lat="56.84371" lon="-4.01340"><ele>670.5</ele><time>2026-06-21T09:02:27Z</time><extensions><ns3:TrackPointExtension><ns3:hr>154</ns3:hr><ns3:cad>56</ns3:cad></ns3:TrackPointExtension></extensions></trkpt>
<trkpt lat="56.84375" lon="-4.01323"><ele>673.4</ele><time>2026-06-21T09:02:37Z</time><extensions><ns3:TrackPointExtension><ns3:hr>153</ns3:hr><ns3:cad>56</ns3:cad></ns3:TrackPointExtension></extensions></trkpt>
<trkpt lat="56.84380" lon="-4.01305"><ele>676.2</ele><time>2026-06-21T09:02:47Z</time><extensions><ns3:TrackPointExtension><ns3:hr>154</ns3:hr><ns3:cad>55</ns3:cad></ns3:TrackPointExtension></extensions></trkpt>
<trkpt lat="56.84383" lon="-4.01286"><ele>679.1</ele><time>2026-06-21T09:02:57Z</time><extensions><ns3:TrackPointExtension><ns3:hr>153</ns3:hr><ns3:cad>59</ns3:cad></ns3:TrackPointExtension></extensions></trkpt>
<trkpt lat="56.84387" lon="-4.01268"><ele>681.9</ele><time>2026-06-21T09:03:07Z</time><extensions><ns3:TrackPointExtension><ns3:hr>153</ns3:hr><ns3:cad>57</ns3:cad></ns3:TrackPointExtension></extensions></trkpt>
<trkpt lat="56.84392" lon="-4.01251"><ele>684.8</ele><time>2026-06-21T09:03:17Z</time><extensions><ns3:TrackPointExtension><ns3:hr>154</ns3:hr><ns3:cad>57</ns3:cad></ns3:TrackPointExtension></extensions></trkpt>
<trkpt lat="56.84396" lon="-4.01233"><ele>687.6</ele><time>2026-06-21T09:03:27Z</time><extensions><ns3:TrackPointExtension><ns3:hr>153</ns3:hr><ns3:cad>57</ns3:cad></ns3:TrackPointExtension></extensions></trkpt>
<trkpt lat="56.84401" lon="-4.01216"><ele>690.5</ele><time>2026-06-21T09:03:37Z</time><extensions><ns3:TrackPointExtension><ns3:hr>151</ns3:hr><ns3:cad>54</ns3:cad></ns3:TrackPointExtension></extensions></trkpt>
<trkpt lat="56.84406" lon="-4.01198"><ele>693.3</ele><time>2026-06-21T09:03:47Z</time><extensions><ns3:TrackPointExtension><ns3:hr>152</ns3:hr><ns3:cad>56</ns3:cad></ns3:TrackPointExtension></extensions></trkpt>
<trkpt lat="56.84409" lon="-4.01180"><ele>696.2</ele><time>2026-06-21T09:03:57Z</time><extensions><ns3:TrackPointExtension><ns3:hr>154</ns3:hr><ns3:cad>55</ns3:cad></ns3:TrackPointExtension></extensions></trkpt>
<trkpt lat="56.84412" lon="-4.01161"><ele>699.0</ele><time>2026-06-21T09:04:07Z</time><extensions><ns3:TrackPointExtension><ns3:hr>152</ns3:hr><ns3:cad>59</ns3:cad></ns3:TrackPointExtension></extensions></trkpt>
<trkpt lat="56.84414" lon="-4.01142"><ele>701.8</ele><time>2026-06-21T09:04:17Z</time><extensions><ns3:TrackPointExtension><ns3:hr>150</ns3:hr><ns3:cad>56</ns3:cad></ns3:TrackPointExtension></extensions></trkpt>
<trkpt lat="56.84417" lon="-4.01123"><ele>704.7</ele><time>2026-06-21T09:04:27Z</time><extensions><ns3:TrackPointExtension><ns3:hr>154</ns3:hr><ns3:cad>56</ns3:cad></ns3:TrackPointExtension></extensions></trkpt>
<trkpt lat="56.84420" lon="-4.01105"><ele>707.5</ele><time>2026-06-21T09:04:37Z</time><extensions><ns3:TrackPointExtension><ns3:hr>153</ns3:hr><ns3:cad>56</ns3:cad></ns3:TrackPointExtension></extensions></trkpt>
<trkpt lat="56.84424" lon="-4.01087"><ele>710.4</ele><time>2026-06-21T09:04:47Z</time><extensions><ns3:TrackPointExtension><ns3:hr>151</ns3:hr><ns3:cad>56</ns3:cad></ns3:TrackPointExtension></extensions></trkpt>
<trkpt lat="56.84427" lon="-4.01068"><ele>713.2</ele><time>2026-06-21T09:04:57Z</time><extensions><ns3:TrackPointExtension><ns3:hr>151</ns3:hr><ns3:cad>57</ns3:cad></ns3:TrackPointExtension></extensions></trkpt>
<trkpt lat="56.84429" lon="-4.01049"><ele>716.1</ele><time>2026-06-21T09:05:07Z</time><extensions><ns3:TrackPointExtension><ns3:hr>153</ns3:hr><ns3:cad>57</ns3:cad></ns3:TrackPointExtension></extensions></trkpt>
<trkpt lat="56.84431" lon="-4.01030"><ele>718.9</ele><time>2026-06-21T09:05:17Z</time><extensions><ns3:TrackPointExtension><ns3:hr>152</ns3:hr><ns3:cad>55</ns3:cad></ns3:TrackPointExtension></extensions></trkpt>
<trkpt lat="56.84433" lon="-4.01011"><ele>721.8</ele><time>2026-06-21T09:05:27Z</time><extensions><ns3:TrackPointExtension><ns3:hr>154</ns3:hr><ns3:cad>59</ns3:cad></ns3:TrackPointExtension></extensions></trkpt>
<trkpt lat="56.84435" lon="-4.00992"><ele>724.6</ele><time>2026-06-21T09:05:37Z</time><extensions><ns3:TrackPointExtension><ns3:hr>152</ns3:hr><ns3:cad>56</ns3:cad></ns3:TrackPointExtension></extensions></trkpt>
<trkpt lat="56.84437" lon="-4.00972"><ele>727.5</ele><time>2026-06-21T09:05:47Z</time><extensions><ns3:TrackPointExtension><ns3:hr>154</ns3:hr><ns3:cad>57</ns3:cad></ns3:TrackPointExtension></extensions></trkpt>
<trkpt lat="56.84438" lon="-4.00953"><ele>730.3</ele><time>2026-06-21T09:05:57Z</time><extensions><ns3:TrackPointExtension><ns3:hr>151</ns3:hr><ns3:cad>57</ns3:cad></ns3:TrackPointExtension></extensions></trkpt>
<trkpt lat="56.84439" lon="-4.00942"><ele>732.0</ele><time>2026-06-21T09:06:03Z</time><extensions><ns3:TrackPointExtension><ns3:hr>152</ns3:hr><ns3:cad>55</ns3:cad></ns3:TrackPointExtension></extensions></trkpt>
<trkpt lat="56.84442" lon="-4.00894"><ele>728.5</ele><time>2026-06-21T09:06:13Z</time><extensions><ns3:TrackPointExtension><ns3:hr>151</ns3:hr><ns3:cad>89</ns3:cad></ns3:TrackPointExtension></extensions></trkpt>
<trkpt lat="56.84449" lon="-4.00848"><ele>725.0</ele><time>2026-06-21T09:06:23Z</time><extensions><ns3:TrackPointExtension><ns3:hr>155</ns3:hr><ns3:cad>85</ns3:cad></ns3:TrackPointExtension></extensions></trkpt>
<trkpt lat="56.84454" lon="-4.00801"><ele>721.5</ele><time>2026-06-21T09:06:33Z</time><extensions><ns3:TrackPointExtension><ns3:hr>152</ns3:hr><ns3:cad>86</ns3:cad></ns3:TrackPointExtension></extensions></trkpt>
<trkpt lat="56.84460" lon="-4.00754"><ele>718.0</ele><time>2026-06-21T09:06:43Z</time><extensions><ns3:TrackPointExtension><ns3:hr>152</ns3:hr><ns3:cad>87</ns3:cad></ns3:TrackPointExtension></extensions></trkpt>
<trkpt lat="56.84462" lon="-4.00706"><ele>714.5</ele><time>2026-06-21T09:06:53Z</time><extensions><ns3:TrackPointExtension><ns3:hr>153</ns3:hr><ns3:cad>85</ns3:cad></ns3:TrackPointExtension></extensions></trkpt>
<trkpt lat="56.84465" lon="-4.00659"><ele>711.0</ele><time>2026-06-21T09:07:03Z</time><extensions><ns3:TrackPointExtension><ns3:hr>154</ns3:hr><ns3:cad>88</ns3:cad></ns3:TrackPointExtension></extensions></trkpt>
<trkpt lat="56.84466" lon="-4.00611"><ele>707.5</ele><time>2026-06-21T09:07:13Z</time><extensions><ns3:TrackPointExtension><ns3:hr>151</ns3:hr><ns3:cad>88</ns3:cad></ns3:TrackPointExtension></extensions></trkpt>
<trkpt lat="56.84470" lon="-4.00563"><ele>704.0</ele><time>2026-06-21T09:07:23Z</time><extensions><ns3:TrackPointExtension><ns3:hr>153</ns3:hr><ns3:cad>86</ns3:cad></ns3:TrackPointExtension></extensions></trkpt>
<trkpt lat="56.84478" lon="-4.00517"><ele>700.5</ele><time>2026-06-21T09:07:33Z</time><extensions><ns3:TrackPointExtension><ns3:hr>151</ns3:hr><ns3:cad>88</ns3:cad></ns3:TrackPointExtension></extensions></trkpt>
<trkpt lat="56.84485" lon="-4.00471"><ele>697.0</ele><time>2026-06-21T09:07:43Z</time><extensions><ns3:TrackPointExtension><ns3:hr>151</ns3:hr><ns3:cad>87</ns3:cad></ns3:TrackPointExtension></extensions></trkpt>
<trkpt lat="56.84492" lon="-4.00425"><ele>693.5</ele><time>2026-06-21T09:07:53Z</time><extensions><ns3:TrackPointExtension><ns3:hr>154</ns3:hr><ns3:cad>85</ns3:cad></ns3:TrackPointExtension></extensions></trkpt>
<trkpt lat="56.84497" lon="-4.00378"><ele>690.0</ele><time>2026-06-21T09:08:03Z</time><extensions><ns3:TrackPointExtension><ns3:hr>152</ns3:hr><ns3:cad>88</ns3:cad></ns3:TrackPointExtension></extensions></trkpt>
<trkpt lat="56.84503" lon="-4.00331"><ele>686.5</ele><time>2026-06-21T09:08:13Z</time><extensions><ns3:TrackPointExtension><ns3:hr>153</ns3:hr><ns3:cad>85</ns3:cad></ns3:TrackPointExtension></extensions></trkpt>
<trkpt lat="56.84508" lon="-4.00284"><ele>683.0</ele><time>2026-06-21T09:08:23Z</time><extensions><ns3:TrackPointExtension><ns3:hr>150</ns3:hr><ns3:cad>85</ns3:cad></ns3:TrackPointExtension></extensions></trkpt>
<trkpt lat="56.84512" lon="-4.00237"><ele>679.5</ele><time>2026-06-21T09:08:33Z</time><extensions><ns3:TrackPointExtension><ns3:hr>150</ns3:hr><ns3:cad>87</ns3:cad></ns3:TrackPointExtension></extensions></trkpt>
<trkpt lat="56.84519" lon="-4.00191"><ele>676.0</ele><time>2026-06-21T09:08:43Z</time><extensions><ns3:TrackPointExtension><ns3:hr>150</ns3:hr><ns3:cad>88</ns3:cad></ns3:TrackPointExtension></extensions></trkpt>
<trkpt lat="56.84523" lon="-4.00143"><ele>672.5</ele><time>2026-06-21T09:08:53Z</time><extensions><ns3:TrackPointExtension><ns3:hr>153</ns3:hr><ns3:cad>89</ns3:cad></ns3:TrackPointExtension></extensions></trkpt>
<trkpt lat="56.84528" lon="-4.00096"><ele>669.0</ele><time>2026-06-21T09:09:03Z</time><extensions><ns3:TrackPointExtension><ns3:hr>153</ns3:hr><ns3:cad>88</ns3:cad></ns3:TrackPointExtension></extensions></trkpt>
<trkpt lat="56.84532" lon="-4.00049"><ele>665.5</ele><time>2026-06-21T09:09:13Z</time><extensions><ns3:TrackPointExtension><ns3:hr>151</ns3:hr><ns3:cad>87</ns3:cad></ns3:TrackPointExtension></extensions></trkpt>
<trkpt lat="56.84534" lon="-4.00001"><ele>662.0</ele><time>2026-06-21T09:09:23Z</time><extensions><ns3:TrackPointExtension><ns3:hr>151</ns3:hr><ns3:cad>86</ns3:cad></ns3:TrackPointExtension></extensions></trkpt>
<trkpt lat="56.84539" lon="-3.99954"><ele>658.5</ele><time>2026-06-21T09:09:33Z</time><extensions><ns3:TrackPointExtension><ns3:hr>155</ns3:hr><ns3:cad>85</ns3:cad></ns3:TrackPointExtension></extensions></trkpt>
<trkpt lat="56.84544" lon="-3.99907"><ele>655.0</ele><time>2026-06-21T09:09:43Z</time><extensions><ns3:TrackPointExtension><ns3:hr>154</ns3:hr><ns3:cad>85</ns3:cad></ns3:TrackPointExtension></extensions></trkpt>
<trkpt lat="56.84553" lon="-3.99862"><ele>651.5</ele><time>2026-06-21T09:09:53Z</time><extensions><ns3:TrackPointExtension><ns3:hr>153</ns3:hr><ns3:cad>86</ns3:cad></ns3:TrackPointExtension></extensions></trkpt>
<trkpt lat="56.84561" lon="-3.99817"><ele>648.0</ele><time>2026-06-21T09:10:03Z</time><extensions><ns3:TrackPointExtension><ns3:hr>155</ns3:hr><ns3:cad>85</ns3:cad></ns3:TrackPointExtension></extensions></trkpt>
<trkpt lat="56.84569" lon="-3.99770"><ele>645.3</ele><time>2026-06-21T09:10:13Z</time><extensions><ns3:TrackPointExtension><ns3:hr>152</ns3:hr><ns3:cad>86</ns3:cad></ns3:TrackPointExtension></extensions></trkpt>
<trkpt lat="56.84577" lon="-3.99723"><ele>642.6</ele><time>2026-06-21T09:10:23Z</time><extensions><ns3:TrackPointExtension><ns3:hr>150</ns3:hr><ns3:cad>87</ns3:cad></ns3:TrackPointExtension></extensions></trkpt>
<trkpt lat="56.84583" lon="-3.99675"><ele>639.9</ele><time>2026-06-21T09:10:33Z</time><extensions><ns3:TrackPointExtension><ns3:hr>153</ns3:hr><ns3:cad>85</ns3:cad></ns3:TrackPointExtension></extensions></trkpt>
<trkpt lat="56.84587" lon="-3.99627"><ele>637.2</ele><time>2026-06-21T09:10:43Z</time><extensions><ns3:TrackPointExtension><ns3:hr>154</ns3:hr><ns3:cad>85</ns3:cad></ns3:TrackPointExtension></extensions></trkpt>
<trkpt lat="56.84591" lon="-3.99578"><ele>634.5</ele><time>2026-06-21T09:10:53Z</time><extensions><ns3:TrackPointExtension><ns3:hr>153</ns3:hr><ns3:cad>87</ns3:cad></ns3:TrackPointExtension></extensions></trkpt>
<trkpt lat="56.84594" lon="-3.99529"><ele>631.8</ele><time>2026-06-21T09:11:03Z</time><extensions><ns3:TrackPointExtension><ns3:hr>151</ns3:hr><ns3:cad>88</ns3:cad></ns3:TrackPointExtension></extensions></trkpt>
<trkpt lat="56.84596" lon="-3.99480"><ele>629.1</ele><time>2026-06-21T09:11:13Z</time><extensions><ns3:TrackPointExtension><ns3:hr>153</ns3:hr><ns3:cad>86</ns3:cad></ns3:TrackPointExtension></extensions></trkpt>
<trkpt lat="56.84596" lon="-3.99431"><ele>626.4</ele><time>2026-06-21T09:11:23Z</time><extensions><ns3:TrackPointExtension><ns3:hr>154</ns3:hr><ns3:cad>85</ns3:cad></ns3:TrackPointExtension></extensions></trkpt>
<trkpt lat="56.84595" lon="-3.99382"><ele>623.8</ele><time>2026-06-21T09:11:33Z</time><extensions><ns3:TrackPointExtension><ns3:hr>154</ns3:hr><ns3:cad>88</ns3:cad></ns3:TrackPointExtension></extensions></trkpt>
<trkpt lat="56.84596" lon="-3.99333"><ele>621.1</ele><time>2026-06-21T09:11:43Z</time><extensions><ns3:TrackPointExtension><ns3:hr>150</ns3:hr><ns3:cad>86</ns3:cad></ns3:TrackPointExtension></extensions></trkpt>
<trkpt lat="56.84597" lon="-3.99283"><ele>618.4</ele><time>2026-06-21T09:11:53Z</time><extensions><ns3:TrackPointExtension><ns3:hr>152</ns3:hr><ns3:cad>86</ns3:cad></ns3:TrackPointExtension></extensions></trkpt>
<trkpt lat="56.84601" lon="-3.99235"><ele>615.7</ele><time>2026-06-21T09:12:03Z</time><extensions><ns3:TrackPointExtension><ns3:hr>152</ns3:hr><ns3:cad>89</ns3:cad></ns3:TrackPointExtension></extensions></trkpt>
<trkpt lat="56.84604" lon="-3.99186"><ele>613.0</ele><time>2026-06-21T09:12:13Z</time><extensions><ns3:TrackPointExtension><ns3:hr>153</ns3:hr><ns3:cad>88</ns3:cad></ns3:TrackPointExtension></extensions></trkpt>
<trkpt lat="56.84610" lon="-3.99138"><ele>610.3</ele><time>2026-06-21T09:12:23Z</time><extensions><ns3:TrackPointExtension><ns3:hr>154</ns3:hr><ns3:cad>88</ns3:cad></ns3:TrackPointExtension></extensions></trkpt>
<trkpt lat="56.84613" lon="-3.99089"><ele>607.6</ele><time>2026-06-21T09:12:33Z</time><extensions><ns3:TrackPointExtension><ns3:hr>152</ns3:hr><ns3:cad>85</ns3:cad></ns3:TrackPointExtension></extensions></trkpt>
<trkpt lat="56.84618" lon="-3.99041"><ele>604.9</ele><time>2026-06-21T09:12:43Z</time><extensions><ns3:TrackPointExtension><ns3:hr>152</ns3:hr><ns3:cad>85</ns3:cad></ns3:TrackPointExtension></extensions></trkpt>
<trkpt lat="56.84624" lon="-3.98993"><ele>602.2</ele><time>2026-06-21T09:12:53Z</time><extensions><ns3:TrackPointExtension><ns3:hr>155</ns3:hr><ns3:cad>87</ns3:cad></ns3:TrackPointExtension></extensions></trkpt>
<trkpt lat="56.84633" lon="-3.98947"><ele>599.5</ele><time>2026-06-21T09:13:03Z</time><extensions><ns3:TrackPointExtension><ns3:hr>151</ns3:hr><ns3:cad>87</ns3:cad></ns3:TrackPointExtension></extensions></trkpt>
<trkpt lat="56.84639" lon="-3.98899"><ele>596.8</ele><time>2026-06-21T09:13:13Z</time><extensions><ns3:TrackPointExtension><ns3:hr>153</ns3:hr><ns3:cad>88</ns3:cad></ns3:TrackPointExtension></extensions></trkpt>
<trkpt lat="56.84647" lon="-3.98851"><ele>594.1</ele><time>2026-06-21T09:13:23Z</time><extensions><ns3:TrackPointExtension><ns3:hr>153</ns3:hr><ns3:cad>87</ns3:cad></ns3:TrackPointExtension></extensions></trkpt>
<trkpt lat="56.84656" lon="-3.98806"><ele>591.4</ele><time>2026-06-21T09:13:33Z</time><extensions><ns3:TrackPointExtension><ns3:hr>152</ns3:hr><ns3:cad>87</ns3:cad></ns3:TrackPointExtension></extensions></trkpt>
<trkpt lat="56.84664" lon="-3.98759"><ele>588.7</ele><time>2026-06-21T09:13:43Z</time><extensions><ns3:TrackPointExtension><ns3:hr>151</ns3:hr><ns3:cad>84</ns3:cad></ns3:TrackPointExtension></extensions></trkpt>
<trkpt lat="56.84674" lon="-3.98713"><ele>586.0</ele><time>2026-06-21T09:13:53Z</time><extensions><ns3:TrackPointExtension><ns3:hr>154</ns3:hr><ns3:cad>88</ns3:cad></ns3:TrackPointExtension></extensions></trkpt>
<trkpt lat="56.84687" lon="-3.98670"><ele>583.3</ele><time>2026-06-21T09:14:03Z</time><extensions><ns3:TrackPointExtension><ns3:hr>152</ns3:hr><ns3:cad>85</ns3:cad></ns3:TrackPointExtension></extensions></trkpt>
<trkpt lat="56.84699" lon="-3.98625"><ele>580.6</ele><time>2026-06-21T09:14:13Z</time><extensions><ns3:TrackPointExtension><ns3:hr>150</ns3:hr><ns3:cad>88</ns3:cad></ns3:TrackPointExtension></extensions></trkpt>
<trkpt lat="56.84709" lon="-3.98580"><ele>578.0</ele><time>2026-06-21T09:14:23Z</time><extensions><ns3:TrackPointExtension><ns3:hr>152</ns3:hr><ns3:cad>88</ns3:cad></ns3:TrackPointExtension></extensions></trkpt>
<trkpt lat="56.84719" lon="-3.98535"><ele>575.3</ele><time>2026-06-21T09:14:33Z</time><extensions><ns3:TrackPointExtension><ns3:hr>153</ns3:hr><ns3:cad>85</ns3:cad></ns3:TrackPointExtension></extensions></trkpt>
<trkpt lat="56.84727" lon="-3.98487"><ele>572.6</ele><time>2026-06-21T09:14:43Z</time><extensions><ns3:TrackPointExtension><ns3:hr>150</ns3:hr><ns3:cad>84</ns3:cad></ns3:TrackPointExtension></extensions></trkpt>
<trkpt lat="56.84733" lon="-3.98439"><ele>569.9</ele><time>2026-06-21T09:14:53Z</time><extensions><ns3:TrackPointExtension><ns3:hr>154</ns3:hr><ns3:cad>89</ns3:cad></ns3:TrackPointExtension></extensions></trkpt>
<trkpt lat="56.84741" lon="-3.98393"><ele>567.2</ele><time>2026-06-21T09:15:03Z</time><extensions><ns3:TrackPointExtension><ns3:hr>150</ns3:hr><ns3:cad>88</ns3:cad></ns3:TrackPointExtension></extensions></trkpt>
<trkpt lat="56.84747" lon="-3.98345"><ele>564.5</ele><time>2026-06-21T09:15:13Z</time><extensions><ns3:TrackPointExtension><ns3:hr>152</ns3:hr><ns3:cad>86</ns3:cad></ns3:TrackPointExtension></extensions></trkpt>
<trkpt lat="56.84751" lon="-3.98296"><ele>561.8</ele><time>2026-06-21T09:15:23Z</time><extensions><ns3:TrackPointExtension><ns3:hr>154</ns3:hr><ns3:cad>87</ns3:cad></ns3:TrackPointExtension></extensions></trkpt>
<trkpt lat="56.84758" lon="-3.98248"><ele>559.1</ele><time>2026-06-21T09:15:33Z</time><extensions><ns3:TrackPointExtension><ns3:hr>153</ns3:hr><ns3:cad>88</ns3:cad></ns3:TrackPointExtension></extensions></trkpt>
<trkpt lat="56.84767" lon="-3.98202"><ele>556.4</ele><time>2026-06-21T09:15:43Z</time><extensions><ns3:TrackPointExtension><ns3:hr>154</ns3:hr><ns3:cad>85</ns3:cad></ns3:TrackPointExtension></extensions></trkpt>
<trkpt lat="56.84773" lon="-3.98154"><ele>553.7</ele><time>2026-06-21T09:15:53Z</time><extensions><ns3:TrackPointExtension><ns3:hr>154</ns3:hr><ns3:cad>86</ns3:cad></ns3:TrackPointExtension></extensions></trkpt>
<trkpt lat="56.84780" lon="-3.98107"><ele>551.0</ele><time>2026-06-21T09:16:03Z</time><extensions><ns3:TrackPointExtension><ns3:hr>152</ns3:hr><ns3:cad>85</ns3:cad></ns3:TrackPointExtension></extensions></trkpt>
<trkpt lat="56.84785" lon="-3.98059"><ele>548.3</ele><time>2026-06-21T09:16:13Z</time><extensions><ns3:TrackPointExtension><ns3:hr>155</ns3:hr><ns3:cad>88</ns3:cad></ns3:TrackPointExtension></extensions></trkpt>
<trkpt lat="56.84788" lon="-3.98010"><ele>545.6</ele><time>2026-06-21T09:16:23Z</time><extensions><ns3:TrackPointExtension><ns3:hr>155</ns3:hr><ns3:cad>87</ns3:cad></ns3:TrackPointExtension></extensions></trkpt>
<trkpt lat="56.84788" lon="-3.97960"><ele>542.9</ele><time>2026-06-21T09:16:33Z</time><extensions><ns3:TrackPointExtension><ns3:hr>151</ns3:hr><ns3:cad>85</ns3:cad></ns3:TrackPointExtension></extensions></trkpt>
<trkpt lat="56.84790" lon="-3.97911"><ele>540.2</ele><time>2026-06-21T09:16:43Z</time><extensions><ns3:TrackPointExtension><ns3:hr>152</ns3:hr><ns3:cad>86</ns3:cad></ns3:TrackPointExtension></extensions></trkpt>
<trkpt lat="56.84789" lon="-3.97907"><ele>540.0</ele><time>2026-06-21T09:16:44Z</time><extensions><ns3:TrackPointExtension><ns3:hr>155</ns3:hr><ns3:cad>87</ns3:cad></ns3:TrackPointExtension></extensions></trkpt>
<trkpt lat="56.84789" lon="-3.97870"><ele>541.3</ele><time>2026-06-21T09:16:54Z</time><extensions><ns3:TrackPointExtension><ns3:hr>153</ns3:hr><ns3:cad>84</ns3:cad></ns3:TrackPointExtension></extensions></trkpt>
<trkpt lat="56.84790" lon="-3.97834"><ele>542.7</ele><time>2026-06-21T09:17:04Z</time><extensions><ns3:TrackPointExtension><ns3:hr>152</ns3:hr><ns3:cad>88</ns3:cad></ns3:TrackPointExtension></extensions></trkpt>
<trkpt lat="56.84792" lon="-3.97798"><ele>544.0</ele><time>2026-06-21T09:17:14Z</time><extensions><ns3:TrackPointExtension><ns3:hr>154</ns3:hr><ns3:cad>89</ns3:cad></ns3:TrackPointExtension></extensions></trkpt>
<trkpt lat="56.84797" lon="-3.97762"><ele>545.4</ele><time>2026-06-21T09:17:24Z</time><extensions><ns3:TrackPointExtension><ns3:hr>155</ns3:hr><ns3:cad>89</ns3:cad></ns3:TrackPointExtension></extensions></trkpt>
<trkpt lat="56.84802" lon="-3.97726"><ele>546.7</ele><time>2026-06-21T09:17:34Z</time><extensions><ns3:TrackPointExtension><ns3:hr>153</ns3:hr><ns3:cad>89</ns3:cad></ns3:TrackPointExtension></extensions></trkpt>
<trkpt lat="56.84808" lon="-3.97691"><ele>548.0</ele><time>2026-06-21T09:17:44Z</time><extensions><ns3:TrackPointExtension><ns3:hr>153</ns3:hr><ns3:cad>87</ns3:cad></ns3:TrackPointExtension></extensions></trkpt>
<trkpt lat="56.84812" lon="-3.97656"><ele>549.4</ele><time>2026-06-21T09:17:54Z</time><extensions><ns3:TrackPointExtension><ns3:hr>150</ns3:hr><ns3:cad>85</ns3:cad></ns3:TrackPointExtension></extensions></trkpt>
<trkpt lat="56.84817" lon="-3.97620"><ele>550.7</ele><time>2026-06-21T09:18:04Z</time><extensions><ns3:TrackPointExtension><ns3:hr>154</ns3:hr><ns3:cad>89</ns3:cad></ns3:TrackPointExtension></extensions></trkpt>
<trkpt lat="56.84819" lon="-3.97583"><ele>552.0</ele><time>2026-06-21T09:18:14Z</time><extensions><ns3:TrackPointExtension><ns3:hr>153</ns3:hr><ns3:cad>87</ns3:cad></ns3:TrackPointExtension></extensions></trkpt>
<trkpt lat="56.84824" lon="-3.97548"><ele>553.4</ele><time>2026-06-21T09:18:24Z</time><extensions><ns3:TrackPointExtension><ns3:hr>155</ns3:hr><ns3:cad>85</ns3:cad></ns3:TrackPointExtension></extensions></trkpt>
<trkpt lat="56.84831" lon="-3.97513"><ele>554.7</ele><time>2026-06-21T09:18:34Z</time><extensions><ns3:TrackPointExtension><ns3:hr>153</ns3:hr><ns3:cad>87</ns3:cad></ns3:TrackPointExtension></extensions></trkpt>
<trkpt lat="56.84840" lon="-3.97481"><ele>556.1</ele><time>2026-06-21T09:18:44Z</time><extensions><ns3:TrackPointExtension><ns3:hr>153</ns3:hr><ns3:cad>89</ns3:cad></ns3:TrackPointExtension></extensions></trkpt>
<trkpt lat="56.84849" lon="-3.97448"><ele>557.4</ele><time>2026-06-21T09:18:54Z</time><extensions><ns3:TrackPointExtension><ns3:hr>150</ns3:hr><ns3:cad>85</ns3:cad></ns3:TrackPointExtension></extensions></trkpt>
<trkpt lat="56.84860" lon="-3.97418"><ele>558.7</ele><time>2026-06-21T09:19:04Z</time><extensions><ns3:TrackPointExtension><ns3:hr>150</ns3:hr><ns3:cad>85</ns3:cad></ns3:TrackPointExtension></extensions></trkpt>
<trkpt lat="56.84871" lon="-3.97386"><ele>560.1</ele><time>2026-06-21T09:19:14Z</time><extensions><ns3:TrackPointExtension><ns3:hr>152</ns3:hr><ns3:cad>88</ns3:cad></ns3:TrackPointExtension></extensions></trkpt>
<trkpt lat="56.84883" lon="-3.97358"><ele>561.4</ele><time>2026-06-21T09:19:24Z</time><extensions><ns3:TrackPointExtension><ns3:hr>151</ns3:hr><ns3:cad>88</ns3:cad></ns3:TrackPointExtension></extensions></trkpt>
<trkpt lat="56.84893" lon="-3.97327"><ele>562.7</ele><time>2026-06-21T09:19:34Z</time><extensions><ns3:TrackPointExtension><ns3:hr>151</ns3:hr><ns3:cad>86</ns3:cad></ns3:TrackPointExtension></extensions></trkpt>
<trkpt lat="56.84903" lon="-3.97294"><ele>564.1</ele><time>2026-06-21T09:19:44Z</time><extensions><ns3:TrackPointExtension><ns3:hr>154</ns3:hr><ns3:cad>88</ns3:cad></ns3:TrackPointExtension></extensions></trkpt>
<trkpt lat="56.84914" lon="-3.97264"><ele>565.4</ele><time>2026-06-21T09:19:54Z</time><extensions><ns3:TrackPointExtension><ns3:hr>155</ns3:hr><ns3:cad>85</ns3:cad></ns3:TrackPointExtension></extensions></trkpt>
<trkpt lat="56.84926" lon="-3.97235"><ele>566.8</ele><time>2026-06-21T09:20:04Z</time><extensions><ns3:TrackPointExtension><ns3:hr>151</ns3:hr><ns3:cad>85</ns3:cad></ns3:TrackPointExtension></extensions></trkpt>
<trkpt lat="56.84937" lon="-3.97204"><ele>568.1</ele><time>2026-06-21T09:20:14Z</time><extensions><ns3:TrackPointExtension><ns3:hr>151</ns3:hr><ns3:cad>88</ns3:cad></ns3:TrackPointExtension></extensions></trkpt>
<trkpt lat="56.84948" lon="-3.97173"><ele>569.4</ele><time>2026-06-21T09:20:24Z</time><extensions><ns3:TrackPointExtension><ns3:hr>152</ns3:hr><ns3:cad>84</ns3:cad></ns3:TrackPointExtension></extensions></trkpt>
<trkpt lat="56.84957" lon="-3.97141"><ele>570.8</ele><time>2026-06-21T09:20:34Z</time><extensions><ns3:TrackPointExtension><ns3:hr>154</ns3:hr><ns3:cad>86</ns3:cad></ns3:TrackPointExtension></extensions></trkpt>
<trkpt lat="56.84968" lon="-3.97109"><ele>572.1</ele><time>2026-06-21T09:20:44Z</time><extensions><ns3:TrackPointExtension><ns3:hr>151</ns3:hr><ns3:cad>87</ns3:cad></ns3:TrackPointExtension></extensions></trkpt>
<trkpt lat="56.84980" lon="-3.97080"><ele>573.5</ele><time>2026-06-21T09:20:54Z</time><extensions><ns3:TrackPointExtension><ns3:hr>151</ns3:hr><ns3:cad>85</ns3:cad></ns3:TrackPointExtension></extensions></trkpt>
<trkpt lat="56.84990" lon="-3.97049"><ele>574.8</ele><time>2026-06-21T09:21:04Z</time><extensions><ns3:TrackPointExtension><ns3:hr>154</ns3:hr><ns3:cad>85</ns3:cad></ns3:TrackPointExtension></extensions></trkpt>
<trkpt lat="56.85002" lon="-3.97020"><ele>576.1</ele><time>2026-06-21T09:21:14Z</time><extensions><ns3:TrackPointExtension><ns3:hr>155</ns3:hr><ns3:cad>85</ns3:cad></ns3:TrackPointExtension></extensions></trkpt>
<trkpt lat="56.85015" lon="-3.96991"><ele>577.5</ele><time>2026-06-21T09:21:24Z</time><extensions><ns3:TrackPointExtension><ns3:hr>153</ns3:hr><ns3:cad>86</ns3:cad></ns3:TrackPointExtension></extensions></trkpt>
<trkpt lat="56.85028" lon="-3.96963"><ele>578.8</ele><time>2026-06-21T09:21:34Z</time><extensions><ns3:TrackPointExtension><ns3:hr>152</ns3:hr><ns3:cad>86</ns3:cad></ns3:TrackPointExtension></extensions></trkpt>
<trkpt lat="56.85041" lon="-3.96936"><ele>580.1</ele><time>2026-06-21T09:21:44Z</time><extensions><ns3:TrackPointExtension><ns3:hr>153</ns3:hr><ns3:cad>86</ns3:cad></ns3:TrackPointExtension></extensions></trkpt>
<trkpt lat="56.85055" lon="-3.96909"><ele>581.5</ele><time>2026-06-21T09:21:54Z</time><extensions><ns3:TrackPointExtension><ns3:hr>154</ns3:hr><ns3:cad>86</ns3:cad></ns3:TrackPointExtension></extensions></trkpt>
<trkpt lat="56.85068" lon="-3.96881"><ele>582.8</ele><time>2026-06-21T09:22:04Z</time><extensions><ns3:TrackPointExtension><ns3:hr>155</ns3:hr><ns3:cad>86</ns3:cad></ns3:TrackPointExtension></extensions></trkpt>
<trkpt lat="56.85082" lon="-3.96854"><ele>584.2</ele><time>2026-06-21T09:22:14Z</time><extensions><ns3:TrackPointExtension><ns3:hr>150</ns3:hr><ns3:cad>87</ns3:cad></ns3:TrackPointExtension></extensions></trkpt>
<trkpt lat="56.85094" lon="-3.96825"><ele>585.5</ele><time>2026-06-21T09:22:24Z</time><extensions><ns3:TrackPointExtension><ns3:hr>152</ns3:hr><ns3:cad>89</ns3:cad></ns3:TrackPointExtension></extensions></trkpt>
<trkpt lat="56.85105" lon="-3.96794"><ele>586.8</ele><time>2026-06-21T09:22:34Z</time><extensions><ns3:TrackPointExtension><ns3:hr>152</ns3:hr><ns3:cad>85</ns3:cad></ns3:TrackPointExtension></extensions></trkpt>
<trkpt lat="56.85117" lon="-3.96766"><ele>588.2</ele><time>2026-06-21T09:22:44Z</time><extensions><ns3:TrackPointExtension><ns3:hr>151</ns3:hr><ns3:cad>89</ns3:cad></ns3:TrackPointExtension></extensions></trkpt>
<trkpt lat="56.85128" lon="-3.96736"><ele>589.5</ele><time>2026-06-21T09:22:54Z</time><extensions><ns3:TrackPointExtension><ns3:hr>153</ns3:hr><ns3:cad>87</ns3:cad></ns3:TrackPointExtension></extensions></trkpt>
<trkpt lat="56.85140" lon="-3.96706"><ele>590.9</ele><time>2026-06-21T09:23:04Z</time><extensions><ns3:TrackPointExtension><ns3:hr>153</ns3:hr><ns3:cad>86</ns3:cad></ns3:TrackPointExtension></extensions></trkpt>
<trkpt lat="56.85152" lon="-3.96677"><ele>592.2</ele><time>2026-06-21T09:23:14Z</time><extensions><ns3:TrackPointExtension><ns3:hr>152</ns3:hr><ns3:cad>87</ns3:cad></ns3:TrackPointExtension></extensions></trkpt>
<trkpt lat="56.85165" lon="-3.96648"><ele>593.5</ele><time>2026-06-21T09:23:24Z</time><extensions><ns3:TrackPointExtension><ns3:hr>155</ns3:hr><ns3:cad>88</ns3:cad></ns3:TrackPointExtension></extensions></trkpt>
<trkpt lat="56.85169" lon="-3.96638"><ele>594.0</ele><time>2026-06-21T09:23:27Z</time><extensions><ns3:TrackPointExtension><ns3:hr>153</ns3:hr><ns3:cad>87</ns3:cad></ns3:TrackPointExtension></extensions></trkpt>
<trkpt lat="56.85186" lon="-3.96593"><ele>591.7</ele><time>2026-06-21T09:23:37Z</time><extensions><ns3:TrackPointExtension><ns3:hr>155</ns3:hr><ns3:cad>88</ns3:cad></ns3:TrackPointExtension></extensions></trkpt>
<trkpt lat="56.85200" lon="-3.96546"><ele>589.4</ele><time>2026-06-21T09:23:47Z</time><extensions><ns3:TrackPointExtension><ns3:hr>151</ns3:hr><ns3:cad>86</ns3:cad></ns3:TrackPointExtension></extensions></trkpt>
<trkpt lat="56.85216" lon="-3.96501"><ele>587.1</ele><time>2026-06-21T09:23:57Z</time><extensions><ns3:TrackPointExtension><ns3:hr>152</ns3:hr><ns3:cad>85</ns3:cad></ns3:TrackPointExtension></extensions></trkpt>
<trkpt lat="56.85231" lon="-3.96454"><ele>584.8</ele><time>2026-06-21T09:24:07Z</time><extensions><ns3:TrackPointExtension><ns3:hr>152</ns3:hr><ns3:cad>85</ns3:cad></ns3:TrackPointExtension></extensions></trkpt>
<trkpt lat="56.85244" lon="-3.96404"><ele>582.5</ele><time>2026-06-21T09:24:17Z</time><extensions><ns3:TrackPointExtension><ns3:hr>155</ns3:hr><ns3:cad>87</ns3:cad></ns3:TrackPointExtension></extensions></trkpt>
<trkpt lat="56.85256" lon="-3.96355"><ele>580.1</ele><time>2026-06-21T09:24:27Z</time><extensions><ns3:TrackPointExtension><ns3:hr>152</ns3:hr><ns3:cad>84</ns3:cad></ns3:TrackPointExtension></extensions></trkpt>
<trkpt lat="56.85269" lon="-3.96306"><ele>577.8</ele><time>2026-06-21T09:24:37Z</time><extensions><ns3:TrackPointExtension><ns3:hr>151</ns3:hr><ns3:cad>85</ns3:cad></ns3:TrackPointExtension></extensions></trkpt>
<trkpt lat="56.85278" lon="-3.96255"><ele>575.5</ele><time>2026-06-21T09:24:47Z</time><extensions><ns3:TrackPointExtension><ns3:hr>152</ns3:hr><ns3:cad>85</ns3:cad></ns3:TrackPointExtension></extensions></trkpt>
<trkpt lat="56.85292" lon="-3.96207"><ele>573.2</ele><time>2026-06-21T09:24:57Z</time><extensions><ns3:TrackPointExtension><ns3:hr>155</ns3:hr><ns3:cad>85</ns3:cad></ns3:TrackPointExtension></extensions></trkpt>
<trkpt lat="56.85306" lon="-3.96159"><ele>570.9</ele><time>2026-06-21T09:25:07Z</time><extensions><ns3:TrackPointExtension><ns3:hr>152</ns3:hr><ns3:cad>88</ns3:cad></ns3:TrackPointExtension></extensions></trkpt>
<trkpt lat="56.85317" lon="-3.96109"><ele>568.6</ele><time>2026-06-21T09:25:17Z</time><extensions><ns3:TrackPointExtension><ns3:hr>152</ns3:hr><ns3:cad>86</ns3:cad></ns3:TrackPointExtension></extensions></trkpt>
<trkpt lat="56.85327" lon="-3.96057"><ele>566.3</ele><time>2026-06-21T09:25:27Z</time><extensions><ns3:TrackPointExtension><ns3:hr>151</ns3:hr><ns3:cad>87</ns3:cad></ns3:TrackPointExtension></extensions></trkpt>
<trkpt lat="56.85340" lon="-3.96009"><ele>564.0</ele><time>2026-06-21T09:25:37Z</time><extensions><ns3:TrackPointExtension><ns3:hr>153</ns3:hr><ns3:cad>84</ns3:cad></ns3:TrackPointExtension></extensions></trkpt>
<trkpt lat="56.85354" lon="-3.95961"><ele>561.7</ele><time>2026-06-21T09:25:47Z</time><extensions><ns3:TrackPointExtension><ns3:hr>155</ns3:hr><ns3:cad>88</ns3:cad></ns3:TrackPointExtension></extensions></trkpt>
<trkpt lat="56.85368" lon="-3.95914"><ele>559.4</ele><time>2026-06-21T09:25:57Z</time><extensions><ns3:TrackPointExtension><ns3:hr>155</ns3:hr><ns3:cad>88</ns3:cad></ns3:TrackPointExtension></extensions></trkpt>
<trkpt lat="56.85380" lon="-3.95863"><ele>557.0</ele><time>2026-06-21T09:26:07Z</time><extensions><ns3:TrackPointExtension><ns3:hr>153</ns3:hr><ns3:cad>85</ns3:cad></ns3:TrackPointExtension></extensions></trkpt>
<trkpt lat="56.85394" lon="-3.95816"><ele>554.7</ele><time>2026-06-21T09:26:17Z</time><extensions><ns3:TrackPointExtension><ns3:hr>151</ns3:hr><ns3:cad>87</ns3:cad></ns3:TrackPointExtension></extensions></trkpt>
<trkpt lat="56.85409" lon="-3.95770"><ele>552.4</ele><time>2026-06-21T09:26:27Z</time><extensions><ns3:TrackPointExtension><ns3:hr>152</ns3:hr><ns3:cad>85</ns3:cad></ns3:TrackPointExtension></extensions></trkpt>
<trkpt lat="56.85427" lon="-3.95726"><ele>550.1</ele><time>2026-06-21T09:26:37Z</time><extensions><ns3:TrackPointExtension><ns3:hr>152</ns3:hr><ns3:cad>85</ns3:cad></ns3:TrackPointExtension></extensions></trkpt>
<trkpt lat="56.85445" lon="-3.95684"><ele>547.8</ele><time>2026-06-21T09:26:47Z</time><extensions><ns3:TrackPointExtension><ns3:hr>152</ns3:hr><ns3:cad>89</ns3:cad></ns3:TrackPointExtension></extensions></trkpt>
<trkpt lat="56.85464" lon="-3.95641"><ele>545.5</ele><time>2026-06-21T09:26:57Z</time><extensions><ns3:TrackPointExtension><ns3:hr>153</ns3:hr><ns3:cad>89</ns3:cad></ns3:TrackPointExtension></extensions></trkpt>
<trkpt lat="56.85483" lon="-3.95600"><ele>543.2</ele><time>2026-06-21T09:27:07Z</time><extensions><ns3:TrackPointExtension><ns3:hr>155</ns3:hr><ns3:cad>87</ns3:cad></ns3:TrackPointExtension></extensions></trkpt>
<trkpt lat="56.85501" lon="-3.95557"><ele>540.9</ele><time>2026-06-21T09:27:17Z</time><extensions><ns3:TrackPointExtension><ns3:hr>154</ns3:hr><ns3:cad>85</ns3:cad></ns3:TrackPointExtension></extensions></trkpt>
<trkpt lat="56.85522" lon="-3.95519"><ele>538.6</ele><time>2026-06-21T09:27:27Z</time><extensions><ns3:TrackPointExtension><ns3:hr>153</ns3:hr><ns3:cad>84</ns3:cad></ns3:TrackPointExtension></extensions></trkpt>
<trkpt lat="56.85543" lon="-3.95480"><ele>536.3</ele><time>2026-06-21T09:27:37Z</time><extensions><ns3:TrackPointExtension><ns3:hr>151</ns3:hr><ns3:cad>89</ns3:cad></ns3:TrackPointExtension></extensions></trkpt>
<trkpt lat="56.85564" lon="-3.95442"><ele>533.9</ele><time>2026-06-21T09:27:47Z</time><extensions><ns3:TrackPointExtension><ns3:hr>152</ns3:hr><ns3:cad>88</ns3:cad></ns3:TrackPointExtension></extensions></trkpt>
<trkpt lat="56.85584" lon="-3.95402"><ele>531.6</ele><time>2026-06-21T09:27:57Z</time><extensions><ns3:TrackPointExtension><ns3:hr>155</ns3:hr><ns3:cad>88</ns3:cad></ns3:TrackPointExtension></extensions></trkpt>
<trkpt lat="56.85606" lon="-3.95366"><ele>529.3</ele><time>2026-06-21T09:28:07Z</time><extensions><ns3:TrackPointExtension><ns3:hr>155</ns3:hr><ns3:cad>84</ns3:cad></ns3:TrackPointExtension></extensions></trkpt>
<trkpt lat="56.85626" lon="-3.95325"><ele>527.0</ele><time>2026-06-21T09:28:17Z</time><extensions><ns3:TrackPointExtension><ns3:hr>151</ns3:hr><ns3:cad>88</ns3:cad></ns3:TrackPointExtension></extensions></trkpt>
<trkpt lat="56.85647" lon="-3.95288"><ele>524.7</ele><time>2026-06-21T09:28:27Z</time><extensions><ns3:TrackPointExtension><ns3:hr>152</ns3:hr><ns3:cad>85</ns3:cad></ns3:TrackPointExtension></extensions></trkpt>
<trkpt lat="56.85667" lon="-3.95247"><ele>522.4</ele><time>2026-06-21T09:28:37Z</time><extensions><ns3:TrackPointExtension><ns3:hr>152</ns3:hr><ns3:cad>85</ns3:cad></ns3:TrackPointExtension></extensions></trkpt>
<trkpt lat="56.85683" lon="-3.95202"><ele>520.1</ele><time>2026-06-21T09:28:47Z</time><extensions><ns3:TrackPointExtension><ns3:hr>155</ns3:hr><ns3:cad>86</ns3:cad></ns3:TrackPointExtension></extensions></trkpt>
<trkpt lat="56.85703" lon="-3.95161"><ele>517.8</ele><time>2026-06-21T09:28:57Z</time><extensions><ns3:TrackPointExtension><ns3:hr>151</ns3:hr><ns3:cad>85</ns3:cad></ns3:TrackPointExtension></extensions></trkpt>
<trkpt lat="56.85722" lon="-3.95120"><ele>515.5</ele><time>2026-06-21T09:29:07Z</time><extensions><ns3:TrackPointExtension><ns3:hr>154</ns3:hr><ns3:cad>85</ns3:cad></ns3:TrackPointExtension></extensions></trkpt>
<trkpt lat="56.85743" lon="-3.95081"><ele>513.2</ele><time>2026-06-21T09:29:17Z</time><extensions><ns3:TrackPointExtension><ns3:hr>152</ns3:hr><ns3:cad>88</ns3:cad></ns3:TrackPointExtension></extensions></trkpt>
<trkpt lat="56.85762" lon="-3.95040"><ele>510.8</ele><time>2026-06-21T09:29:27Z</time><extensions><ns3:TrackPointExtension><ns3:hr>152</ns3:hr><ns3:cad>88</ns3:cad></ns3:TrackPointExtension></extensions></trkpt>
<trkpt lat="56.85780" lon="-3.94997"><ele>508.5</ele><time>2026-06-21T09:29:37Z</time><extensions><ns3:TrackPointExtension><ns3:hr>153</ns3:hr><ns3:cad>86</ns3:cad></ns3:TrackPointExtension></extensions></trkpt>
<trkpt lat="56.85799" lon="-3.94955"><ele>506.2</ele><time>2026-06-21T09:29:47Z</time><extensions><ns3:TrackPointExtension><ns3:hr>154</ns3:hr><ns3:cad>87</ns3:cad></ns3:TrackPointExtension></extensions></trkpt>
<trkpt lat="56.85817" lon="-3.94912"><ele>503.9</ele><time>2026-06-21T09:29:57Z</time><extensions><ns3:TrackPointExtension><ns3:hr>152</ns3:hr><ns3:cad>88</ns3:cad></ns3:TrackPointExtension></extensions></trkpt>
<trkpt lat="56.85835" lon="-3.94869"><ele>501.6</ele><time>2026-06-21T09:30:07Z</time><extensions><ns3:TrackPointExtension><ns3:hr>152</ns3:hr><ns3:cad>85</ns3:cad></ns3:TrackPointExtension></extensions></trkpt>
<trkpt lat="56.85854" lon="-3.94827"><ele>499.3</ele><time>2026-06-21T09:30:17Z</time><extensions><ns3:TrackPointExtension><ns3:hr>151</ns3:hr><ns3:cad>89</ns3:cad></ns3:TrackPointExtension></extensions></trkpt>
<trkpt lat="56.85875" lon="-3.94789"><ele>497.0</ele><time>2026-06-21T09:30:27Z</time><extensions><ns3:TrackPointExtension><ns3:hr>154</ns3:hr><ns3:cad>84</ns3:cad></ns3:TrackPointExtension></extensions></trkpt>
<trkpt lat="56.85896" lon="-3.94751"><ele>494.7</ele><time>2026-06-21T09:30:37Z</time><extensions><ns3:TrackPointExtension><ns3:hr>155</ns3:hr><ns3:cad>84</ns3:cad></ns3:TrackPointExtension></extensions></trkpt>
<trkpt lat="56.85916" lon="-3.94711"><ele>492.4</ele><time>2026-06-21T09:30:47Z</time><extensions><ns3:TrackPointExtension><ns3:hr>153</ns3:hr><ns3:cad>85</ns3:cad></ns3:TrackPointExtension></extensions></trkpt>
<trkpt lat="56.85936" lon="-3.94671"><ele>490.1</ele><time>2026-06-21T09:30:57Z</time><extensions><ns3:TrackPointExtension><ns3:hr>151</ns3:hr><ns3:cad>88</ns3:cad></ns3:TrackPointExtension></extensions></trkpt>
<trkpt lat="56.85944" lon="-3.94651"><ele>489.0</ele><time>2026-06-21T09:31:02Z</time><extensions><ns3:TrackPointExtension><ns3:hr>153</ns3:hr><ns3:cad>84</ns3:cad></ns3:TrackPointExtension></extensions></trkpt>
<trkpt lat="56.85961" lon="-3.94620"><ele>489.5</ele><time>2026-06-21T09:31:12Z</time><extensions><ns3:TrackPointExtension><ns3:hr>153</ns3:hr><ns3:cad>87</ns3:cad></ns3:TrackPointExtension></extensions></trkpt>
<trkpt lat="56.85979" lon="-3.94591"><ele>490.1</ele><time>2026-06-21T09:31:22Z</time><extensions><ns3:TrackPointExtension><ns3:hr>155</ns3:hr><ns3:cad>84</ns3:cad></ns3:TrackPointExtension></extensions></trkpt>
<trkpt lat="56.85997" lon="-3.94562"><ele>490.6</ele><time>2026-06-21T09:31:32Z</time><extensions><ns3:TrackPointExtension><ns3:hr>156</ns3:hr><ns3:cad>85</ns3:cad></ns3:TrackPointExtension></extensions></trkpt>
<trkpt lat="56.86013" lon="-3.94529"><ele>491.1</ele><time>2026-06-21T09:31:42Z</time><extensions><ns3:TrackPointExtension><ns3:hr>154</ns3:hr><ns3:cad>86</ns3:cad></ns3:TrackPointExtension></extensions></trkpt>
<trkpt lat="56.86028" lon="-3.94494"><ele>491.7</ele><time>2026-06-21T09:31:52Z</time><extensions><ns3:TrackPointExtension><ns3:hr>153</ns3:hr><ns3:cad>88</ns3:cad></ns3:TrackPointExtension></extensions></trkpt>
<trkpt lat="56.86041" lon="-3.94458"><ele>492.2</ele><time>2026-06-21T09:32:02Z</time><extensions><ns3:TrackPointExtension><ns3:hr>155</ns3:hr><ns3:cad>85</ns3:cad></ns3:TrackPointExtension></extensions></trkpt>
<trkpt lat="56.86055" lon="-3.94422"><ele>492.7</ele><time>2026-06-21T09:32:12Z</time><extensions><ns3:TrackPointExtension><ns3:hr>151</ns3:hr><ns3:cad>85</ns3:cad></ns3:TrackPointExtension></extensions></trkpt>
<trkpt lat="56.86069" lon="-3.94386"><ele>493.3</ele><time>2026-06-21T09:32:22Z</time><extensions><ns3:TrackPointExtension><ns3:hr>152</ns3:hr><ns3:cad>85</ns3:cad></ns3:TrackPointExtension></extensions></trkpt>
<trkpt lat="56.86082" lon="-3.94350"><ele>493.8</ele><time>2026-06-21T09:32:32Z</time><extensions><ns3:TrackPointExtension><ns3:hr>151</ns3:hr><ns3:cad>88</ns3:cad></ns3:TrackPointExtension></extensions></trkpt>
<trkpt lat="56.86096" lon="-3.94314"><ele>494.3</ele><time>2026-06-21T09:32:42Z</time><extensions><ns3:TrackPointExtension><ns3:hr>154</ns3:hr><ns3:cad>87</ns3:cad></ns3:TrackPointExtension></extensions></trkpt>
<trkpt lat="56.86112" lon="-3.94281"><ele>494.9</ele><time>2026-06-21T09:32:52Z</time><extensions><ns3:TrackPointExtension><ns3:hr>154</ns3:hr><ns3:cad>85</ns3:cad></ns3:TrackPointExtension></extensions></trkpt>
<trkpt lat="56.86128" lon="-3.94249"><ele>495.4</ele><time>2026-06-21T09:33:02Z</time><extensions><ns3:TrackPointExtension><ns3:hr>153</ns3:hr><ns3:cad>87</ns3:cad></ns3:TrackPointExtension></extensions></trkpt>
<trkpt lat="56.86147" lon="-3.94221"><ele>495.9</ele><time>2026-06-21T09:33:12Z</time><extensions><ns3:TrackPointExtension><ns3:hr>152</ns3:hr><ns3:cad>86</ns3:cad></ns3:TrackPointExtension></extensions></trkpt>
<trkpt lat="56.86167" lon="-3.94196"><ele>496.5</ele><time>2026-06-21T09:33:22Z</time><extensions><ns3:TrackPointExtension><ns3:hr>151</ns3:hr><ns3:cad>86</ns3:cad></ns3:TrackPointExtension></extensions></trkpt>
<trkpt lat="56.86186" lon="-3.94169"><ele>497.0</ele><time>2026-06-21T09:33:32Z</time><extensions><ns3:TrackPointExtension><ns3:hr>156</ns3:hr><ns3:cad>86</ns3:cad></ns3:TrackPointExtension></extensions></trkpt>
<trkpt lat="56.86205" lon="-3.94144"><ele>497.5</ele><time>2026-06-21T09:33:42Z</time><extensions><ns3:TrackPointExtension><ns3:hr>156</ns3:hr><ns3:cad>87</ns3:cad></ns3:TrackPointExtension></extensions></trkpt>
<trkpt lat="56.86223" lon="-3.94115"><ele>498.1</ele><time>2026-06-21T09:33:52Z</time><extensions><ns3:TrackPointExtension><ns3:hr>154</ns3:hr><ns3:cad>87</ns3:cad></ns3:TrackPointExtension></extensions></trkpt>
<trkpt lat="56.86241" lon="-3.94086"><ele>498.6</ele><time>2026-06-21T09:34:02Z</time><extensions><ns3:TrackPointExtension><ns3:hr>155</ns3:hr><ns3:cad>89</ns3:cad></ns3:TrackPointExtension></extensions></trkpt>
<trkpt lat="56.86261" lon="-3.94061"><ele>499.2</ele><time>2026-06-21T09:34:12Z</time><extensions><ns3:TrackPointExtension><ns3:hr>152</ns3:hr><ns3:cad>89</ns3:cad></ns3:TrackPointExtension></extensions></trkpt>
<trkpt lat="56.86279" lon="-3.94032"><ele>499.7</ele><time>2026-06-21T09:34:22Z</time><extensions><ns3:TrackPointExtension><ns3:hr>152</ns3:hr><ns3:cad>86</ns3:cad></ns3:TrackPointExtension></extensions></trkpt>
<trkpt lat="56.86298" lon="-3.94006"><ele>500.2</ele><time>2026-06-21T09:34:32Z</time><extensions><ns3:TrackPointExtension><ns3:hr>152</ns3:hr><ns3:cad>87</ns3:cad></ns3:TrackPointExtension></extensions></trkpt>
<trkpt lat="56.86318" lon="-3.93981"><ele>500.8</ele><time>2026-06-21T09:34:42Z</time><extensions><ns3:TrackPointExtension><ns3:hr>153</ns3:hr><ns3:cad>86</ns3:cad></ns3:TrackPointExtension></extensions></trkpt>
<trkpt lat="56.86336" lon="-3.93952"><ele>501.3</ele><time>2026-06-21T09:34:52Z</time><extensions><ns3:TrackPointExtension><ns3:hr>155</ns3:hr><ns3:cad>88</ns3:cad></ns3:TrackPointExtension></extensions></trkpt>
<trkpt lat="56.86355" lon="-3.93925"><ele>501.8</ele><time>2026-06-21T09:35:02Z</time><extensions><ns3:TrackPointExtension><ns3:hr>152</ns3:hr><ns3:cad>86</ns3:cad></ns3:TrackPointExtension></extensions></trkpt>
<trkpt lat="56.86375" lon="-3.93901"><ele>502.4</ele><time>2026-06-21T09:35:12Z</time><extensions><ns3:TrackPointExtension><ns3:hr>152</ns3:hr><ns3:cad>84</ns3:cad></ns3:TrackPointExtension></extensions></trkpt>
<trkpt lat="56.86394" lon="-3.93874"><ele>502.9</ele><time>2026-06-21T09:35:22Z</time><extensions><ns3:TrackPointExtension><ns3:hr>154</ns3:hr><ns3:cad>84</ns3:cad></ns3:TrackPointExtension></extensions></trkpt>
<trkpt lat="56.86414" lon="-3.93850"><ele>503.4</ele><time>2026-06-21T09:35:32Z</time><extensions><ns3:TrackPointExtension><ns3:hr>154</ns3:hr><ns3:cad>87</ns3:cad></ns3:TrackPointExtension></extensions></trkpt>
<trkpt lat="56.86433" lon="-3.93823"><ele>504.0</ele><time>2026-06-21T09:35:42Z</time><extensions><ns3:TrackPointExtension><ns3:hr>156</ns3:hr><ns3:cad>86</ns3:cad></ns3:TrackPointExtension></extensions></trkpt>
<trkpt lat="56.86451" lon="-3.93795"><ele>504.5</ele><time>2026-06-21T09:35:52Z</time><extensions><ns3:TrackPointExtension><ns3:hr>154</ns3:hr><ns3:cad>88</ns3:cad></ns3:TrackPointExtension></extensions></trkpt>
<trkpt lat="56.86471" lon="-3.93770"><ele>505.0</ele><time>2026-06-21T09:36:02Z</time><extensions><ns3:TrackPointExtension><ns3:hr>153</ns3:hr><ns3:cad>85</ns3:cad></ns3:TrackPointExtension></extensions></trkpt>
<trkpt lat="56.86491" lon="-3.93746"><ele>505.6</ele><time>2026-06-21T09:36:12Z</time><extensions><ns3:TrackPointExtension><ns3:hr>156</ns3:hr><ns3:cad>87</ns3:cad></ns3:TrackPointExtension></extensions></trkpt>
<trkpt lat="56.86510" lon="-3.93718"><ele>506.1</ele><time>2026-06-21T09:36:22Z</time><extensions><ns3:TrackPointExtension><ns3:hr>155</ns3:hr><ns3:cad>89</ns3:cad></ns3:TrackPointExtension></extensions></trkpt>
<trkpt lat="56.86529" lon="-3.93692"><ele>506.6</ele><time>2026-06-21T09:36:32Z</time><extensions><ns3:TrackPointExtension><ns3:hr>154</ns3:hr><ns3:cad>89</ns3:cad></ns3:TrackPointExtension></extensions></trkpt>
<trkpt lat="56.86549" lon="-3.93666"><ele>507.2</ele><time>2026-06-21T09:36:42Z</time><extensions><ns3:TrackPointExtension><ns3:hr>155</ns3:hr><ns3:cad>86</ns3:cad></ns3:TrackPointExtension></extensions></trkpt>
<trkpt lat="56.86569" lon="-3.93643"><ele>507.7</ele><time>2026-06-21T09:36:52Z</time><extensions><ns3:TrackPointExtension><ns3:hr>152</ns3:hr><ns3:cad>85</ns3:cad></ns3:TrackPointExtension></extensions></trkpt>
<trkpt lat="56.86590" lon="-3.93620"><ele>508.2</ele><time>2026-06-21T09:37:02Z</time><extensions><ns3:TrackPointExtension><ns3:hr>155</ns3:hr><ns3:cad>85</ns3:cad></ns3:TrackPointExtension></extensions></trkpt>
<trkpt lat="56.86611" lon="-3.93599"><ele>508.8</ele><time>2026-06-21T09:37:12Z</time><extensions><ns3:TrackPointExtension><ns3:hr>156</ns3:hr><ns3:cad>85</ns3:cad></ns3:TrackPointExtension></extensions></trkpt>
<trkpt lat="56.86619" lon="-3.93589"><ele>509.0</ele><time>2026-06-21T09:37:16Z</time><extensions><ns3:TrackPointExtension><ns3:hr>153</ns3:hr><ns3:cad>85</ns3:cad></ns3:TrackPointExtension></extensions></trkpt>
</trkseg></trk></gpx>
