<?xml version="1.0" encoding="UTF-8"?>
<gpx version="1.1" creator="Trail Profile synthetic demo (not a real run)" xmlns="http://www.topografix.com/GPX/1/1" xmlns:ns3="http://www.garmin.com/xmlschemas/TrackPointExtension/v1"><trk><name>Glen Fictional loop (demo)</name><type>trail_running</type><trkseg>
<trkpt lat="56.82017" lon="-4.04972"><ele>300.3</ele><time>2026-04-26T08:30:10Z</time><extensions><ns3:TrackPointExtension><ns3:hr>99</ns3:hr><ns3:cad>88</ns3:cad></ns3:TrackPointExtension></extensions></trkpt>
<trkpt lat="56.82035" lon="-4.04947"><ele>300.5</ele><time>2026-04-26T08:30:20Z</time><extensions><ns3:TrackPointExtension><ns3:hr>115</ns3:hr><ns3:cad>87</ns3:cad></ns3:TrackPointExtension></extensions></trkpt>
<trkpt lat="56.82055" lon="-4.04925"><ele>300.8</ele><time>2026-04-26T08:30:30Z</time><extensions><ns3:TrackPointExtension><ns3:hr>124</ns3:hr><ns3:cad>88</ns3:cad></ns3:TrackPointExtension></extensions></trkpt>
<trkpt lat="56.82074" lon="-4.04903"><ele>301.0</ele><time>2026-04-26T08:30:40Z</time><extensions><ns3:TrackPointExtension><ns3:hr>134</ns3:hr><ns3:cad>86</ns3:cad></ns3:TrackPointExtension></extensions></trkpt>
<trkpt lat="56.82094" lon="-4.04882"><ele>301.3</ele><time>2026-04-26T08:30:50Z</time><extensions><ns3:TrackPointExtension><ns3:hr>137</ns3:hr><ns3:cad>89</ns3:cad></ns3:TrackPointExtension></extensions></trkpt>
<trkpt lat="56.82114" lon="-4.04860"><ele>301.5</ele><time>2026-04-26T08:31:00Z</time><extensions><ns3:TrackPointExtension><ns3:hr>139</ns3:hr><ns3:cad>88</ns3:cad></ns3:TrackPointExtension></extensions></trkpt>
<trkpt lat="56.82134" lon="-4.04841"><ele>301.8</ele><time>2026-04-26T08:31:10Z</time><extensions><ns3:TrackPointExtension><ns3:hr>141</ns3:hr><ns3:cad>85</ns3:cad></ns3:TrackPointExtension></extensions></trkpt>
<trkpt lat="56.82155" lon="-4.04825"><ele>302.0</ele><time>2026-04-26T08:31:20Z</time><extensions><ns3:TrackPointExtension><ns3:hr>144</ns3:hr><ns3:cad>86</ns3:cad></ns3:TrackPointExtension></extensions></trkpt>
<trkpt lat="56.82177" lon="-4.04812"><ele>302.3</ele><time>2026-04-26T08:31:30Z</time><extensions><ns3:TrackPointExtension><ns3:hr>143</ns3:hr><ns3:cad>85</ns3:cad></ns3:TrackPointExtension></extensions></trkpt>
<trkpt lat="56.82199" lon="-4.04799"><ele>302.6</ele><time>2026-04-26T08:31:40Z</time><extensions><ns3:TrackPointExtension><ns3:hr>148</ns3:hr><ns3:cad>84</ns3:cad></ns3:TrackPointExtension></extensions></trkpt>
<trkpt lat="56.82221" lon="-4.04789"><ele>302.8</ele><time>2026-04-26T08:31:50Z</time><extensions><ns3:TrackPointExtension><ns3:hr>145</ns3:hr><ns3:cad>85</ns3:cad></ns3:TrackPointExtension></extensions></trkpt>
<trkpt lat="56.82244" lon="-4.04779"><ele>303.1</ele><time>2026-04-26T08:32:00Z</time><extensions><ns3:TrackPointExtension><ns3:hr>146</ns3:hr><ns3:cad>86</ns3:cad></ns3:TrackPointExtension></extensions></trkpt>
<trkpt lat="56.82266" lon="-4.04772"><ele>303.3</ele><time>2026-04-26T08:32:10Z</time><extensions><ns3:TrackPointExtension><ns3:hr>146</ns3:hr><ns3:cad>89</ns3:cad></ns3:TrackPointExtension></extensions></trkpt>
<trkpt lat="56.82289" lon="-4.04766"><ele>303.6</ele><time>2026-04-26T08:32:20Z</time><extensions><ns3:TrackPointExtension><ns3:hr>147</ns3:hr><ns3:cad>85</ns3:cad></ns3:TrackPointExtension></extensions></trkpt>
<trkpt lat="56.82312" lon="-4.04763"><ele>303.8</ele><time>2026-04-26T08:32:30Z</time><extensions><ns3:TrackPointExtension><ns3:hr>146</ns3:hr><ns3:cad>85</ns3:cad></ns3:TrackPointExtension></extensions></trkpt>
<trkpt lat="56.82335" lon="-4.04765"><ele>304.1</ele><time>2026-04-26T08:32:40Z</time><extensions><ns3:TrackPointExtension><ns3:hr>148</ns3:hr><ns3:cad>85</ns3:cad></ns3:TrackPointExtension></extensions></trkpt>
<trkpt lat="56.82358" lon="-4.04763"><ele>304.3</ele><time>2026-04-26T08:32:50Z</time><extensions><ns3:TrackPointExtension><ns3:hr>146</ns3:hr><ns3:cad>87</ns3:cad></ns3:TrackPointExtension></extensions></trkpt>
<trkpt lat="56.82380" lon="-4.04765"><ele>304.6</ele><time>2026-04-26T08:33:00Z</time><extensions><ns3:TrackPointExtension><ns3:hr>147</ns3:hr><ns3:cad>85</ns3:cad></ns3:TrackPointExtension></extensions></trkpt>
<trkpt lat="56.82403" lon="-4.04768"><ele>304.8</ele><time>2026-04-26T08:33:10Z</time><extensions><ns3:TrackPointExtension><ns3:hr>147</ns3:hr><ns3:cad>84</ns3:cad></ns3:TrackPointExtension></extensions></trkpt>
<trkpt lat="56.82426" lon="-4.04771"><ele>305.1</ele><time>2026-04-26T08:33:20Z</time><extensions><ns3:TrackPointExtension><ns3:hr>149</ns3:hr><ns3:cad>85</ns3:cad></ns3:TrackPointExtension></extensions></trkpt>
<trkpt lat="56.82449" lon="-4.04775"><ele>305.4</ele><time>2026-04-26T08:33:30Z</time><extensions><ns3:TrackPointExtension><ns3:hr>150</ns3:hr><ns3:cad>87</ns3:cad></ns3:TrackPointExtension></extensions></trkpt>
<trkpt lat="56.82472" lon="-4.04782"><ele>305.6</ele><time>2026-04-26T08:33:40Z</time><extensions><ns3:TrackPointExtension><ns3:hr>148</ns3:hr><ns3:cad>84</ns3:cad></ns3:TrackPointExtension></extensions></trkpt>
<trkpt lat="56.82494" lon="-4.04789"><ele>305.9</ele><time>2026-04-26T08:33:50Z</time><extensions><ns3:TrackPointExtension><ns3:hr>146</ns3:hr><ns3:cad>88</ns3:cad></ns3:TrackPointExtension></extensions></trkpt>
<trkpt lat="56.82517" lon="-4.04790"><ele>306.1</ele><time>2026-04-26T08:34:00Z</time><extensions><ns3:TrackPointExtension><ns3:hr>147</ns3:hr><ns3:cad>88</ns3:cad></ns3:TrackPointExtension></extensions></trkpt>
<trkpt lat="56.82540" lon="-4.04795"><ele>306.4</ele><time>2026-04-26T08:34:10Z</time><extensions><ns3:TrackPointExtension><ns3:hr>149</ns3:hr><ns3:cad>88</ns3:cad></ns3:TrackPointExtension></extensions></trkpt>
<trkpt lat="56.82562" lon="-4.04805"><ele>306.6</ele><time>2026-04-26T08:34:20Z</time><extensions><ns3:TrackPointExtension><ns3:hr>148</ns3:hr><ns3:cad>84</ns3:cad></ns3:TrackPointExtension></extensions></trkpt>
<trkpt lat="56.82584" lon="-4.04814"><ele>306.9</ele><time>2026-04-26T08:34:30Z</time><extensions><ns3:TrackPointExtension><ns3:hr>150</ns3:hr><ns3:cad>85</ns3:cad></ns3:TrackPointExtension></extensions></trkpt>
<trkpt lat="56.82606" lon="-4.04829"><ele>307.1</ele><time>2026-04-26T08:34:40Z</time><extensions><ns3:TrackPointExtension><ns3:hr>149</ns3:hr><ns3:cad>89</ns3:cad></ns3:TrackPointExtension></extensions></trkpt>
<trkpt lat="56.82628" lon="-4.04839"><ele>307.4</ele><time>2026-04-26T08:34:50Z</time><extensions><ns3:TrackPointExtension><ns3:hr>147</ns3:hr><ns3:cad>85</ns3:cad></ns3:TrackPointExtension></extensions></trkpt>
<trkpt lat="56.82650" lon="-4.04852"><ele>307.7</ele><time>2026-04-26T08:35:00Z</time><extensions><ns3:TrackPointExtension><ns3:hr>147</ns3:hr><ns3:cad>85</ns3:cad></ns3:TrackPointExtension></extensions></trkpt>
<trkpt lat="56.82671" lon="-4.04869"><ele>307.9</ele><time>2026-04-26T08:35:10Z</time><extensions><ns3:TrackPointExtension><ns3:hr>150</ns3:hr><ns3:cad>86</ns3:cad></ns3:TrackPointExtension></extensions></trkpt>
<trkpt lat="56.82691" lon="-4.04889"><ele>308.2</ele><time>2026-04-26T08:35:20Z</time><extensions><ns3:TrackPointExtension><ns3:hr>149</ns3:hr><ns3:cad>86</ns3:cad></ns3:TrackPointExtension></extensions></trkpt>
<trkpt lat="56.82712" lon="-4.04904"><ele>308.4</ele><time>2026-04-26T08:35:30Z</time><extensions><ns3:TrackPointExtension><ns3:hr>146</ns3:hr><ns3:cad>89</ns3:cad></ns3:TrackPointExtension></extensions></trkpt>
<trkpt lat="56.82734" lon="-4.04919"><ele>308.7</ele><time>2026-04-26T08:35:40Z</time><extensions><ns3:TrackPointExtension><ns3:hr>150</ns3:hr><ns3:cad>85</ns3:cad></ns3:TrackPointExtension></extensions></trkpt>
<trkpt lat="56.82755" lon="-4.04935"><ele>308.9</ele><time>2026-04-26T08:35:50Z</time><extensions><ns3:TrackPointExtension><ns3:hr>150</ns3:hr><ns3:cad>85</ns3:cad></ns3:TrackPointExtension></extensions></trkpt>
<trkpt lat="56.82761" lon="-4.04939"><ele>309.0</ele><time>2026-04-26T08:35:52Z</time><extensions><ns3:TrackPointExtension><ns3:hr>149</ns3:hr><ns3:cad>85</ns3:cad></ns3:TrackPointExtension></extensions></trkpt>
<trkpt lat="56.82776" lon="-4.04949"><ele>310.6</ele><time>2026-04-26T08:36:02Z</time><extensions><ns3:TrackPointExtension><ns3:hr>149</ns3:hr><ns3:cad>87</ns3:cad></ns3:TrackPointExtension></extensions></trkpt>
<trkpt lat="56.82790" lon="-4.04961"><ele>312.2</ele><time>2026-04-26T08:36:12Z</time><extensions><ns3:TrackPointExtension><ns3:hr>150</ns3:hr><ns3:cad>88</ns3:cad></ns3:TrackPointExtension></extensions></trkpt>
<trkpt lat="56.82804" lon="-4.04977"><ele>313.8</ele><time>2026-04-26T08:36:22Z</time><extensions><ns3:TrackPointExtension><ns3:hr>146</ns3:hr><ns3:cad>87</ns3:cad></ns3:TrackPointExtension></extensions></trkpt>
<trkpt lat="56.82816" lon="-4.04996"><ele>315.4</ele><time>2026-04-26T08:36:32Z</time><extensions><ns3:TrackPointExtension><ns3:hr>146</ns3:hr><ns3:cad>86</ns3:cad></ns3:TrackPointExtension></extensions></trkpt>
<trkpt lat="56.82828" lon="-4.05016"><ele>317.0</ele><time>2026-04-26T08:36:42Z</time><extensions><ns3:TrackPointExtension><ns3:hr>147</ns3:hr><ns3:cad>87</ns3:cad></ns3:TrackPointExtension></extensions></trkpt>
<trkpt lat="56.82840" lon="-4.05036"><ele>318.7</ele><time>2026-04-26T08:36:52Z</time><extensions><ns3:TrackPointExtension><ns3:hr>148</ns3:hr><ns3:cad>87</ns3:cad></ns3:TrackPointExtension></extensions></trkpt>
<trkpt lat="56.82851" lon="-4.05056"><ele>320.3</ele><time>2026-04-26T08:37:02Z</time><extensions><ns3:TrackPointExtension><ns3:hr>149</ns3:hr><ns3:cad>86</ns3:cad></ns3:TrackPointExtension></extensions></trkpt>
<trkpt lat="56.82863" lon="-4.05077"><ele>321.9</ele><time>2026-04-26T08:37:12Z</time><extensions><ns3:TrackPointExtension><ns3:hr>148</ns3:hr><ns3:cad>87</ns3:cad></ns3:TrackPointExtension></extensions></trkpt>
<trkpt lat="56.82873" lon="-4.05099"><ele>323.5</ele><time>2026-04-26T08:37:22Z</time><extensions><ns3:TrackPointExtension><ns3:hr>147</ns3:hr><ns3:cad>87</ns3:cad></ns3:TrackPointExtension></extensions></trkpt>
<trkpt lat="56.82885" lon="-4.05119"><ele>325.1</ele><time>2026-04-26T08:37:32Z</time><extensions><ns3:TrackPointExtension><ns3:hr>149</ns3:hr><ns3:cad>85</ns3:cad></ns3:TrackPointExtension></extensions></trkpt>
<trkpt lat="56.82897" lon="-4.05138"><ele>326.7</ele><time>2026-04-26T08:37:42Z</time><extensions><ns3:TrackPointExtension><ns3:hr>149</ns3:hr><ns3:cad>85</ns3:cad></ns3:TrackPointExtension></extensions></trkpt>
<trkpt lat="56.82908" lon="-4.05159"><ele>328.3</ele><time>2026-04-26T08:37:52Z</time><extensions><ns3:TrackPointExtension><ns3:hr>149</ns3:hr><ns3:cad>85</ns3:cad></ns3:TrackPointExtension></extensions></trkpt>
<trkpt lat="56.82919" lon="-4.05181"><ele>329.9</ele><time>2026-04-26T08:38:02Z</time><extensions><ns3:TrackPointExtension><ns3:hr>148</ns3:hr><ns3:cad>84</ns3:cad></ns3:TrackPointExtension></extensions></trkpt>
<trkpt lat="56.82930" lon="-4.05202"><ele>331.5</ele><time>2026-04-26T08:38:12Z</time><extensions><ns3:TrackPointExtension><ns3:hr>147</ns3:hr><ns3:cad>86</ns3:cad></ns3:TrackPointExtension></extensions></trkpt>
<trkpt lat="56.82942" lon="-4.05221"><ele>333.1</ele><time>2026-04-26T08:38:22Z</time><extensions><ns3:TrackPointExtension><ns3:hr>151</ns3:hr><ns3:cad>88</ns3:cad></ns3:TrackPointExtension></extensions></trkpt>
<trkpt lat="56.82955" lon="-4.05240"><ele>334.7</ele><time>2026-04-26T08:38:32Z</time><extensions><ns3:TrackPointExtension><ns3:hr>150</ns3:hr><ns3:cad>84</ns3:cad></ns3:TrackPointExtension></extensions></trkpt>
<trkpt lat="56.82966" lon="-4.05260"><ele>336.3</ele><time>2026-04-26T08:38:42Z</time><extensions><ns3:TrackPointExtension><ns3:hr>146</ns3:hr><ns3:cad>87</ns3:cad></ns3:TrackPointExtension></extensions></trkpt>
<trkpt lat="56.82977" lon="-4.05283"><ele>338.0</ele><time>2026-04-26T08:38:52Z</time><extensions><ns3:TrackPointExtension><ns3:hr>148</ns3:hr><ns3:cad>85</ns3:cad></ns3:TrackPointExtension></extensions></trkpt>
<trkpt lat="56.82988" lon="-4.05303"><ele>339.6</ele><time>2026-04-26T08:39:02Z</time><extensions><ns3:TrackPointExtension><ns3:hr>146</ns3:hr><ns3:cad>88</ns3:cad></ns3:TrackPointExtension></extensions></trkpt>
<trkpt lat="56.83000" lon="-4.05322"><ele>341.2</ele><time>2026-04-26T08:39:12Z</time><extensions><ns3:TrackPointExtension><ns3:hr>149</ns3:hr><ns3:cad>88</ns3:cad></ns3:TrackPointExtension></extensions></trkpt>
<trkpt lat="56.83013" lon="-4.05341"><ele>342.8</ele><time>2026-04-26T08:39:22Z</time><extensions><ns3:TrackPointExtension><ns3:hr>149</ns3:hr><ns3:cad>86</ns3:cad></ns3:TrackPointExtension></extensions></trkpt>
<trkpt lat="56.83025" lon="-4.05359"><ele>344.4</ele><time>2026-04-26T08:39:32Z</time><extensions><ns3:TrackPointExtension><ns3:hr>146</ns3:hr><ns3:cad>87</ns3:cad></ns3:TrackPointExtension></extensions></trkpt>
<trkpt lat="56.83037" lon="-4.05380"><ele>346.0</ele><time>2026-04-26T08:39:42Z</time><extensions><ns3:TrackPointExtension><ns3:hr>148</ns3:hr><ns3:cad>85</ns3:cad></ns3:TrackPointExtension></extensions></trkpt>
<trkpt lat="56.83047" lon="-4.05402"><ele>347.6</ele><time>2026-04-26T08:39:52Z</time><extensions><ns3:TrackPointExtension><ns3:hr>149</ns3:hr><ns3:cad>85</ns3:cad></ns3:TrackPointExtension></extensions></trkpt>
<trkpt lat="56.83059" lon="-4.05423"><ele>349.2</ele><time>2026-04-26T08:40:02Z</time><extensions><ns3:TrackPointExtension><ns3:hr>150</ns3:hr><ns3:cad>86</ns3:cad></ns3:TrackPointExtension></extensions></trkpt>
<trkpt lat="56.83071" lon="-4.05441"><ele>350.8</ele><time>2026-04-26T08:40:12Z</time><extensions><ns3:TrackPointExtension><ns3:hr>148</ns3:hr><ns3:cad>86</ns3:cad></ns3:TrackPointExtension></extensions></trkpt>
<trkpt lat="56.83085" lon="-4.05457"><ele>352.4</ele><time>2026-04-26T08:40:22Z</time><extensions><ns3:TrackPointExtension><ns3:hr>151</ns3:hr><ns3:cad>87</ns3:cad></ns3:TrackPointExtension></extensions></trkpt>
<trkpt lat="56.83099" lon="-4.05471"><ele>354.0</ele><time>2026-04-26T08:40:32Z</time><extensions><ns3:TrackPointExtension><ns3:hr>147</ns3:hr><ns3:cad>86</ns3:cad></ns3:TrackPointExtension></extensions></trkpt>
<trkpt lat="56.83113" lon="-4.05486"><ele>355.7</ele><time>2026-04-26T08:40:42Z</time><extensions><ns3:TrackPointExtension><ns3:hr>146</ns3:hr><ns3:cad>88</ns3:cad></ns3:TrackPointExtension></extensions></trkpt>
<trkpt lat="56.83126" lon="-4.05503"><ele>357.3</ele><time>2026-04-26T08:40:52Z</time><extensions><ns3:TrackPointExtension><ns3:hr>149</ns3:hr><ns3:cad>87</ns3:cad></ns3:TrackPointExtension></extensions></trkpt>
<trkpt lat="56.83139" lon="-4.05519"><ele>358.9</ele><time>2026-04-26T08:41:02Z</time><extensions><ns3:TrackPointExtension><ns3:hr>148</ns3:hr><ns3:cad>88</ns3:cad></ns3:TrackPointExtension></extensions></trkpt>
<trkpt lat="56.83151" lon="-4.05538"><ele>360.5</ele><time>2026-04-26T08:41:12Z</time><extensions><ns3:TrackPointExtension><ns3:hr>150</ns3:hr><ns3:cad>86</ns3:cad></ns3:TrackPointExtension></extensions></trkpt>
<trkpt lat="56.83163" lon="-4.05558"><ele>362.1</ele><time>2026-04-26T08:41:22Z</time><extensions><ns3:TrackPointExtension><ns3:hr>147</ns3:hr><ns3:cad>86</ns3:cad></ns3:TrackPointExtension></extensions></trkpt>
<trkpt lat="56.83175" lon="-4.05577"><ele>363.7</ele><time>2026-04-26T08:41:32Z</time><extensions><ns3:TrackPointExtension><ns3:hr>148</ns3:hr><ns3:cad>86</ns3:cad></ns3:TrackPointExtension></extensions></trkpt>
<trkpt lat="56.83188" lon="-4.05595"><ele>365.3</ele><time>2026-04-26T08:41:42Z</time><extensions><ns3:TrackPointExtension><ns3:hr>150</ns3:hr><ns3:cad>84</ns3:cad></ns3:TrackPointExtension></extensions></trkpt>
<trkpt lat="56.83201" lon="-4.05611"><ele>366.9</ele><time>2026-04-26T08:41:52Z</time><extensions><ns3:TrackPointExtension><ns3:hr>149</ns3:hr><ns3:cad>86</ns3:cad></ns3:TrackPointExtension></extensions></trkpt>
<trkpt lat="56.83214" lon="-4.05629"><ele>368.5</ele><time>2026-04-26T08:42:02Z</time><extensions><ns3:TrackPointExtension><ns3:hr>150</ns3:hr><ns3:cad>85</ns3:cad></ns3:TrackPointExtension></extensions></trkpt>
<trkpt lat="56.83227" lon="-4.05645"><ele>370.1</ele><time>2026-04-26T08:42:12Z</time><extensions><ns3:TrackPointExtension><ns3:hr>150</ns3:hr><ns3:cad>85</ns3:cad></ns3:TrackPointExtension></extensions></trkpt>
<trkpt lat="56.83241" lon="-4.05662"><ele>371.7</ele><time>2026-04-26T08:42:22Z</time><extensions><ns3:TrackPointExtension><ns3:hr>149</ns3:hr><ns3:cad>87</ns3:cad></ns3:TrackPointExtension></extensions></trkpt>
<trkpt lat="56.83253" lon="-4.05681"><ele>373.3</ele><time>2026-04-26T08:42:32Z</time><extensions><ns3:TrackPointExtension><ns3:hr>147</ns3:hr><ns3:cad>86</ns3:cad></ns3:TrackPointExtension></extensions></trkpt>
<trkpt lat="56.83265" lon="-4.05700"><ele>375.0</ele><time>2026-04-26T08:42:42Z</time><extensions><ns3:TrackPointExtension><ns3:hr>146</ns3:hr><ns3:cad>88</ns3:cad></ns3:TrackPointExtension></extensions></trkpt>
<trkpt lat="56.83279" lon="-4.05716"><ele>376.6</ele><time>2026-04-26T08:42:52Z</time><extensions><ns3:TrackPointExtension><ns3:hr>148</ns3:hr><ns3:cad>88</ns3:cad></ns3:TrackPointExtension></extensions></trkpt>
<trkpt lat="56.83292" lon="-4.05733"><ele>378.2</ele><time>2026-04-26T08:43:02Z</time><extensions><ns3:TrackPointExtension><ns3:hr>149</ns3:hr><ns3:cad>86</ns3:cad></ns3:TrackPointExtension></extensions></trkpt>
<trkpt lat="56.83304" lon="-4.05752"><ele>379.8</ele><time>2026-04-26T08:43:12Z</time><extensions><ns3:TrackPointExtension><ns3:hr>147</ns3:hr><ns3:cad>88</ns3:cad></ns3:TrackPointExtension></extensions></trkpt>
<trkpt lat="56.83315" lon="-4.05772"><ele>381.4</ele><time>2026-04-26T08:43:22Z</time><extensions><ns3:TrackPointExtension><ns3:hr>150</ns3:hr><ns3:cad>88</ns3:cad></ns3:TrackPointExtension></extensions></trkpt>
<trkpt lat="56.83327" lon="-4.05792"><ele>383.0</ele><time>2026-04-26T08:43:32Z</time><extensions><ns3:TrackPointExtension><ns3:hr>146</ns3:hr><ns3:cad>86</ns3:cad></ns3:TrackPointExtension></extensions></trkpt>
<trkpt lat="56.83339" lon="-4.05812"><ele>384.6</ele><time>2026-04-26T08:43:42Z</time><extensions><ns3:TrackPointExtension><ns3:hr>147</ns3:hr><ns3:cad>85</ns3:cad></ns3:TrackPointExtension></extensions></trkpt>
<trkpt lat="56.83352" lon="-4.05829"><ele>386.2</ele><time>2026-04-26T08:43:52Z</time><extensions><ns3:TrackPointExtension><ns3:hr>146</ns3:hr><ns3:cad>86</ns3:cad></ns3:TrackPointExtension></extensions></trkpt>
<trkpt lat="56.83365" lon="-4.05846"><ele>387.8</ele><time>2026-04-26T08:44:02Z</time><extensions><ns3:TrackPointExtension><ns3:hr>147</ns3:hr><ns3:cad>88</ns3:cad></ns3:TrackPointExtension></extensions></trkpt>
<trkpt lat="56.83378" lon="-4.05865"><ele>389.4</ele><time>2026-04-26T08:44:12Z</time><extensions><ns3:TrackPointExtension><ns3:hr>147</ns3:hr><ns3:cad>87</ns3:cad></ns3:TrackPointExtension></extensions></trkpt>
<trkpt lat="56.83390" lon="-4.05884"><ele>391.0</ele><time>2026-04-26T08:44:22Z</time><extensions><ns3:TrackPointExtension><ns3:hr>146</ns3:hr><ns3:cad>89</ns3:cad></ns3:TrackPointExtension></extensions></trkpt>
<trkpt lat="56.83402" lon="-4.05903"><ele>392.7</ele><time>2026-04-26T08:44:32Z</time><extensions><ns3:TrackPointExtension><ns3:hr>150</ns3:hr><ns3:cad>85</ns3:cad></ns3:TrackPointExtension></extensions></trkpt>
<trkpt lat="56.83415" lon="-4.05920"><ele>394.3</ele><time>2026-04-26T08:44:42Z</time><extensions><ns3:TrackPointExtension><ns3:hr>147</ns3:hr><ns3:cad>86</ns3:cad></ns3:TrackPointExtension></extensions></trkpt>
<trkpt lat="56.83428" lon="-4.05937"><ele>395.9</ele><time>2026-04-26T08:44:52Z</time><extensions><ns3:TrackPointExtension><ns3:hr>150</ns3:hr><ns3:cad>86</ns3:cad></ns3:TrackPointExtension></extensions></trkpt>
<trkpt lat="56.83442" lon="-4.05952"><ele>397.5</ele><time>2026-04-26T08:45:02Z</time><extensions><ns3:TrackPointExtension><ns3:hr>147</ns3:hr><ns3:cad>85</ns3:cad></ns3:TrackPointExtension></extensions></trkpt>
<trkpt lat="56.83456" lon="-4.05965"><ele>399.1</ele><time>2026-04-26T08:45:12Z</time><extensions><ns3:TrackPointExtension><ns3:hr>146</ns3:hr><ns3:cad>86</ns3:cad></ns3:TrackPointExtension></extensions></trkpt>
<trkpt lat="56.83470" lon="-4.05980"><ele>400.7</ele><time>2026-04-26T08:45:22Z</time><extensions><ns3:TrackPointExtension><ns3:hr>148</ns3:hr><ns3:cad>88</ns3:cad></ns3:TrackPointExtension></extensions></trkpt>
<trkpt lat="56.83485" lon="-4.05993"><ele>402.3</ele><time>2026-04-26T08:45:32Z</time><extensions><ns3:TrackPointExtension><ns3:hr>146</ns3:hr><ns3:cad>88</ns3:cad></ns3:TrackPointExtension></extensions></trkpt>
<trkpt lat="56.83499" lon="-4.06004"><ele>403.9</ele><time>2026-04-26T08:45:42Z</time><extensions><ns3:TrackPointExtension><ns3:hr>151</ns3:hr><ns3:cad>85</ns3:cad></ns3:TrackPointExtension></extensions></trkpt>
<trkpt lat="56.83514" lon="-4.06016"><ele>405.5</ele><time>2026-04-26T08:45:52Z</time><extensions><ns3:TrackPointExtension><ns3:hr>150</ns3:hr><ns3:cad>89</ns3:cad></ns3:TrackPointExtension></extensions></trkpt>
<trkpt lat="56.83529" lon="-4.06027"><ele>407.1</ele><time>2026-04-26T08:46:02Z</time><extensions><ns3:TrackPointExtension><ns3:hr>150</ns3:hr><ns3:cad>87</ns3:cad></ns3:TrackPointExtension></extensions></trkpt>
<trkpt lat="56.83544" lon="-4.06040"><ele>408.7</ele><time>2026-04-26T08:46:12Z</time><extensions><ns3:TrackPointExtension><ns3:hr>146</ns3:hr><ns3:cad>86</ns3:cad></ns3:TrackPointExtension></extensions></trkpt>
<trkpt lat="56.83558" lon="-4.06053"><ele>410.3</ele><time>2026-04-26T08:46:22Z</time><extensions><ns3:TrackPointExtension><ns3:hr>146</ns3:hr><ns3:cad>85</ns3:cad></ns3:TrackPointExtension></extensions></trkpt>
<trkpt lat="56.83572" lon="-4.06066"><ele>412.0</ele><time>2026-04-26T08:46:32Z</time><extensions><ns3:TrackPointExtension><ns3:hr>148</ns3:hr><ns3:cad>84</ns3:cad></ns3:TrackPointExtension></extensions></trkpt>
<trkpt lat="56.83587" lon="-4.06078"><ele>413.6</ele><time>2026-04-26T08:46:42Z</time><extensions><ns3:TrackPointExtension><ns3:hr>148</ns3:hr><ns3:cad>85</ns3:cad></ns3:TrackPointExtension></extensions></trkpt>
<trkpt lat="56.83602" lon="-4.06087"><ele>415.2</ele><time>2026-04-26T08:46:52Z</time><extensions><ns3:TrackPointExtension><ns3:hr>147</ns3:hr><ns3:cad>85</ns3:cad></ns3:TrackPointExtension></extensions></trkpt>
<trkpt lat="56.83618" lon="-4.06095"><ele>416.8</ele><time>2026-04-26T08:47:02Z</time><extensions><ns3:TrackPointExtension><ns3:hr>150</ns3:hr><ns3:cad>86</ns3:cad></ns3:TrackPointExtension></extensions></trkpt>
<trkpt lat="56.83633" lon="-4.06106"><ele>418.4</ele><time>2026-04-26T08:47:12Z</time><extensions><ns3:TrackPointExtension><ns3:hr>151</ns3:hr><ns3:cad>88</ns3:cad></ns3:TrackPointExtension></extensions></trkpt>
<trkpt lat="56.83648" lon="-4.06113"><ele>420.0</ele><time>2026-04-26T08:47:22Z</time><extensions><ns3:TrackPointExtension><ns3:hr>150</ns3:hr><ns3:cad>85</ns3:cad></ns3:TrackPointExtension></extensions></trkpt>
<trkpt lat="56.83664" lon="-4.06118"><ele>421.6</ele><time>2026-04-26T08:47:32Z</time><extensions><ns3:TrackPointExtension><ns3:hr>146</ns3:hr><ns3:cad>85</ns3:cad></ns3:TrackPointExtension></extensions></trkpt>
<trkpt lat="56.83680" lon="-4.06121"><ele>423.2</ele><time>2026-04-26T08:47:42Z</time><extensions><ns3:TrackPointExtension><ns3:hr>150</ns3:hr><ns3:cad>87</ns3:cad></ns3:TrackPointExtension></extensions></trkpt>
<trkpt lat="56.83696" lon="-4.06126"><ele>424.8</ele><time>2026-04-26T08:47:52Z</time><extensions><ns3:TrackPointExtension><ns3:hr>148</ns3:hr><ns3:cad>85</ns3:cad></ns3:TrackPointExtension></extensions></trkpt>
<trkpt lat="56.83712" lon="-4.06131"><ele>426.4</ele><time>2026-04-26T08:48:02Z</time><extensions><ns3:TrackPointExtension><ns3:hr>147</ns3:hr><ns3:cad>89</ns3:cad></ns3:TrackPointExtension></extensions></trkpt>
<trkpt lat="56.83728" lon="-4.06135"><ele>428.0</ele><time>2026-04-26T08:48:12Z</time><extensions><ns3:TrackPointExtension><ns3:hr>150</ns3:hr><ns3:cad>89</ns3:cad></ns3:TrackPointExtension></extensions></trkpt>
<trkpt lat="56.83744" lon="-4.06138"><ele>429.7</ele><time>2026-04-26T08:48:22Z</time><extensions><ns3:TrackPointExtension><ns3:hr>150</ns3:hr><ns3:cad>84</ns3:cad></ns3:TrackPointExtension></extensions></trkpt>
<trkpt lat="56.83760" lon="-4.06139"><ele>431.3</ele><time>2026-04-26T08:48:32Z</time><extensions><ns3:TrackPointExtension><ns3:hr>148</ns3:hr><ns3:cad>85</ns3:cad></ns3:TrackPointExtension></extensions></trkpt>
<trkpt lat="56.83776" lon="-4.06138"><ele>432.9</ele><time>2026-04-26T08:48:42Z</time><extensions><ns3:TrackPointExtension><ns3:hr>151</ns3:hr><ns3:cad>84</ns3:cad></ns3:TrackPointExtension></extensions></trkpt>
<trkpt lat="56.83792" lon="-4.06141"><ele>434.5</ele><time>2026-04-26T08:48:52Z</time><extensions><ns3:TrackPointExtension><ns3:hr>148</ns3:hr><ns3:cad>86</ns3:cad></ns3:TrackPointExtension></extensions></trkpt>
<trkpt lat="56.83797" lon="-4.06142"><ele>435.0</ele><time>2026-04-26T08:48:55Z</time><extensions><ns3:TrackPointExtension><ns3:hr>148</ns3:hr><ns3:cad>88</ns3:cad></ns3:TrackPointExtension></extensions></trkpt>
<trkpt lat="56.83809" lon="-4.06144"><ele>437.2</ele><time>2026-04-26T08:49:05Z</time><extensions><ns3:TrackPointExtension><ns3:hr>150</ns3:hr><ns3:cad>85</ns3:cad></ns3:TrackPointExtension></extensions></trkpt>
<trkpt lat="56.83820" lon="-4.06149"><ele>439.5</ele><time>2026-04-26T08:49:15Z</time><extensions><ns3:TrackPointExtension><ns3:hr>150</ns3:hr><ns3:cad>88</ns3:cad></ns3:TrackPointExtension></extensions></trkpt>
<trkpt lat="56.83832" lon="-4.06152"><ele>441.7</ele><time>2026-04-26T08:49:25Z</time><extensions><ns3:TrackPointExtension><ns3:hr>147</ns3:hr><ns3:cad>87</ns3:cad></ns3:TrackPointExtension></extensions></trkpt>
<trkpt lat="56.83844" lon="-4.06156"><ele>444.0</ele><time>2026-04-26T08:49:35Z</time><extensions><ns3:TrackPointExtension><ns3:hr>146</ns3:hr><ns3:cad>85</ns3:cad></ns3:TrackPointExtension></extensions></trkpt>
<trkpt lat="56.83855" lon="-4.06162"><ele>446.2</ele><time>2026-04-26T08:49:45Z</time><extensions><ns3:TrackPointExtension><ns3:hr>149</ns3:hr><ns3:cad>86</ns3:cad></ns3:TrackPointExtension></extensions></trkpt>
<trkpt lat="56.83866" lon="-4.06169"><ele>448.5</ele><time>2026-04-26T08:49:55Z</time><extensions><ns3:TrackPointExtension><ns3:hr>148</ns3:hr><ns3:cad>86</ns3:cad></ns3:TrackPointExtension></extensions></trkpt>
<trkpt lat="56.83878" lon="-4.06174"><ele>450.7</ele><time>2026-04-26T08:50:05Z</time><extensions><ns3:TrackPointExtension><ns3:hr>151</ns3:hr><ns3:cad>86</ns3:cad></ns3:TrackPointExtension></extensions></trkpt>
<trkpt lat="56.83890" lon="-4.06177"><ele>453.0</ele><time>2026-04-26T08:50:15Z</time><extensions><ns3:TrackPointExtension><ns3:hr>149</ns3:hr><ns3:cad>85</ns3:cad></ns3:TrackPointExtension></extensions></trkpt>
<trkpt lat="56.83901" lon="-4.06180"><ele>455.2</ele><time>2026-04-26T08:50:25Z</time><extensions><ns3:TrackPointExtension><ns3:hr>147</ns3:hr><ns3:cad>87</ns3:cad></ns3:TrackPointExtension></extensions></trkpt>
<trkpt lat="56.83913" lon="-4.06181"><ele>457.5</ele><time>2026-04-26T08:50:35Z</time><extensions><ns3:TrackPointExtension><ns3:hr>147</ns3:hr><ns3:cad>89</ns3:cad></ns3:TrackPointExtension></extensions></trkpt>
<trkpt lat="56.83925" lon="-4.06184"><ele>459.7</ele><time>2026-04-26T08:50:45Z</time><extensions><ns3:TrackPointExtension><ns3:hr>147</ns3:hr><ns3:cad>84</ns3:cad></ns3:TrackPointExtension></extensions></trkpt>
<trkpt lat="56.83937" lon="-4.06186"><ele>462.0</ele><time>2026-04-26T08:50:55Z</time><extensions><ns3:TrackPointExtension><ns3:hr>146</ns3:hr><ns3:cad>89</ns3:cad></ns3:TrackPointExtension></extensions></trkpt>
<trkpt lat="56.83949" lon="-4.06189"><ele>464.2</ele><time>2026-04-26T08:51:05Z</time><extensions><ns3:TrackPointExtension><ns3:hr>147</ns3:hr><ns3:cad>85</ns3:cad></ns3:TrackPointExtension></extensions></trkpt>
<trkpt lat="56.83960" lon="-4.06192"><ele>466.5</ele><time>2026-04-26T08:51:15Z</time><extensions><ns3:TrackPointExtension><ns3:hr>147</ns3:hr><ns3:cad>84</ns3:cad></ns3:TrackPointExtension></extensions></trkpt>
<trkpt lat="56.83972" lon="-4.06195"><ele>468.7</ele><time>2026-04-26T08:51:25Z</time><extensions><ns3:TrackPointExtension><ns3:hr>150</ns3:hr><ns3:cad>88</ns3:cad></ns3:TrackPointExtension></extensions></trkpt>
<trkpt lat="56.83984" lon="-4.06196"><ele>471.0</ele><time>2026-04-26T08:51:35Z</time><extensions><ns3:TrackPointExtension><ns3:hr>149</ns3:hr><ns3:cad>85</ns3:cad></ns3:TrackPointExtension></extensions></trkpt>
<trkpt lat="56.83996" lon="-4.06200"><ele>473.2</ele><time>2026-04-26T08:51:45Z</time><extensions><ns3:TrackPointExtension><ns3:hr>147</ns3:hr><ns3:cad>86</ns3:cad></ns3:TrackPointExtension></extensions></trkpt>
<trkpt lat="56.84008" lon="-4.06201"><ele>475.4</ele><time>2026-04-26T08:51:55Z</time><extensions><ns3:TrackPointExtension><ns3:hr>149</ns3:hr><ns3:cad>86</ns3:cad></ns3:TrackPointExtension></extensions></trkpt>
<trkpt lat="56.84019" lon="-4.06203"><ele>477.7</ele><time>2026-04-26T08:52:05Z</time><extensions><ns3:TrackPointExtension><ns3:hr>148</ns3:hr><ns3:cad>84</ns3:cad></ns3:TrackPointExtension></extensions></trkpt>
<trkpt lat="56.84031" lon="-4.06205"><ele>479.9</ele><time>2026-04-26T08:52:15Z</time><extensions><ns3:TrackPointExtension><ns3:hr>146</ns3:hr><ns3:cad>87</ns3:cad></ns3:TrackPointExtension></extensions></trkpt>
<trkpt lat="56.84043" lon="-4.06206"><ele>482.2</ele><time>2026-04-26T08:52:25Z</time><extensions><ns3:TrackPointExtension><ns3:hr>147</ns3:hr><ns3:cad>89</ns3:cad></ns3:TrackPointExtension></extensions></trkpt>
<trkpt lat="56.84055" lon="-4.06205"><ele>484.4</ele><time>2026-04-26T08:52:35Z</time><extensions><ns3:TrackPointExtension><ns3:hr>150</ns3:hr><ns3:cad>88</ns3:cad></ns3:TrackPointExtension></extensions></trkpt>
<trkpt lat="56.84067" lon="-4.06202"><ele>486.7</ele><time>2026-04-26T08:52:45Z</time><extensions><ns3:TrackPointExtension><ns3:hr>147</ns3:hr><ns3:cad>85</ns3:cad></ns3:TrackPointExtension></extensions></trkpt>
<trkpt lat="56.84078" lon="-4.06199"><ele>488.9</ele><time>2026-04-26T08:52:55Z</time><extensions><ns3:TrackPointExtension><ns3:hr>148</ns3:hr><ns3:cad>87</ns3:cad></ns3:TrackPointExtension></extensions></trkpt>
<trkpt lat="56.84090" lon="-4.06195"><ele>491.2</ele><time>2026-04-26T08:53:05Z</time><extensions><ns3:TrackPointExtension><ns3:hr>148</ns3:hr><ns3:cad>88</ns3:cad></ns3:TrackPointExtension></extensions></trkpt>
<trkpt lat="56.84102" lon="-4.06191"><ele>493.4</ele><time>2026-04-26T08:53:15Z</time><extensions><ns3:TrackPointExtension><ns3:hr>150</ns3:hr><ns3:cad>88</ns3:cad></ns3:TrackPointExtension></extensions></trkpt>
<trkpt lat="56.84114" lon="-4.06188"><ele>495.7</ele><time>2026-04-26T08:53:25Z</time><extensions><ns3:TrackPointExtension><ns3:hr>147</ns3:hr><ns3:cad>88</ns3:cad></ns3:TrackPointExtension></extensions></trkpt>
<trkpt lat="56.84125" lon="-4.06187"><ele>497.9</ele><time>2026-04-26T08:53:35Z</time><extensions><ns3:TrackPointExtension><ns3:hr>148</ns3:hr><ns3:cad>85</ns3:cad></ns3:TrackPointExtension></extensions></trkpt>
<trkpt lat="56.84137" lon="-4.06188"><ele>500.2</ele><time>2026-04-26T08:53:45Z</time><extensions><ns3:TrackPointExtension><ns3:hr>147</ns3:hr><ns3:cad>88</ns3:cad></ns3:TrackPointExtension></extensions></trkpt>
<trkpt lat="56.84149" lon="-4.06186"><ele>502.4</ele><time>2026-04-26T08:53:55Z</time><extensions><ns3:TrackPointExtension><ns3:hr>148</ns3:hr><ns3:cad>85</ns3:cad></ns3:TrackPointExtension></extensions></trkpt>
<trkpt lat="56.84161" lon="-4.06186"><ele>504.7</ele><time>2026-04-26T08:54:05Z</time><extensions><ns3:TrackPointExtension><ns3:hr>147</ns3:hr><ns3:cad>86</ns3:cad></ns3:TrackPointExtension></extensions></trkpt>
<trkpt lat="56.84173" lon="-4.06185"><ele>506.9</ele><time>2026-04-26T08:54:15Z</time><extensions><ns3:TrackPointExtension><ns3:hr>150</ns3:hr><ns3:cad>85</ns3:cad></ns3:TrackPointExtension></extensions></trkpt>
<trkpt lat="56.84185" lon="-4.06185"><ele>509.2</ele><time>2026-04-26T08:54:25Z</time><extensions><ns3:TrackPointExtension><ns3:hr>150</ns3:hr><ns3:cad>87</ns3:cad></ns3:TrackPointExtension></extensions></trkpt>
<trkpt lat="56.84197" lon="-4.06187"><ele>511.4</ele><time>2026-04-26T08:54:35Z</time><extensions><ns3:TrackPointExtension><ns3:hr>149</ns3:hr><ns3:cad>86</ns3:cad></ns3:TrackPointExtension></extensions></trkpt>
<trkpt lat="56.84208" lon="-4.06187"><ele>513.7</ele><time>2026-04-26T08:54:45Z</time><extensions><ns3:TrackPointExtension><ns3:hr>147</ns3:hr><ns3:cad>85</ns3:cad></ns3:TrackPointExtension></extensions></trkpt>
<trkpt lat="56.84220" lon="-4.06189"><ele>515.9</ele><time>2026-04-26T08:54:55Z</time><extensions><ns3:TrackPointExtension><ns3:hr>150</ns3:hr><ns3:cad>85</ns3:cad></ns3:TrackPointExtension></extensions></trkpt>
<trkpt lat="56.84232" lon="-4.06192"><ele>518.1</ele><time>2026-04-26T08:55:05Z</time><extensions><ns3:TrackPointExtension><ns3:hr>147</ns3:hr><ns3:cad>85</ns3:cad></ns3:TrackPointExtension></extensions></trkpt>
<trkpt lat="56.84244" lon="-4.06197"><ele>520.4</ele><time>2026-04-26T08:55:15Z</time><extensions><ns3:TrackPointExtension><ns3:hr>150</ns3:hr><ns3:cad>88</ns3:cad></ns3:TrackPointExtension></extensions></trkpt>
<trkpt lat="56.84255" lon="-4.06203"><ele>522.6</ele><time>2026-04-26T08:55:25Z</time><extensions><ns3:TrackPointExtension><ns3:hr>150</ns3:hr><ns3:cad>88</ns3:cad></ns3:TrackPointExtension></extensions></trkpt>
<trkpt lat="56.84266" lon="-4.06211"><ele>524.9</ele><time>2026-04-26T08:55:35Z</time><extensions><ns3:TrackPointExtension><ns3:hr>147</ns3:hr><ns3:cad>85</ns3:cad></ns3:TrackPointExtension></extensions></trkpt>
<trkpt lat="56.84277" lon="-4.06217"><ele>527.1</ele><time>2026-04-26T08:55:45Z</time><extensions><ns3:TrackPointExtension><ns3:hr>150</ns3:hr><ns3:cad>85</ns3:cad></ns3:TrackPointExtension></extensions></trkpt>
<trkpt lat="56.84289" lon="-4.06222"><ele>529.4</ele><time>2026-04-26T08:55:55Z</time><extensions><ns3:TrackPointExtension><ns3:hr>149</ns3:hr><ns3:cad>86</ns3:cad></ns3:TrackPointExtension></extensions></trkpt>
<trkpt lat="56.84301" lon="-4.06226"><ele>531.6</ele><time>2026-04-26T08:56:05Z</time><extensions><ns3:TrackPointExtension><ns3:hr>148</ns3:hr><ns3:cad>85</ns3:cad></ns3:TrackPointExtension></extensions></trkpt>
<trkpt lat="56.84312" lon="-4.06232"><ele>533.9</ele><time>2026-04-26T08:56:15Z</time><extensions><ns3:TrackPointExtension><ns3:hr>148</ns3:hr><ns3:cad>87</ns3:cad></ns3:TrackPointExtension></extensions></trkpt>
<trkpt lat="56.84323" lon="-4.06238"><ele>536.1</ele><time>2026-04-26T08:56:25Z</time><extensions><ns3:TrackPointExtension><ns3:hr>147</ns3:hr><ns3:cad>86</ns3:cad></ns3:TrackPointExtension></extensions></trkpt>
<trkpt lat="56.84335" lon="-4.06245"><ele>538.4</ele><time>2026-04-26T08:56:35Z</time><extensions><ns3:TrackPointExtension><ns3:hr>151</ns3:hr><ns3:cad>88</ns3:cad></ns3:TrackPointExtension></extensions></trkpt>
<trkpt lat="56.84346" lon="-4.06253"><ele>540.6</ele><time>2026-04-26T08:56:45Z</time><extensions><ns3:TrackPointExtension><ns3:hr>151</ns3:hr><ns3:cad>89</ns3:cad></ns3:TrackPointExtension></extensions></trkpt>
<trkpt lat="56.84357" lon="-4.06261"><ele>542.9</ele><time>2026-04-26T08:56:55Z</time><extensions><ns3:TrackPointExtension><ns3:hr>148</ns3:hr><ns3:cad>88</ns3:cad></ns3:TrackPointExtension></extensions></trkpt>
<trkpt lat="56.84368" lon="-4.06267"><ele>545.1</ele><time>2026-04-26T08:57:05Z</time><extensions><ns3:TrackPointExtension><ns3:hr>150</ns3:hr><ns3:cad>88</ns3:cad></ns3:TrackPointExtension></extensions></trkpt>
<trkpt lat="56.84380" lon="-4.06272"><ele>547.4</ele><time>2026-04-26T08:57:15Z</time><extensions><ns3:TrackPointExtension><ns3:hr>150</ns3:hr><ns3:cad>88</ns3:cad></ns3:TrackPointExtension></extensions></trkpt>
<trkpt lat="56.84391" lon="-4.06277"><ele>549.6</ele><time>2026-04-26T08:57:25Z</time><extensions><ns3:TrackPointExtension><ns3:hr>150</ns3:hr><ns3:cad>85</ns3:cad></ns3:TrackPointExtension></extensions></trkpt>
<trkpt lat="56.84403" lon="-4.06284"><ele>551.9</ele><time>2026-04-26T08:57:35Z</time><extensions><ns3:TrackPointExtension><ns3:hr>151</ns3:hr><ns3:cad>85</ns3:cad></ns3:TrackPointExtension></extensions></trkpt>
<trkpt lat="56.84414" lon="-4.06291"><ele>554.1</ele><time>2026-04-26T08:57:45Z</time><extensions><ns3:TrackPointExtension><ns3:hr>151</ns3:hr><ns3:cad>86</ns3:cad></ns3:TrackPointExtension></extensions></trkpt>
<trkpt lat="56.84424" lon="-4.06301"><ele>556.3</ele><time>2026-04-26T08:57:55Z</time><extensions><ns3:TrackPointExtension><ns3:hr>149</ns3:hr><ns3:cad>84</ns3:cad></ns3:TrackPointExtension></extensions></trkpt>
<trkpt lat="56.84434" lon="-4.06313"><ele>558.6</ele><time>2026-04-26T08:58:05Z</time><extensions><ns3:TrackPointExtension><ns3:hr>149</ns3:hr><ns3:cad>86</ns3:cad></ns3:TrackPointExtension></extensions></trkpt>
<trkpt lat="56.84444" lon="-4.06325"><ele>560.8</ele><time>2026-04-26T08:58:15Z</time><extensions><ns3:TrackPointExtension><ns3:hr>147</ns3:hr><ns3:cad>87</ns3:cad></ns3:TrackPointExtension></extensions></trkpt>
<trkpt lat="56.84454" lon="-4.06337"><ele>563.1</ele><time>2026-04-26T08:58:25Z</time><extensions><ns3:TrackPointExtension><ns3:hr>151</ns3:hr><ns3:cad>87</ns3:cad></ns3:TrackPointExtension></extensions></trkpt>
<trkpt lat="56.84465" lon="-4.06347"><ele>565.3</ele><time>2026-04-26T08:58:35Z</time><extensions><ns3:TrackPointExtension><ns3:hr>150</ns3:hr><ns3:cad>84</ns3:cad></ns3:TrackPointExtension></extensions></trkpt>
<trkpt lat="56.84475" lon="-4.06358"><ele>567.6</ele><time>2026-04-26T08:58:45Z</time><extensions><ns3:TrackPointExtension><ns3:hr>149</ns3:hr><ns3:cad>86</ns3:cad></ns3:TrackPointExtension></extensions></trkpt>
<trkpt lat="56.84485" lon="-4.06368"><ele>569.8</ele><time>2026-04-26T08:58:55Z</time><extensions><ns3:TrackPointExtension><ns3:hr>147</ns3:hr><ns3:cad>85</ns3:cad></ns3:TrackPointExtension></extensions></trkpt>
<trkpt lat="56.84496" lon="-4.06379"><ele>572.1</ele><time>2026-04-26T08:59:05Z</time><extensions><ns3:TrackPointExtension><ns3:hr>148</ns3:hr><ns3:cad>87</ns3:cad></ns3:TrackPointExtension></extensions></trkpt>
<trkpt lat="56.84505" lon="-4.06392"><ele>574.3</ele><time>2026-04-26T08:59:15Z</time><extensions><ns3:TrackPointExtension><ns3:hr>149</ns3:hr><ns3:cad>88</ns3:cad></ns3:TrackPointExtension></extensions></trkpt>
<trkpt lat="56.84515" lon="-4.06405"><ele>576.6</ele><time>2026-04-26T08:59:25Z</time><extensions><ns3:TrackPointExtension><ns3:hr>151</ns3:hr><ns3:cad>86</ns3:cad></ns3:TrackPointExtension></extensions></trkpt>
<trkpt lat="56.84525" lon="-4.06417"><ele>578.8</ele><time>2026-04-26T08:59:35Z</time><extensions><ns3:TrackPointExtension><ns3:hr>148</ns3:hr><ns3:cad>86</ns3:cad></ns3:TrackPointExtension></extensions></trkpt>
<trkpt lat="56.84534" lon="-4.06429"><ele>581.1</ele><time>2026-04-26T08:59:45Z</time><extensions><ns3:TrackPointExtension><ns3:hr>150</ns3:hr><ns3:cad>85</ns3:cad></ns3:TrackPointExtension></extensions></trkpt>
<trkpt lat="56.84544" lon="-4.06442"><ele>583.3</ele><time>2026-04-26T08:59:55Z</time><extensions><ns3:TrackPointExtension><ns3:hr>150</ns3:hr><ns3:cad>89</ns3:cad></ns3:TrackPointExtension></extensions></trkpt>
<trkpt lat="56.84554" lon="-4.06454"><ele>585.6</ele><time>2026-04-26T09:00:05Z</time><extensions><ns3:TrackPointExtension><ns3:hr>150</ns3:hr><ns3:cad>86</ns3:cad></ns3:TrackPointExtension></extensions></trkpt>
<trkpt lat="56.84563" lon="-4.06468"><ele>587.8</ele><time>2026-04-26T09:00:15Z</time><extensions><ns3:TrackPointExtension><ns3:hr>150</ns3:hr><ns3:cad>88</ns3:cad></ns3:TrackPointExtension></extensions></trkpt>
<trkpt lat="56.84564" lon="-4.06469"><ele>588.0</ele><time>2026-04-26T09:00:16Z</time><extensions><ns3:TrackPointExtension><ns3:hr>149</ns3:hr><ns3:cad>87</ns3:cad></ns3:TrackPointExtension></extensions></trkpt>
<trkpt lat="56.84571" lon="-4.06482"><ele>590.6</ele><time>2026-04-26T09:00:26Z</time><extensions><ns3:TrackPointExtension><ns3:hr>151</ns3:hr><ns3:cad>55</ns3:cad></ns3:TrackPointExtension></extensions></trkpt>
<trkpt lat="56.84576" lon="-4.06496"><ele>593.2</ele><time>2026-04-26T09:00:36Z</time><extensions><ns3:TrackPointExtension><ns3:hr>151</ns3:hr><ns3:cad>58</ns3:cad></ns3:TrackPointExtension></extensions></trkpt>
<trkpt lat="56.84582" lon="-4.06511"><ele>595.8</ele><time>2026-04-26T09:00:46Z</time><extensions><ns3:TrackPointExtension><ns3:hr>149</ns3:hr><ns3:cad>57</ns3:cad></ns3:TrackPointExtension></extensions></trkpt>
<trkpt lat="56.84587" lon="-4.06525"><ele>598.4</ele><time>2026-04-26T09:00:56Z</time><extensions><ns3:TrackPointExtension><ns3:hr>148</ns3:hr><ns3:cad>59</ns3:cad></ns3:TrackPointExtension></extensions></trkpt>
<trkpt lat="56.84593" lon="-4.06540"><ele>601.0</ele><time>2026-04-26T09:01:06Z</time><extensions><ns3:TrackPointExtension><ns3:hr>147</ns3:hr><ns3:cad>58</ns3:cad></ns3:TrackPointExtension></extensions></trkpt>
<trkpt lat="56.84597" lon="-4.06556"><ele>603.6</ele><time>2026-04-26T09:01:16Z</time><extensions><ns3:TrackPointExtension><ns3:hr>147</ns3:hr><ns3:cad>56</ns3:cad></ns3:TrackPointExtension></extensions></trkpt>
<trkpt lat="56.84600" lon="-4.06573"><ele>606.2</ele><time>2026-04-26T09:01:26Z</time><extensions><ns3:TrackPointExtension><ns3:hr>150</ns3:hr><ns3:cad>58</ns3:cad></ns3:TrackPointExtension></extensions></trkpt>
<trkpt lat="56.84604" lon="-4.06589"><ele>608.8</ele><time>2026-04-26T09:01:36Z</time><extensions><ns3:TrackPointExtension><ns3:hr>148</ns3:hr><ns3:cad>58</ns3:cad></ns3:TrackPointExtension></extensions></trkpt>
<trkpt lat="56.84609" lon="-4.06605"><ele>611.4</ele><time>2026-04-26T09:01:46Z</time><extensions><ns3:TrackPointExtension><ns3:hr>147</ns3:hr><ns3:cad>56</ns3:cad></ns3:TrackPointExtension></extensions></trkpt>
<trkpt lat="56.84614" lon="-4.06620"><ele>614.0</ele><time>2026-04-26T09:01:56Z</time><extensions><ns3:TrackPointExtension><ns3:hr>150</ns3:hr><ns3:cad>56</ns3:cad></ns3:TrackPointExtension></extensions></trkpt>
<trkpt lat="56.84618" lon="-4.06636"><ele>616.6</ele><time>2026-04-26T09:02:06Z</time><extensions><ns3:TrackPointExtension><ns3:hr>149</ns3:hr><ns3:cad>57</ns3:cad></ns3:TrackPointExtension></extensions></trkpt>
<trkpt lat="56.84623" lon="-4.06651"><ele>619.2</ele><time>2026-04-26T09:02:16Z</time><extensions><ns3:TrackPointExtension><ns3:hr>149</ns3:hr><ns3:cad>55</ns3:cad></ns3:TrackPointExtension></extensions></trkpt>
<trkpt lat="56.84629" lon="-4.06665"><ele>621.8</ele><time>2026-04-26T09:02:26Z</time><extensions><ns3:TrackPointExtension><ns3:hr>148</ns3:hr><ns3:cad>56</ns3:cad></ns3:TrackPointExtension></extensions></trkpt>
<trkpt lat="56.84635" lon="-4.06679"><ele>624.4</ele><time>2026-04-26T09:02:36Z</time><extensions><ns3:TrackPointExtension><ns3:hr>151</ns3:hr><ns3:cad>54</ns3:cad></ns3:TrackPointExtension></extensions></trkpt>
<trkpt lat="56.84641" lon="-4.06693"><ele>627.0</ele><time>2026-04-26T09:02:46Z</time><extensions><ns3:TrackPointExtension><ns3:hr>149</ns3:hr><ns3:cad>58</ns3:cad></ns3:TrackPointExtension></extensions></trkpt>
<trkpt lat="56.84647" lon="-4.06707"><ele>629.5</ele><time>2026-04-26T09:02:56Z</time><extensions><ns3:TrackPointExtension><ns3:hr>150</ns3:hr><ns3:cad>58</ns3:cad></ns3:TrackPointExtension></extensions></trkpt>
<trkpt lat="56.84653" lon="-4.06721"><ele>632.1</ele><time>2026-04-26T09:03:06Z</time><extensions><ns3:TrackPointExtension><ns3:hr>149</ns3:hr><ns3:cad>55</ns3:cad></ns3:TrackPointExtension></extensions></trkpt>
<trkpt lat="56.84660" lon="-4.06734"><ele>634.7</ele><time>2026-04-26T09:03:16Z</time><extensions><ns3:TrackPointExtension><ns3:hr>148</ns3:hr><ns3:cad>58</ns3:cad></ns3:TrackPointExtension></extensions></trkpt>
<trkpt lat="56.84667" lon="-4.06747"><ele>637.3</ele><time>2026-04-26T09:03:26Z</time><extensions><ns3:TrackPointExtension><ns3:hr>151</ns3:hr><ns3:cad>59</ns3:cad></ns3:TrackPointExtension></extensions></trkpt>
<trkpt lat="56.84673" lon="-4.06760"><ele>639.9</ele><time>2026-04-26T09:03:36Z</time><extensions><ns3:TrackPointExtension><ns3:hr>151</ns3:hr><ns3:cad>57</ns3:cad></ns3:TrackPointExtension></extensions></trkpt>
<trkpt lat="56.84679" lon="-4.06774"><ele>642.5</ele><time>2026-04-26T09:03:46Z</time><extensions><ns3:TrackPointExtension><ns3:hr>150</ns3:hr><ns3:cad>55</ns3:cad></ns3:TrackPointExtension></extensions></trkpt>
<trkpt lat="56.84684" lon="-4.06789"><ele>645.1</ele><time>2026-04-26T09:03:56Z</time><extensions><ns3:TrackPointExtension><ns3:hr>150</ns3:hr><ns3:cad>55</ns3:cad></ns3:TrackPointExtension></extensions></trkpt>
<trkpt lat="56.84690" lon="-4.06804"><ele>647.7</ele><time>2026-04-26T09:04:06Z</time><extensions><ns3:TrackPointExtension><ns3:hr>149</ns3:hr><ns3:cad>55</ns3:cad></ns3:TrackPointExtension></extensions></trkpt>
<trkpt lat="56.84695" lon="-4.06819"><ele>650.3</ele><time>2026-04-26T09:04:16Z</time><extensions><ns3:TrackPointExtension><ns3:hr>148</ns3:hr><ns3:cad>55</ns3:cad></ns3:TrackPointExtension></extensions></trkpt>
<trkpt lat="56.84700" lon="-4.06834"><ele>652.9</ele><time>2026-04-26T09:04:26Z</time><extensions><ns3:TrackPointExtension><ns3:hr>150</ns3:hr><ns3:cad>55</ns3:cad></ns3:TrackPointExtension></extensions></trkpt>
<trkpt lat="56.84706" lon="-4.06848"><ele>655.5</ele><time>2026-04-26T09:04:36Z</time><extensions><ns3:TrackPointExtension><ns3:hr>148</ns3:hr><ns3:cad>55</ns3:cad></ns3:TrackPointExtension></extensions></trkpt>
<trkpt lat="56.84712" lon="-4.06861"><ele>658.1</ele><time>2026-04-26T09:04:46Z</time><extensions><ns3:TrackPointExtension><ns3:hr>148</ns3:hr><ns3:cad>59</ns3:cad></ns3:TrackPointExtension></extensions></trkpt>
<trkpt lat="56.84718" lon="-4.06876"><ele>660.7</ele><time>2026-04-26T09:04:56Z</time><extensions><ns3:TrackPointExtension><ns3:hr>150</ns3:hr><ns3:cad>57</ns3:cad></ns3:TrackPointExtension></extensions></trkpt>
<trkpt lat="56.84725" lon="-4.06888"><ele>663.3</ele><time>2026-04-26T09:05:06Z</time><extensions><ns3:TrackPointExtension><ns3:hr>147</ns3:hr><ns3:cad>56</ns3:cad></ns3:TrackPointExtension></extensions></trkpt>
<trkpt lat="56.84733" lon="-4.06899"><ele>665.9</ele><time>2026-04-26T09:05:16Z</time><extensions><ns3:TrackPointExtension><ns3:hr>149</ns3:hr><ns3:cad>54</ns3:cad></ns3:TrackPointExtension></extensions></trkpt>
<trkpt lat="56.84740" lon="-4.06910"><ele>668.5</ele><time>2026-04-26T09:05:26Z</time><extensions><ns3:TrackPointExtension><ns3:hr>147</ns3:hr><ns3:cad>59</ns3:cad></ns3:TrackPointExtension></extensions></trkpt>
<trkpt lat="56.84748" lon="-4.06922"><ele>671.1</ele><time>2026-04-26T09:05:36Z</time><extensions><ns3:TrackPointExtension><ns3:hr>150</ns3:hr><ns3:cad>58</ns3:cad></ns3:TrackPointExtension></extensions></trkpt>
<trkpt lat="56.84756" lon="-4.06932"><ele>673.7</ele><time>2026-04-26T09:05:46Z</time><extensions><ns3:TrackPointExtension><ns3:hr>151</ns3:hr><ns3:cad>55</ns3:cad></ns3:TrackPointExtension></extensions></trkpt>
<trkpt lat="56.84763" lon="-4.06944"><ele>676.3</ele><time>2026-04-26T09:05:56Z</time><extensions><ns3:TrackPointExtension><ns3:hr>150</ns3:hr><ns3:cad>56</ns3:cad></ns3:TrackPointExtension></extensions></trkpt>
<trkpt lat="56.84770" lon="-4.06957"><ele>678.9</ele><time>2026-04-26T09:06:06Z</time><extensions><ns3:TrackPointExtension><ns3:hr>151</ns3:hr><ns3:cad>55</ns3:cad></ns3:TrackPointExtension></extensions></trkpt>
<trkpt lat="56.84776" lon="-4.06971"><ele>681.5</ele><time>2026-04-26T09:06:16Z</time><extensions><ns3:TrackPointExtension><ns3:hr>150</ns3:hr><ns3:cad>55</ns3:cad></ns3:TrackPointExtension></extensions></trkpt>
<trkpt lat="56.84782" lon="-4.06985"><ele>684.1</ele><time>2026-04-26T09:06:26Z</time><extensions><ns3:TrackPointExtension><ns3:hr>148</ns3:hr><ns3:cad>57</ns3:cad></ns3:TrackPointExtension></extensions></trkpt>
<trkpt lat="56.84789" lon="-4.06997"><ele>686.7</ele><time>2026-04-26T09:06:36Z</time><extensions><ns3:TrackPointExtension><ns3:hr>149</ns3:hr><ns3:cad>57</ns3:cad></ns3:TrackPointExtension></extensions></trkpt>
<trkpt lat="56.84796" lon="-4.07009"><ele>689.3</ele><time>2026-04-26T09:06:46Z</time><extensions><ns3:TrackPointExtension><ns3:hr>149</ns3:hr><ns3:cad>56</ns3:cad></ns3:TrackPointExtension></extensions></trkpt>
<trkpt lat="56.84803" lon="-4.07020"><ele>691.9</ele><time>2026-04-26T09:06:56Z</time><extensions><ns3:TrackPointExtension><ns3:hr>148</ns3:hr><ns3:cad>58</ns3:cad></ns3:TrackPointExtension></extensions></trkpt>
<trkpt lat="56.84811" lon="-4.07031"><ele>694.5</ele><time>2026-04-26T09:07:06Z</time><extensions><ns3:TrackPointExtension><ns3:hr>147</ns3:hr><ns3:cad>58</ns3:cad></ns3:TrackPointExtension></extensions></trkpt>
<trkpt lat="56.84818" lon="-4.07043"><ele>697.1</ele><time>2026-04-26T09:07:16Z</time><extensions><ns3:TrackPointExtension><ns3:hr>151</ns3:hr><ns3:cad>56</ns3:cad></ns3:TrackPointExtension></extensions></trkpt>
<trkpt lat="56.84826" lon="-4.07054"><ele>699.7</ele><time>2026-04-26T09:07:26Z</time><extensions><ns3:TrackPointExtension><ns3:hr>149</ns3:hr><ns3:cad>55</ns3:cad></ns3:TrackPointExtension></extensions></trkpt>
<trkpt lat="56.84833" lon="-4.07067"><ele>702.3</ele><time>2026-04-26T09:07:36Z</time><extensions><ns3:TrackPointExtension><ns3:hr>152</ns3:hr><ns3:cad>56</ns3:cad></ns3:TrackPointExtension></extensions></trkpt>
<trkpt lat="56.84839" lon="-4.07080"><ele>704.9</ele><time>2026-04-26T09:07:46Z</time><extensions><ns3:TrackPointExtension><ns3:hr>150</ns3:hr><ns3:cad>54</ns3:cad></ns3:TrackPointExtension></extensions></trkpt>
<trkpt lat="56.84846" lon="-4.07093"><ele>707.5</ele><time>2026-04-26T09:07:56Z</time><extensions><ns3:TrackPointExtension><ns3:hr>148</ns3:hr><ns3:cad>56</ns3:cad></ns3:TrackPointExtension></extensions></trkpt>
<trkpt lat="56.84853" lon="-4.07105"><ele>710.0</ele><time>2026-04-26T09:08:06Z</time><extensions><ns3:TrackPointExtension><ns3:hr>151</ns3:hr><ns3:cad>58</ns3:cad></ns3:TrackPointExtension></extensions></trkpt>
<trkpt lat="56.84859" lon="-4.07118"><ele>712.6</ele><time>2026-04-26T09:08:16Z</time><extensions><ns3:TrackPointExtension><ns3:hr>151</ns3:hr><ns3:cad>56</ns3:cad></ns3:TrackPointExtension></extensions></trkpt>
<trkpt lat="56.84866" lon="-4.07131"><ele>715.2</ele><time>2026-04-26T09:08:26Z</time><extensions><ns3:TrackPointExtension><ns3:hr>148</ns3:hr><ns3:cad>57</ns3:cad></ns3:TrackPointExtension></extensions></trkpt>
<trkpt lat="56.84873" lon="-4.07143"><ele>717.8</ele><time>2026-04-26T09:08:36Z</time><extensions><ns3:TrackPointExtension><ns3:hr>148</ns3:hr><ns3:cad>59</ns3:cad></ns3:TrackPointExtension></extensions></trkpt>
<trkpt lat="56.84881" lon="-4.07154"><ele>720.4</ele><time>2026-04-26T09:08:46Z</time><extensions><ns3:TrackPointExtension><ns3:hr>148</ns3:hr><ns3:cad>55</ns3:cad></ns3:TrackPointExtension></extensions></trkpt>
<trkpt lat="56.84889" lon="-4.07165"><ele>723.0</ele><time>2026-04-26T09:08:56Z</time><extensions><ns3:TrackPointExtension><ns3:hr>147</ns3:hr><ns3:cad>59</ns3:cad></ns3:TrackPointExtension></extensions></trkpt>
<trkpt lat="56.84896" lon="-4.07177"><ele>725.6</ele><time>2026-04-26T09:09:06Z</time><extensions><ns3:TrackPointExtension><ns3:hr>148</ns3:hr><ns3:cad>57</ns3:cad></ns3:TrackPointExtension></extensions></trkpt>
<trkpt lat="56.84903" lon="-4.07189"><ele>728.2</ele><time>2026-04-26T09:09:16Z</time><extensions><ns3:TrackPointExtension><ns3:hr>150</ns3:hr><ns3:cad>57</ns3:cad></ns3:TrackPointExtension></extensions></trkpt>
<trkpt lat="56.84911" lon="-4.07200"><ele>730.8</ele><time>2026-04-26T09:09:26Z</time><extensions><ns3:TrackPointExtension><ns3:hr>151</ns3:hr><ns3:cad>58</ns3:cad></ns3:TrackPointExtension></extensions></trkpt>
<trkpt lat="56.84914" lon="-4.07206"><ele>732.0</ele><time>2026-04-26T09:09:31Z</time><extensions><ns3:TrackPointExtension><ns3:hr>149</ns3:hr><ns3:cad>57</ns3:cad></ns3:TrackPointExtension></extensions></trkpt>
<trkpt lat="56.84930" lon="-4.07238"><ele>728.8</ele><time>2026-04-26T09:09:41Z</time><extensions><ns3:TrackPointExtension><ns3:hr>147</ns3:hr><ns3:cad>85</ns3:cad></ns3:TrackPointExtension></extensions></trkpt>
<trkpt lat="56.84945" lon="-4.07272"><ele>725.6</ele><time>2026-04-26T09:09:51Z</time><extensions><ns3:TrackPointExtension><ns3:hr>151</ns3:hr><ns3:cad>86</ns3:cad></ns3:TrackPointExtension></extensions></trkpt>
<trkpt lat="56.84957" lon="-4.07310"><ele>722.4</ele><time>2026-04-26T09:10:01Z</time><extensions><ns3:TrackPointExtension><ns3:hr>149</ns3:hr><ns3:cad>84</ns3:cad></ns3:TrackPointExtension></extensions></trkpt>
<trkpt lat="56.84969" lon="-4.07348"><ele>719.2</ele><time>2026-04-26T09:10:11Z</time><extensions><ns3:TrackPointExtension><ns3:hr>147</ns3:hr><ns3:cad>87</ns3:cad></ns3:TrackPointExtension></extensions></trkpt>
<trkpt lat="56.84977" lon="-4.07389"><ele>716.0</ele><time>2026-04-26T09:10:21Z</time><extensions><ns3:TrackPointExtension><ns3:hr>150</ns3:hr><ns3:cad>89</ns3:cad></ns3:TrackPointExtension></extensions></trkpt>
<trkpt lat="56.84985" lon="-4.07430"><ele>712.8</ele><time>2026-04-26T09:10:31Z</time><extensions><ns3:TrackPointExtension><ns3:hr>150</ns3:hr><ns3:cad>86</ns3:cad></ns3:TrackPointExtension></extensions></trkpt>
<trkpt lat="56.84993" lon="-4.07471"><ele>709.6</ele><time>2026-04-26T09:10:41Z</time><extensions><ns3:TrackPointExtension><ns3:hr>150</ns3:hr><ns3:cad>89</ns3:cad></ns3:TrackPointExtension></extensions></trkpt>
<trkpt lat="56.85002" lon="-4.07512"><ele>706.4</ele><time>2026-04-26T09:10:51Z</time><extensions><ns3:TrackPointExtension><ns3:hr>148</ns3:hr><ns3:cad>85</ns3:cad></ns3:TrackPointExtension></extensions></trkpt>
<trkpt lat="56.85013" lon="-4.07551"><ele>703.2</ele><time>2026-04-26T09:11:01Z</time><extensions><ns3:TrackPointExtension><ns3:hr>148</ns3:hr><ns3:cad>86</ns3:cad></ns3:TrackPointExtension></extensions></trkpt>
<trkpt lat="56.85024" lon="-4.07590"><ele>700.0</ele><time>2026-04-26T09:11:11Z</time><extensions><ns3:TrackPointExtension><ns3:hr>150</ns3:hr><ns3:cad>85</ns3:cad></ns3:TrackPointExtension></extensions></trkpt>
<trkpt lat="56.85037" lon="-4.07627"><ele>696.9</ele><time>2026-04-26T09:11:21Z</time><extensions><ns3:TrackPointExtension><ns3:hr>149</ns3:hr><ns3:cad>88</ns3:cad></ns3:TrackPointExtension></extensions></trkpt>
<trkpt lat="56.85047" lon="-4.07666"><ele>693.7</ele><time>2026-04-26T09:11:31Z</time><extensions><ns3:TrackPointExtension><ns3:hr>149</ns3:hr><ns3:cad>85</ns3:cad></ns3:TrackPointExtension></extensions></trkpt>
<trkpt lat="56.85059" lon="-4.07704"><ele>690.5</ele><time>2026-04-26T09:11:41Z</time><extensions><ns3:TrackPointExtension><ns3:hr>151</ns3:hr><ns3:cad>88</ns3:cad></ns3:TrackPointExtension></extensions></trkpt>
<trkpt lat="56.85070" lon="-4.07743"><ele>687.3</ele><time>2026-04-26T09:11:51Z</time><extensions><ns3:TrackPointExtension><ns3:hr>148</ns3:hr><ns3:cad>87</ns3:cad></ns3:TrackPointExtension></extensions></trkpt>
<trkpt lat="56.85083" lon="-4.07779"><ele>684.1</ele><time>2026-04-26T09:12:01Z</time><extensions><ns3:TrackPointExtension><ns3:hr>151</ns3:hr><ns3:cad>88</ns3:cad></ns3:TrackPointExtension></extensions></trkpt>
<trkpt lat="56.85097" lon="-4.07815"><ele>680.9</ele><time>2026-04-26T09:12:11Z</time><extensions><ns3:TrackPointExtension><ns3:hr>149</ns3:hr><ns3:cad>89</ns3:cad></ns3:TrackPointExtension></extensions></trkpt>
<trkpt lat="56.85112" lon="-4.07850"><ele>677.7</ele><time>2026-04-26T09:12:21Z</time><extensions><ns3:TrackPointExtension><ns3:hr>150</ns3:hr><ns3:cad>85</ns3:cad></ns3:TrackPointExtension></extensions></trkpt>
<trkpt lat="56.85126" lon="-4.07885"><ele>674.5</ele><time>2026-04-26T09:12:31Z</time><extensions><ns3:TrackPointExtension><ns3:hr>148</ns3:hr><ns3:cad>88</ns3:cad></ns3:TrackPointExtension></extensions></trkpt>
<trkpt lat="56.85140" lon="-4.07920"><ele>671.3</ele><time>2026-04-26T09:12:41Z</time><extensions><ns3:TrackPointExtension><ns3:hr>147</ns3:hr><ns3:cad>86</ns3:cad></ns3:TrackPointExtension></extensions></trkpt>
<trkpt lat="56.85154" lon="-4.07955"><ele>668.1</ele><time>2026-04-26T09:12:51Z</time><extensions><ns3:TrackPointExtension><ns3:hr>148</ns3:hr><ns3:cad>87</ns3:cad></ns3:TrackPointExtension></extensions></trkpt>
<trkpt lat="56.85170" lon="-4.07988"><ele>664.9</ele><time>2026-04-26T09:13:01Z</time><extensions><ns3:TrackPointExtension><ns3:hr>149</ns3:hr><ns3:cad>88</ns3:cad></ns3:TrackPointExtension></extensions></trkpt>
<trkpt lat="56.85186" lon="-4.08020"><ele>661.7</ele><time>2026-04-26T09:13:11Z</time><extensions><ns3:TrackPointExtension><ns3:hr>151</ns3:hr><ns3:cad>85</ns3:cad></ns3:TrackPointExtension></extensions></trkpt>
<trkpt lat="56.85202" lon="-4.08053"><ele>658.5</ele><time>2026-04-26T09:13:21Z</time><extensions><ns3:TrackPointExtension><ns3:hr>151</ns3:hr><ns3:cad>87</ns3:cad></ns3:TrackPointExtension></extensions></trkpt>
<trkpt lat="56.85216" lon="-4.08089"><ele>655.3</ele><time>2026-04-26T09:13:31Z</time><extensions><ns3:TrackPointExtension><ns3:hr>147</ns3:hr><ns3:cad>85</ns3:cad></ns3:TrackPointExtension></extensions></trkpt>
<trkpt lat="56.85228" lon="-4.08127"><ele>652.1</ele><time>2026-04-26T09:13:41Z</time><extensions><ns3:TrackPointExtension><ns3:hr>149</ns3:hr><ns3:cad>85</ns3:cad></ns3:TrackPointExtension></extensions></trkpt>
<trkpt lat="56.85240" lon="-4.08164"><ele>648.9</ele><time>2026-04-26T09:13:51Z</time><extensions><ns3:TrackPointExtension><ns3:hr>147</ns3:hr><ns3:cad>88</ns3:cad></ns3:TrackPointExtension></extensions></trkpt>
<trkpt lat="56.85244" lon="-4.08175"><ele>648.0</ele><time>2026-04-26T09:13:54Z</time><extensions><ns3:TrackPointExtension><ns3:hr>147</ns3:hr><ns3:cad>87</ns3:cad></ns3:TrackPointExtension></extensions></trkpt>
<trkpt lat="56.85256" lon="-4.08214"><ele>645.5</ele><time>2026-04-26T09:14:04Z</time><extensions><ns3:TrackPointExtension><ns3:hr>150</ns3:hr><ns3:cad>87</ns3:cad></ns3:TrackPointExtension></extensions></trkpt>
<trkpt lat="56.85271" lon="-4.08250"><ele>643.1</ele><time>2026-04-26T09:14:14Z</time><extensions><ns3:TrackPointExtension><ns3:hr>147</ns3:hr><ns3:cad>86</ns3:cad></ns3:TrackPointExtension></extensions></trkpt>
<trkpt lat="56.85285" lon="-4.08286"><ele>640.6</ele><time>2026-04-26T09:14:24Z</time><extensions><ns3:TrackPointExtension><ns3:hr>151</ns3:hr><ns3:cad>87</ns3:cad></ns3:TrackPointExtension></extensions></trkpt>
<trkpt lat="56.85298" lon="-4.08324"><ele>638.2</ele><time>2026-04-26T09:14:34Z</time><extensions><ns3:TrackPointExtension><ns3:hr>151</ns3:hr><ns3:cad>86</ns3:cad></ns3:TrackPointExtension></extensions></trkpt>
<trkpt lat="56.85311" lon="-4.08362"><ele>635.7</ele><time>2026-04-26T09:14:44Z</time><extensions><ns3:TrackPointExtension><ns3:hr>148</ns3:hr><ns3:cad>88</ns3:cad></ns3:TrackPointExtension></extensions></trkpt>
<trkpt lat="56.85323" lon="-4.08401"><ele>633.3</ele><time>2026-04-26T09:14:54Z</time><extensions><ns3:TrackPointExtension><ns3:hr>148</ns3:hr><ns3:cad>89</ns3:cad></ns3:TrackPointExtension></extensions></trkpt>
<trkpt lat="56.85335" lon="-4.08440"><ele>630.8</ele><time>2026-04-26T09:15:04Z</time><extensions><ns3:TrackPointExtension><ns3:hr>148</ns3:hr><ns3:cad>86</ns3:cad></ns3:TrackPointExtension></extensions></trkpt>
<trkpt lat="56.85347" lon="-4.08480"><ele>628.3</ele><time>2026-04-26T09:15:14Z</time><extensions><ns3:TrackPointExtension><ns3:hr>149</ns3:hr><ns3:cad>86</ns3:cad></ns3:TrackPointExtension></extensions></trkpt>
<trkpt lat="56.85356" lon="-4.08521"><ele>625.9</ele><time>2026-04-26T09:15:24Z</time><extensions><ns3:TrackPointExtension><ns3:hr>150</ns3:hr><ns3:cad>85</ns3:cad></ns3:TrackPointExtension></extensions></trkpt>
<trkpt lat="56.85364" lon="-4.08564"><ele>623.4</ele><time>2026-04-26T09:15:34Z</time><extensions><ns3:TrackPointExtension><ns3:hr>148</ns3:hr><ns3:cad>86</ns3:cad></ns3:TrackPointExtension></extensions></trkpt>
<trkpt lat="56.85369" lon="-4.08608"><ele>621.0</ele><time>2026-04-26T09:15:44Z</time><extensions><ns3:TrackPointExtension><ns3:hr>148</ns3:hr><ns3:cad>89</ns3:cad></ns3:TrackPointExtension></extensions></trkpt>
<trkpt lat="56.85373" lon="-4.08652"><ele>618.5</ele><time>2026-04-26T09:15:54Z</time><extensions><ns3:TrackPointExtension><ns3:hr>151</ns3:hr><ns3:cad>89</ns3:cad></ns3:TrackPointExtension></extensions></trkpt>
<trkpt lat="56.85379" lon="-4.08696"><ele>616.0</ele><time>2026-04-26T09:16:04Z</time><extensions><ns3:TrackPointExtension><ns3:hr>149</ns3:hr><ns3:cad>88</ns3:cad></ns3:TrackPointExtension></extensions></trkpt>
<trkpt lat="56.85385" lon="-4.08739"><ele>613.6</ele><time>2026-04-26T09:16:14Z</time><extensions><ns3:TrackPointExtension><ns3:hr>150</ns3:hr><ns3:cad>86</ns3:cad></ns3:TrackPointExtension></extensions></trkpt>
<trkpt lat="56.85395" lon="-4.08781"><ele>611.1</ele><time>2026-04-26T09:16:24Z</time><extensions><ns3:TrackPointExtension><ns3:hr>151</ns3:hr><ns3:cad>87</ns3:cad></ns3:TrackPointExtension></extensions></trkpt>
<trkpt lat="56.85402" lon="-4.08823"><ele>608.7</ele><time>2026-04-26T09:16:34Z</time><extensions><ns3:TrackPointExtension><ns3:hr>148</ns3:hr><ns3:cad>85</ns3:cad></ns3:TrackPointExtension></extensions></trkpt>
<trkpt lat="56.85407" lon="-4.08867"><ele>606.2</ele><time>2026-04-26T09:16:44Z</time><extensions><ns3:TrackPointExtension><ns3:hr>150</ns3:hr><ns3:cad>86</ns3:cad></ns3:TrackPointExtension></extensions></trkpt>
<trkpt lat="56.85410" lon="-4.08912"><ele>603.8</ele><time>2026-04-26T09:16:54Z</time><extensions><ns3:TrackPointExtension><ns3:hr>152</ns3:hr><ns3:cad>85</ns3:cad></ns3:TrackPointExtension></extensions></trkpt>
<trkpt lat="56.85415" lon="-4.08956"><ele>601.3</ele><time>2026-04-26T09:17:04Z</time><extensions><ns3:TrackPointExtension><ns3:hr>149</ns3:hr><ns3:cad>86</ns3:cad></ns3:TrackPointExtension></extensions></trkpt>
<trkpt lat="56.85418" lon="-4.09000"><ele>598.8</ele><time>2026-04-26T09:17:14Z</time><extensions><ns3:TrackPointExtension><ns3:hr>151</ns3:hr><ns3:cad>87</ns3:cad></ns3:TrackPointExtension></extensions></trkpt>
<trkpt lat="56.85418" lon="-4.09045"><ele>596.4</ele><time>2026-04-26T09:17:24Z</time><extensions><ns3:TrackPointExtension><ns3:hr>149</ns3:hr><ns3:cad>86</ns3:cad></ns3:TrackPointExtension></extensions></trkpt>
<trkpt lat="56.85420" lon="-4.09090"><ele>593.9</ele><time>2026-04-26T09:17:34Z</time><extensions><ns3:TrackPointExtension><ns3:hr>151</ns3:hr><ns3:cad>85</ns3:cad></ns3:TrackPointExtension></extensions></trkpt>
<trkpt lat="56.85421" lon="-4.09135"><ele>591.5</ele><time>2026-04-26T09:17:44Z</time><extensions><ns3:TrackPointExtension><ns3:hr>150</ns3:hr><ns3:cad>85</ns3:cad></ns3:TrackPointExtension></extensions></trkpt>
<trkpt lat="56.85421" lon="-4.09180"><ele>589.0</ele><time>2026-04-26T09:17:54Z</time><extensions><ns3:TrackPointExtension><ns3:hr>150</ns3:hr><ns3:cad>85</ns3:cad></ns3:TrackPointExtension></extensions></trkpt>
<trkpt lat="56.85421" lon="-4.09225"><ele>586.5</ele><time>2026-04-26T09:18:04Z</time><extensions><ns3:TrackPointExtension><ns3:hr>150</ns3:hr><ns3:cad>84</ns3:cad></ns3:TrackPointExtension></extensions></trkpt>
<trkpt lat="56.85421" lon="-4.09269"><ele>584.1</ele><time>2026-04-26T09:18:14Z</time><extensions><ns3:TrackPointExtension><ns3:hr>149</ns3:hr><ns3:cad>86</ns3:cad></ns3:TrackPointExtension></extensions></trkpt>
<trkpt lat="56.85424" lon="-4.09314"><ele>581.6</ele><time>2026-04-26T09:18:24Z</time><extensions><ns3:TrackPointExtension><ns3:hr>148</ns3:hr><ns3:cad>85</ns3:cad></ns3:TrackPointExtension></extensions></trkpt>
<trkpt lat="56.85429" lon="-4.09358"><ele>579.2</ele><time>2026-04-26T09:18:34Z</time><extensions><ns3:TrackPointExtension><ns3:hr>150</ns3:hr><ns3:cad>89</ns3:cad></ns3:TrackPointExtension></extensions></trkpt>
<trkpt lat="56.85432" lon="-4.09402"><ele>576.7</ele><time>2026-04-26T09:18:44Z</time><extensions><ns3:TrackPointExtension><ns3:hr>152</ns3:hr><ns3:cad>85</ns3:cad></ns3:TrackPointExtension></extensions></trkpt>
<trkpt lat="56.85437" lon="-4.09446"><ele>574.3</ele><time>2026-04-26T09:18:54Z</time><extensions><ns3:TrackPointExtension><ns3:hr>149</ns3:hr><ns3:cad>89</ns3:cad></ns3:TrackPointExtension></extensions></trkpt>
<trkpt lat="56.85444" lon="-4.09489"><ele>571.8</ele><time>2026-04-26T09:19:04Z</time><extensions><ns3:TrackPointExtension><ns3:hr>150</ns3:hr><ns3:cad>84</ns3:cad></ns3:TrackPointExtension></extensions></trkpt>
<trkpt lat="56.85450" lon="-4.09533"><ele>569.3</ele><time>2026-04-26T09:19:14Z</time><extensions><ns3:TrackPointExtension><ns3:hr>151</ns3:hr><ns3:cad>88</ns3:cad></ns3:TrackPointExtension></extensions></trkpt>
<trkpt lat="56.85456" lon="-4.09576"><ele>566.9</ele><time>2026-04-26T09:19:24Z</time><extensions><ns3:TrackPointExtension><ns3:hr>148</ns3:hr><ns3:cad>85</ns3:cad></ns3:TrackPointExtension></extensions></trkpt>
<trkpt lat="56.85461" lon="-4.09620"><ele>564.4</ele><time>2026-04-26T09:19:34Z</time><extensions><ns3:TrackPointExtension><ns3:hr>152</ns3:hr><ns3:cad>87</ns3:cad></ns3:TrackPointExtension></extensions></trkpt>
<trkpt lat="56.85465" lon="-4.09664"><ele>562.0</ele><time>2026-04-26T09:19:44Z</time><extensions><ns3:TrackPointExtension><ns3:hr>147</ns3:hr><ns3:cad>84</ns3:cad></ns3:TrackPointExtension></extensions></trkpt>
<trkpt lat="56.85467" lon="-4.09709"><ele>559.5</ele><time>2026-04-26T09:19:54Z</time><extensions><ns3:TrackPointExtension><ns3:hr>149</ns3:hr><ns3:cad>84</ns3:cad></ns3:TrackPointExtension></extensions></trkpt>
<trkpt lat="56.85468" lon="-4.09754"><ele>557.1</ele><time>2026-04-26T09:20:04Z</time><extensions><ns3:TrackPointExtension><ns3:hr>152</ns3:hr><ns3:cad>88</ns3:cad></ns3:TrackPointExtension></extensions></trkpt>
<trkpt lat="56.85467" lon="-4.09799"><ele>554.6</ele><time>2026-04-26T09:20:14Z</time><extensions><ns3:TrackPointExtension><ns3:hr>150</ns3:hr><ns3:cad>85</ns3:cad></ns3:TrackPointExtension></extensions></trkpt>
<trkpt lat="56.85466" lon="-4.09844"><ele>552.1</ele><time>2026-04-26T09:20:24Z</time><extensions><ns3:TrackPointExtension><ns3:hr>150</ns3:hr><ns3:cad>88</ns3:cad></ns3:TrackPointExtension></extensions></trkpt>
<trkpt lat="56.85466" lon="-4.09889"><ele>549.7</ele><time>2026-04-26T09:20:34Z</time><extensions><ns3:TrackPointExtension><ns3:hr>147</ns3:hr><ns3:cad>89</ns3:cad></ns3:TrackPointExtension></extensions></trkpt>
<trkpt lat="56.85467" lon="-4.09933"><ele>547.2</ele><time>2026-04-26T09:20:44Z</time><extensions><ns3:TrackPointExtension><ns3:hr>148</ns3:hr><ns3:cad>84</ns3:cad></ns3:TrackPointExtension></extensions></trkpt>
<trkpt lat="56.85465" lon="-4.09978"><ele>544.8</ele><time>2026-04-26T09:20:54Z</time><extensions><ns3:TrackPointExtension><ns3:hr>152</ns3:hr><ns3:cad>88</ns3:cad></ns3:TrackPointExtension></extensions></trkpt>
<trkpt lat="56.85461" lon="-4.10022"><ele>542.3</ele><time>2026-04-26T09:21:04Z</time><extensions><ns3:TrackPointExtension><ns3:hr>152</ns3:hr><ns3:cad>87</ns3:cad></ns3:TrackPointExtension></extensions></trkpt>
<trkpt lat="56.85456" lon="-4.10063"><ele>540.0</ele><time>2026-04-26T09:21:13Z</time><extensions><ns3:TrackPointExtension><ns3:hr>152</ns3:hr><ns3:cad>86</ns3:cad></ns3:TrackPointExtension></extensions></trkpt>
<trkpt lat="56.85454" lon="-4.10097"><ele>541.2</ele><time>2026-04-26T09:21:23Z</time><extensions><ns3:TrackPointExtension><ns3:hr>149</ns3:hr><ns3:cad>88</ns3:cad></ns3:TrackPointExtension></extensions></trkpt>
<trkpt lat="56.85454" lon="-4.10130"><ele>542.4</ele><time>2026-04-26T09:21:33Z</time><extensions><ns3:TrackPointExtension><ns3:hr>150</ns3:hr><ns3:cad>85</ns3:cad></ns3:TrackPointExtension></extensions></trkpt>
<trkpt lat="56.85453" lon="-4.10163"><ele>543.7</ele><time>2026-04-26T09:21:43Z</time><extensions><ns3:TrackPointExtension><ns3:hr>151</ns3:hr><ns3:cad>88</ns3:cad></ns3:TrackPointExtension></extensions></trkpt>
<trkpt lat="56.85452" lon="-4.10197"><ele>544.9</ele><time>2026-04-26T09:21:53Z</time><extensions><ns3:TrackPointExtension><ns3:hr>149</ns3:hr><ns3:cad>86</ns3:cad></ns3:TrackPointExtension></extensions></trkpt>
<trkpt lat="56.85452" lon="-4.10230"><ele>546.1</ele><time>2026-04-26T09:22:03Z</time><extensions><ns3:TrackPointExtension><ns3:hr>151</ns3:hr><ns3:cad>87</ns3:cad></ns3:TrackPointExtension></extensions></trkpt>
<trkpt lat="56.85449" lon="-4.10263"><ele>547.3</ele><time>2026-04-26T09:22:13Z</time><extensions><ns3:TrackPointExtension><ns3:hr>148</ns3:hr><ns3:cad>88</ns3:cad></ns3:TrackPointExtension></extensions></trkpt>
<trkpt lat="56.85446" lon="-4.10296"><ele>548.5</ele><time>2026-04-26T09:22:23Z</time><extensions><ns3:TrackPointExtension><ns3:hr>148</ns3:hr><ns3:cad>86</ns3:cad></ns3:TrackPointExtension></extensions></trkpt>
<trkpt lat="56.85444" lon="-4.10330"><ele>549.8</ele><time>2026-04-26T09:22:33Z</time><extensions><ns3:TrackPointExtension><ns3:hr>151</ns3:hr><ns3:cad>88</ns3:cad></ns3:TrackPointExtension></extensions></trkpt>
<trkpt lat="56.85441" lon="-4.10363"><ele>551.0</ele><time>2026-04-26T09:22:43Z</time><extensions><ns3:TrackPointExtension><ns3:hr>150</ns3:hr><ns3:cad>88</ns3:cad></ns3:TrackPointExtension></extensions></trkpt>
<trkpt lat="56.85438" lon="-4.10395"><ele>552.2</ele><time>2026-04-26T09:22:53Z</time><extensions><ns3:TrackPointExtension><ns3:hr>147</ns3:hr><ns3:cad>86</ns3:cad></ns3:TrackPointExtension></extensions></trkpt>
<trkpt lat="56.85434" lon="-4.10428"><ele>553.4</ele><time>2026-04-26T09:23:03Z</time><extensions><ns3:TrackPointExtension><ns3:hr>148</ns3:hr><ns3:cad>86</ns3:cad></ns3:TrackPointExtension></extensions></trkpt>
<trkpt lat="56.85429" lon="-4.10460"><ele>554.7</ele><time>2026-04-26T09:23:13Z</time><extensions><ns3:TrackPointExtension><ns3:hr>151</ns3:hr><ns3:cad>88</ns3:cad></ns3:TrackPointExtension></extensions></trkpt>
<trkpt lat="56.85422" lon="-4.10491"><ele>555.9</ele><time>2026-04-26T09:23:23Z</time><extensions><ns3:TrackPointExtension><ns3:hr>151</ns3:hr><ns3:cad>87</ns3:cad></ns3:TrackPointExtension></extensions></trkpt>
<trkpt lat="56.85414" lon="-4.10521"><ele>557.1</ele><time>2026-04-26T09:23:33Z</time><extensions><ns3:TrackPointExtension><ns3:hr>150</ns3:hr><ns3:cad>84</ns3:cad></ns3:TrackPointExtension></extensions></trkpt>
<trkpt lat="56.85403" lon="-4.10548"><ele>558.3</ele><time>2026-04-26T09:23:43Z</time><extensions><ns3:TrackPointExtension><ns3:hr>150</ns3:hr><ns3:cad>84</ns3:cad></ns3:TrackPointExtension></extensions></trkpt>
<trkpt lat="56.85392" lon="-4.10575"><ele>559.5</ele><time>2026-04-26T09:23:53Z</time><extensions><ns3:TrackPointExtension><ns3:hr>149</ns3:hr><ns3:cad>85</ns3:cad></ns3:TrackPointExtension></extensions></trkpt>
<trkpt lat="56.85383" lon="-4.10604"><ele>560.8</ele><time>2026-04-26T09:24:03Z</time><extensions><ns3:TrackPointExtension><ns3:hr>151</ns3:hr><ns3:cad>85</ns3:cad></ns3:TrackPointExtension></extensions></trkpt>
<trkpt lat="56.85375" lon="-4.10634"><ele>562.0</ele><time>2026-04-26T09:24:13Z</time><extensions><ns3:TrackPointExtension><ns3:hr>152</ns3:hr><ns3:cad>85</ns3:cad></ns3:TrackPointExtension></extensions></trkpt>
<trkpt lat="56.85368" lon="-4.10665"><ele>563.2</ele><time>2026-04-26T09:24:23Z</time><extensions><ns3:TrackPointExtension><ns3:hr>152</ns3:hr><ns3:cad>84</ns3:cad></ns3:TrackPointExtension></extensions></trkpt>
<trkpt lat="56.85360" lon="-4.10695"><ele>564.4</ele><time>2026-04-26T09:24:33Z</time><extensions><ns3:TrackPointExtension><ns3:hr>151</ns3:hr><ns3:cad>84</ns3:cad></ns3:TrackPointExtension></extensions></trkpt>
<trkpt lat="56.85355" lon="-4.10727"><ele>565.6</ele><time>2026-04-26T09:24:43Z</time><extensions><ns3:TrackPointExtension><ns3:hr>148</ns3:hr><ns3:cad>84</ns3:cad></ns3:TrackPointExtension></extensions></trkpt>
<trkpt lat="56.85350" lon="-4.10759"><ele>566.9</ele><time>2026-04-26T09:24:53Z</time><extensions><ns3:TrackPointExtension><ns3:hr>149</ns3:hr><ns3:cad>86</ns3:cad></ns3:TrackPointExtension></extensions></trkpt>
<trkpt lat="56.85344" lon="-4.10791"><ele>568.1</ele><time>2026-04-26T09:25:03Z</time><extensions><ns3:TrackPointExtension><ns3:hr>150</ns3:hr><ns3:cad>87</ns3:cad></ns3:TrackPointExtension></extensions></trkpt>
<trkpt lat="56.85337" lon="-4.10822"><ele>569.3</ele><time>2026-04-26T09:25:13Z</time><extensions><ns3:TrackPointExtension><ns3:hr>148</ns3:hr><ns3:cad>85</ns3:cad></ns3:TrackPointExtension></extensions></trkpt>
<trkpt lat="56.85330" lon="-4.10853"><ele>570.5</ele><time>2026-04-26T09:25:23Z</time><extensions><ns3:TrackPointExtension><ns3:hr>152</ns3:hr><ns3:cad>84</ns3:cad></ns3:TrackPointExtension></extensions></trkpt>
<trkpt lat="56.85323" lon="-4.10884"><ele>571.7</ele><time>2026-04-26T09:25:33Z</time><extensions><ns3:TrackPointExtension><ns3:hr>149</ns3:hr><ns3:cad>88</ns3:cad></ns3:TrackPointExtension></extensions></trkpt>
<trkpt lat="56.85315" lon="-4.10914"><ele>573.0</ele><time>2026-04-26T09:25:43Z</time><extensions><ns3:TrackPointExtension><ns3:hr>150</ns3:hr><ns3:cad>85</ns3:cad></ns3:TrackPointExtension></extensions></trkpt>
<trkpt lat="56.85309" lon="-4.10945"><ele>574.2</ele><time>2026-04-26T09:25:53Z</time><extensions><ns3:TrackPointExtension><ns3:hr>152</ns3:hr><ns3:cad>89</ns3:cad></ns3:TrackPointExtension></extensions></trkpt>
<trkpt lat="56.85304" lon="-4.10977"><ele>575.4</ele><time>2026-04-26T09:26:03Z</time><extensions><ns3:TrackPointExtension><ns3:hr>149</ns3:hr><ns3:cad>86</ns3:cad></ns3:TrackPointExtension></extensions></trkpt>
<trkpt lat="56.85298" lon="-4.11009"><ele>576.6</ele><time>2026-04-26T09:26:13Z</time><extensions><ns3:TrackPointExtension><ns3:hr>151</ns3:hr><ns3:cad>87</ns3:cad></ns3:TrackPointExtension></extensions></trkpt>
<trkpt lat="56.85291" lon="-4.11040"><ele>577.9</ele><time>2026-04-26T09:26:23Z</time><extensions><ns3:TrackPointExtension><ns3:hr>152</ns3:hr><ns3:cad>86</ns3:cad></ns3:TrackPointExtension></extensions></trkpt>
<trkpt lat="56.85281" lon="-4.11069"><ele>579.1</ele><time>2026-04-26T09:26:33Z</time><extensions><ns3:TrackPointExtension><ns3:hr>151</ns3:hr><ns3:cad>84</ns3:cad></ns3:TrackPointExtension></extensions></trkpt>
<trkpt lat="56.85274" lon="-4.11099"><ele>580.3</ele><time>2026-04-26T09:26:43Z</time><extensions><ns3:TrackPointExtension><ns3:hr>149</ns3:hr><ns3:cad>88</ns3:cad></ns3:TrackPointExtension></extensions></trkpt>
<trkpt lat="56.85268" lon="-4.11130"><ele>581.5</ele><time>2026-04-26T09:26:53Z</time><extensions><ns3:TrackPointExtension><ns3:hr>148</ns3:hr><ns3:cad>88</ns3:cad></ns3:TrackPointExtension></extensions></trkpt>
<trkpt lat="56.85261" lon="-4.11161"><ele>582.7</ele><time>2026-04-26T09:27:03Z</time><extensions><ns3:TrackPointExtension><ns3:hr>150</ns3:hr><ns3:cad>89</ns3:cad></ns3:TrackPointExtension></extensions></trkpt>
<trkpt lat="56.85253" lon="-4.11192"><ele>584.0</ele><time>2026-04-26T09:27:13Z</time><extensions><ns3:TrackPointExtension><ns3:hr>150</ns3:hr><ns3:cad>85</ns3:cad></ns3:TrackPointExtension></extensions></trkpt>
<trkpt lat="56.85246" lon="-4.11222"><ele>585.2</ele><time>2026-04-26T09:27:23Z</time><extensions><ns3:TrackPointExtension><ns3:hr>150</ns3:hr><ns3:cad>86</ns3:cad></ns3:TrackPointExtension></extensions></trkpt>
<trkpt lat="56.85238" lon="-4.11253"><ele>586.4</ele><time>2026-04-26T09:27:33Z</time><extensions><ns3:TrackPointExtension><ns3:hr>150</ns3:hr><ns3:cad>89</ns3:cad></ns3:TrackPointExtension></extensions></trkpt>
<trkpt lat="56.85229" lon="-4.11282"><ele>587.6</ele><time>2026-04-26T09:27:43Z</time><extensions><ns3:TrackPointExtension><ns3:hr>150</ns3:hr><ns3:cad>88</ns3:cad></ns3:TrackPointExtension></extensions></trkpt>
<trkpt lat="56.85222" lon="-4.11313"><ele>588.8</ele><time>2026-04-26T09:27:53Z</time><extensions><ns3:TrackPointExtension><ns3:hr>152</ns3:hr><ns3:cad>84</ns3:cad></ns3:TrackPointExtension></extensions></trkpt>
<trkpt lat="56.85216" lon="-4.11344"><ele>590.1</ele><time>2026-04-26T09:28:03Z</time><extensions><ns3:TrackPointExtension><ns3:hr>149</ns3:hr><ns3:cad>85</ns3:cad></ns3:TrackPointExtension></extensions></trkpt>
<trkpt lat="56.85207" lon="-4.11373"><ele>591.3</ele><time>2026-04-26T09:28:13Z</time><extensions><ns3:TrackPointExtension><ns3:hr>149</ns3:hr><ns3:cad>87</ns3:cad></ns3:TrackPointExtension></extensions></trkpt>
<trkpt lat="56.85199" lon="-4.11404"><ele>592.5</ele><time>2026-04-26T09:28:23Z</time><extensions><ns3:TrackPointExtension><ns3:hr>148</ns3:hr><ns3:cad>85</ns3:cad></ns3:TrackPointExtension></extensions></trkpt>
<trkpt lat="56.85193" lon="-4.11435"><ele>593.7</ele><time>2026-04-26T09:28:33Z</time><extensions><ns3:TrackPointExtension><ns3:hr>150</ns3:hr><ns3:cad>84</ns3:cad></ns3:TrackPointExtension></extensions></trkpt>
<trkpt lat="56.85192" lon="-4.11443"><ele>594.0</ele><time>2026-04-26T09:28:35Z</time><extensions><ns3:TrackPointExtension><ns3:hr>148</ns3:hr><ns3:cad>87</ns3:cad></ns3:TrackPointExtension></extensions></trkpt>
<trkpt lat="56.85182" lon="-4.11488"><ele>591.9</ele><time>2026-04-26T09:28:45Z</time><extensions><ns3:TrackPointExtension><ns3:hr>149</ns3:hr><ns3:cad>87</ns3:cad></ns3:TrackPointExtension></extensions></trkpt>
<trkpt lat="56.85171" lon="-4.11534"><ele>589.8</ele><time>2026-04-26T09:28:55Z</time><extensions><ns3:TrackPointExtension><ns3:hr>148</ns3:hr><ns3:cad>89</ns3:cad></ns3:TrackPointExtension></extensions></trkpt>
<trkpt lat="56.85162" lon="-4.11580"><ele>587.7</ele><time>2026-04-26T09:29:05Z</time><extensions><ns3:TrackPointExtension><ns3:hr>150</ns3:hr><ns3:cad>86</ns3:cad></ns3:TrackPointExtension></extensions></trkpt>
<trkpt lat="56.85151" lon="-4.11625"><ele>585.6</ele><time>2026-04-26T09:29:15Z</time><extensions><ns3:TrackPointExtension><ns3:hr>148</ns3:hr><ns3:cad>88</ns3:cad></ns3:TrackPointExtension></extensions></trkpt>
<trkpt lat="56.85141" lon="-4.11671"><ele>583.5</ele><time>2026-04-26T09:29:25Z</time><extensions><ns3:TrackPointExtension><ns3:hr>149</ns3:hr><ns3:cad>88</ns3:cad></ns3:TrackPointExtension></extensions></trkpt>
<trkpt lat="56.85130" lon="-4.11717"><ele>581.4</ele><time>2026-04-26T09:29:35Z</time><extensions><ns3:TrackPointExtension><ns3:hr>149</ns3:hr><ns3:cad>87</ns3:cad></ns3:TrackPointExtension></extensions></trkpt>
<trkpt lat="56.85121" lon="-4.11763"><ele>579.2</ele><time>2026-04-26T09:29:45Z</time><extensions><ns3:TrackPointExtension><ns3:hr>152</ns3:hr><ns3:cad>86</ns3:cad></ns3:TrackPointExtension></extensions></trkpt>
<trkpt lat="56.85112" lon="-4.11810"><ele>577.1</ele><time>2026-04-26T09:29:55Z</time><extensions><ns3:TrackPointExtension><ns3:hr>148</ns3:hr><ns3:cad>86</ns3:cad></ns3:TrackPointExtension></extensions></trkpt>
<trkpt lat="56.85106" lon="-4.11858"><ele>575.0</ele><time>2026-04-26T09:30:05Z</time><extensions><ns3:TrackPointExtension><ns3:hr>150</ns3:hr><ns3:cad>87</ns3:cad></ns3:TrackPointExtension></extensions></trkpt>
<trkpt lat="56.85101" lon="-4.11907"><ele>572.9</ele><time>2026-04-26T09:30:15Z</time><extensions><ns3:TrackPointExtension><ns3:hr>148</ns3:hr><ns3:cad>87</ns3:cad></ns3:TrackPointExtension></extensions></trkpt>
<trkpt lat="56.85097" lon="-4.11956"><ele>570.8</ele><time>2026-04-26T09:30:25Z</time><extensions><ns3:TrackPointExtension><ns3:hr>152</ns3:hr><ns3:cad>89</ns3:cad></ns3:TrackPointExtension></extensions></trkpt>
<trkpt lat="56.85094" lon="-4.12005"><ele>568.7</ele><time>2026-04-26T09:30:35Z</time><extensions><ns3:TrackPointExtension><ns3:hr>151</ns3:hr><ns3:cad>85</ns3:cad></ns3:TrackPointExtension></extensions></trkpt>
<trkpt lat="56.85089" lon="-4.12054"><ele>566.6</ele><time>2026-04-26T09:30:45Z</time><extensions><ns3:TrackPointExtension><ns3:hr>149</ns3:hr><ns3:cad>89</ns3:cad></ns3:TrackPointExtension></extensions></trkpt>
<trkpt lat="56.85082" lon="-4.12101"><ele>564.5</ele><time>2026-04-26T09:30:55Z</time><extensions><ns3:TrackPointExtension><ns3:hr>152</ns3:hr><ns3:cad>88</ns3:cad></ns3:TrackPointExtension></extensions></trkpt>
<trkpt lat="56.85074" lon="-4.12148"><ele>562.4</ele><time>2026-04-26T09:31:05Z</time><extensions><ns3:TrackPointExtension><ns3:hr>148</ns3:hr><ns3:cad>89</ns3:cad></ns3:TrackPointExtension></extensions></trkpt>
<trkpt lat="56.85067" lon="-4.12196"><ele>560.3</ele><time>2026-04-26T09:31:15Z</time><extensions><ns3:TrackPointExtension><ns3:hr>153</ns3:hr><ns3:cad>89</ns3:cad></ns3:TrackPointExtension></extensions></trkpt>
<trkpt lat="56.85063" lon="-4.12245"><ele>558.2</ele><time>2026-04-26T09:31:25Z</time><extensions><ns3:TrackPointExtension><ns3:hr>152</ns3:hr><ns3:cad>85</ns3:cad></ns3:TrackPointExtension></extensions></trkpt>
<trkpt lat="56.85060" lon="-4.12294"><ele>556.1</ele><time>2026-04-26T09:31:35Z</time><extensions><ns3:TrackPointExtension><ns3:hr>152</ns3:hr><ns3:cad>85</ns3:cad></ns3:TrackPointExtension></extensions></trkpt>
<trkpt lat="56.85056" lon="-4.12343"><ele>554.0</ele><time>2026-04-26T09:31:45Z</time><extensions><ns3:TrackPointExtension><ns3:hr>148</ns3:hr><ns3:cad>86</ns3:cad></ns3:TrackPointExtension></extensions></trkpt>
<trkpt lat="56.85052" lon="-4.12392"><ele>551.9</ele><time>2026-04-26T09:31:55Z</time><extensions><ns3:TrackPointExtension><ns3:hr>151</ns3:hr><ns3:cad>86</ns3:cad></ns3:TrackPointExtension></extensions></trkpt>
<trkpt lat="56.85049" lon="-4.12441"><ele>549.7</ele><time>2026-04-26T09:32:05Z</time><extensions><ns3:TrackPointExtension><ns3:hr>152</ns3:hr><ns3:cad>89</ns3:cad></ns3:TrackPointExtension></extensions></trkpt>
<trkpt lat="56.85047" lon="-4.12490"><ele>547.6</ele><time>2026-04-26T09:32:15Z</time><extensions><ns3:TrackPointExtension><ns3:hr>152</ns3:hr><ns3:cad>84</ns3:cad></ns3:TrackPointExtension></extensions></trkpt>
<trkpt lat="56.85042" lon="-4.12539"><ele>545.5</ele><time>2026-04-26T09:32:25Z</time><extensions><ns3:TrackPointExtension><ns3:hr>151</ns3:hr><ns3:cad>89</ns3:cad></ns3:TrackPointExtension></extensions></trkpt>
<trkpt lat="56.85040" lon="-4.12589"><ele>543.4</ele><time>2026-04-26T09:32:35Z</time><extensions><ns3:TrackPointExtension><ns3:hr>151</ns3:hr><ns3:cad>87</ns3:cad></ns3:TrackPointExtension></extensions></trkpt>
<trkpt lat="56.85035" lon="-4.12637"><ele>541.3</ele><time>2026-04-26T09:32:45Z</time><extensions><ns3:TrackPointExtension><ns3:hr>151</ns3:hr><ns3:cad>88</ns3:cad></ns3:TrackPointExtension></extensions></trkpt>
<trkpt lat="56.85033" lon="-4.12686"><ele>539.2</ele><time>2026-04-26T09:32:55Z</time><extensions><ns3:TrackPointExtension><ns3:hr>152</ns3:hr><ns3:cad>87</ns3:cad></ns3:TrackPointExtension></extensions></trkpt>
<trkpt lat="56.85028" lon="-4.12735"><ele>537.1</ele><time>2026-04-26T09:33:05Z</time><extensions><ns3:TrackPointExtension><ns3:hr>152</ns3:hr><ns3:cad>89</ns3:cad></ns3:TrackPointExtension></extensions></trkpt>
<trkpt lat="56.85025" lon="-4.12784"><ele>535.0</ele><time>2026-04-26T09:33:15Z</time><extensions><ns3:TrackPointExtension><ns3:hr>152</ns3:hr><ns3:cad>88</ns3:cad></ns3:TrackPointExtension></extensions></trkpt>
<trkpt lat="56.85023" lon="-4.12833"><ele>532.9</ele><time>2026-04-26T09:33:25Z</time><extensions><ns3:TrackPointExtension><ns3:hr>149</ns3:hr><ns3:cad>85</ns3:cad></ns3:TrackPointExtension></extensions></trkpt>
<trkpt lat="56.85019" lon="-4.12882"><ele>530.8</ele><time>2026-04-26T09:33:35Z</time><extensions><ns3:TrackPointExtension><ns3:hr>152</ns3:hr><ns3:cad>86</ns3:cad></ns3:TrackPointExtension></extensions></trkpt>
<trkpt lat="56.85013" lon="-4.12931"><ele>528.7</ele><time>2026-04-26T09:33:45Z</time><extensions><ns3:TrackPointExtension><ns3:hr>153</ns3:hr><ns3:cad>85</ns3:cad></ns3:TrackPointExtension></extensions></trkpt>
<trkpt lat="56.85009" lon="-4.12980"><ele>526.6</ele><time>2026-04-26T09:33:55Z</time><extensions><ns3:TrackPointExtension><ns3:hr>151</ns3:hr><ns3:cad>84</ns3:cad></ns3:TrackPointExtension></extensions></trkpt>
<trkpt lat="56.85006" lon="-4.13029"><ele>524.5</ele><time>2026-04-26T09:34:05Z</time><extensions><ns3:TrackPointExtension><ns3:hr>151</ns3:hr><ns3:cad>84</ns3:cad></ns3:TrackPointExtension></extensions></trkpt>
<trkpt lat="56.85005" lon="-4.13078"><ele>522.3</ele><time>2026-04-26T09:34:15Z</time><extensions><ns3:TrackPointExtension><ns3:hr>148</ns3:hr><ns3:cad>86</ns3:cad></ns3:TrackPointExtension></extensions></trkpt>
<trkpt lat="56.85002" lon="-4.13127"><ele>520.2</ele><time>2026-04-26T09:34:25Z</time><extensions><ns3:TrackPointExtension><ns3:hr>152</ns3:hr><ns3:cad>89</ns3:cad></ns3:TrackPointExtension></extensions></trkpt>
<trkpt lat="56.84998" lon="-4.13176"><ele>518.1</ele><time>2026-04-26T09:34:35Z</time><extensions><ns3:TrackPointExtension><ns3:hr>148</ns3:hr><ns3:cad>85</ns3:cad></ns3:TrackPointExtension></extensions></trkpt>
<trkpt lat="56.84993" lon="-4.13225"><ele>516.0</ele><time>2026-04-26T09:34:45Z</time><extensions><ns3:TrackPointExtension><ns3:hr>153</ns3:hr><ns3:cad>85</ns3:cad></ns3:TrackPointExtension></extensions></trkpt>
<trkpt lat="56.84986" lon="-4.13272"><ele>513.9</ele><time>2026-04-26T09:34:55Z</time><extensions><ns3:TrackPointExtension><ns3:hr>150</ns3:hr><ns3:cad>87</ns3:cad></ns3:TrackPointExtension></extensions></trkpt>
<trkpt lat="56.84977" lon="-4.13319"><ele>511.8</ele><time>2026-04-26T09:35:05Z</time><extensions><ns3:TrackPointExtension><ns3:hr>150</ns3:hr><ns3:cad>85</ns3:cad></ns3:TrackPointExtension></extensions></trkpt>
<trkpt lat="56.84969" lon="-4.13367"><ele>509.7</ele><time>2026-04-26T09:35:15Z</time><extensions><ns3:TrackPointExtension><ns3:hr>151</ns3:hr><ns3:cad>87</ns3:cad></ns3:TrackPointExtension></extensions></trkpt>
<trkpt lat="56.84962" lon="-4.13414"><ele>507.6</ele><time>2026-04-26T09:35:25Z</time><extensions><ns3:TrackPointExtension><ns3:hr>152</ns3:hr><ns3:cad>86</ns3:cad></ns3:TrackPointExtension></extensions></trkpt>
<trkpt lat="56.84953" lon="-4.13461"><ele>505.5</ele><time>2026-04-26T09:35:35Z</time><extensions><ns3:TrackPointExtension><ns3:hr>150</ns3:hr><ns3:cad>87</ns3:cad></ns3:TrackPointExtension></extensions></trkpt>
<trkpt lat="56.84944" lon="-4.13508"><ele>503.4</ele><time>2026-04-26T09:35:45Z</time><extensions><ns3:TrackPointExtension><ns3:hr>148</ns3:hr><ns3:cad>87</ns3:cad></ns3:TrackPointExtension></extensions></trkpt>
<trkpt lat="56.84934" lon="-4.13553"><ele>501.3</ele><time>2026-04-26T09:35:55Z</time><extensions><ns3:TrackPointExtension><ns3:hr>149</ns3:hr><ns3:cad>86</ns3:cad></ns3:TrackPointExtension></extensions></trkpt>
<trkpt lat="56.84923" lon="-4.13598"><ele>499.2</ele><time>2026-04-26T09:36:05Z</time><extensions><ns3:TrackPointExtension><ns3:hr>149</ns3:hr><ns3:cad>84</ns3:cad></ns3:TrackPointExtension></extensions></trkpt>
<trkpt lat="56.84909" lon="-4.13641"><ele>497.1</ele><time>2026-04-26T09:36:15Z</time><extensions><ns3:TrackPointExtension><ns3:hr>151</ns3:hr><ns3:cad>87</ns3:cad></ns3:TrackPointExtension></extensions></trkpt>
<trkpt lat="56.84897" lon="-4.13685"><ele>495.0</ele><time>2026-04-26T09:36:25Z</time><extensions><ns3:TrackPointExtension><ns3:hr>151</ns3:hr><ns3:cad>85</ns3:cad></ns3:TrackPointExtension></extensions></trkpt>
<trkpt lat="56.84885" lon="-4.13730"><ele>492.8</ele><time>2026-04-26T09:36:35Z</time><extensions><ns3:TrackPointExtension><ns3:hr>149</ns3:hr><ns3:cad>85</ns3:cad></ns3:TrackPointExtension></extensions></trkpt>
<trkpt lat="56.84873" lon="-4.13774"><ele>490.7</ele><time>2026-04-26T09:36:45Z</time><extensions><ns3:TrackPointExtension><ns3:hr>152</ns3:hr><ns3:cad>86</ns3:cad></ns3:TrackPointExtension></extensions></trkpt>
<trkpt lat="56.84861" lon="-4.13809"><ele>489.0</ele><time>2026-04-26T09:36:54Z</time><extensions><ns3:TrackPointExtension><ns3:hr>153</ns3:hr><ns3:cad>85</ns3:cad></ns3:TrackPointExtension></extensions></trkpt>
<trkpt lat="56.84849" lon="-4.13842"><ele>489.5</ele><time>2026-04-26T09:37:04Z</time><extensions><ns3:TrackPointExtension><ns3:hr>153</ns3:hr><ns3:cad>85</ns3:cad></ns3:TrackPointExtension></extensions></trkpt>
<trkpt lat="56.84837" lon="-4.13875"><ele>490.0</ele><time>2026-04-26T09:37:14Z</time><extensions><ns3:TrackPointExtension><ns3:hr>149</ns3:hr><ns3:cad>88</ns3:cad></ns3:TrackPointExtension></extensions></trkpt>
<trkpt lat="56.84826" lon="-4.13909"><ele>490.5</ele><time>2026-04-26T09:37:24Z</time><extensions><ns3:TrackPointExtension><ns3:hr>151</ns3:hr><ns3:cad>89</ns3:cad></ns3:TrackPointExtension></extensions></trkpt>
<trkpt lat="56.84812" lon="-4.13941"><ele>491.0</ele><time>2026-04-26T09:37:34Z</time><extensions><ns3:TrackPointExtension><ns3:hr>148</ns3:hr><ns3:cad>86</ns3:cad></ns3:TrackPointExtension></extensions></trkpt>
<trkpt lat="56.84797" lon="-4.13971"><ele>491.4</ele><time>2026-04-26T09:37:44Z</time><extensions><ns3:TrackPointExtension><ns3:hr>152</ns3:hr><ns3:cad>86</ns3:cad></ns3:TrackPointExtension></extensions></trkpt>
<trkpt lat="56.84782" lon="-4.13998"><ele>491.9</ele><time>2026-04-26T09:37:54Z</time><extensions><ns3:TrackPointExtension><ns3:hr>151</ns3:hr><ns3:cad>88</ns3:cad></ns3:TrackPointExtension></extensions></trkpt>
<trkpt lat="56.84767" lon="-4.14028"><ele>492.4</ele><time>2026-04-26T09:38:04Z</time><extensions><ns3:TrackPointExtension><ns3:hr>152</ns3:hr><ns3:cad>86</ns3:cad></ns3:TrackPointExtension></extensions></trkpt>
<trkpt lat="56.84753" lon="-4.14058"><ele>492.9</ele><time>2026-04-26T09:38:14Z</time><extensions><ns3:TrackPointExtension><ns3:hr>149</ns3:hr><ns3:cad>88</ns3:cad></ns3:TrackPointExtension></extensions></trkpt>
<trkpt lat="56.84740" lon="-4.14091"><ele>493.4</ele><time>2026-04-26T09:38:24Z</time><extensions><ns3:TrackPointExtension><ns3:hr>152</ns3:hr><ns3:cad>88</ns3:cad></ns3:TrackPointExtension></extensions></trkpt>
<trkpt lat="56.84729" lon="-4.14126"><ele>493.9</ele><time>2026-04-26T09:38:34Z</time><extensions><ns3:TrackPointExtension><ns3:hr>148</ns3:hr><ns3:cad>84</ns3:cad></ns3:TrackPointExtension></extensions></trkpt>
<trkpt lat="56.84716" lon="-4.14158"><ele>494.4</ele><time>2026-04-26T09:38:44Z</time><extensions><ns3:TrackPointExtension><ns3:hr>150</ns3:hr><ns3:cad>85</ns3:cad></ns3:TrackPointExtension></extensions></trkpt>
<trkpt lat="56.84703" lon="-4.14190"><ele>494.9</ele><time>2026-04-26T09:38:54Z</time><extensions><ns3:TrackPointExtension><ns3:hr>151</ns3:hr><ns3:cad>85</ns3:cad></ns3:TrackPointExtension></extensions></trkpt>
<trkpt lat="56.84691" lon="-4.14223"><ele>495.3</ele><time>2026-04-26T09:39:04Z</time><extensions><ns3:TrackPointExtension><ns3:hr>153</ns3:hr><ns3:cad>88</ns3:cad></ns3:TrackPointExtension></extensions></trkpt>
<trkpt lat="56.84680" lon="-4.14258"><ele>495.8</ele><time>2026-04-26T09:39:14Z</time><extensions><ns3:TrackPointExtension><ns3:hr>152</ns3:hr><ns3:cad>88</ns3:cad></ns3:TrackPointExtension></extensions></trkpt>
<trkpt lat="56.84669" lon="-4.14292"><ele>496.3</ele><time>2026-04-26T09:39:24Z</time><extensions><ns3:TrackPointExtension><ns3:hr>152</ns3:hr><ns3:cad>87</ns3:cad></ns3:TrackPointExtension></extensions></trkpt>
<trkpt lat="56.84657" lon="-4.14326"><ele>496.8</ele><time>2026-04-26T09:39:34Z</time><extensions><ns3:TrackPointExtension><ns3:hr>153</ns3:hr><ns3:cad>89</ns3:cad></ns3:TrackPointExtension></extensions></trkpt>
<trkpt lat="56.84647" lon="-4.14362"><ele>497.3</ele><time>2026-04-26T09:39:44Z</time><extensions><ns3:TrackPointExtension><ns3:hr>151</ns3:hr><ns3:cad>86</ns3:cad></ns3:TrackPointExtension></extensions></trkpt>
<trkpt lat="56.84636" lon="-4.14396"><ele>497.8</ele><time>2026-04-26T09:39:54Z</time><extensions><ns3:TrackPointExtension><ns3:hr>148</ns3:hr><ns3:cad>85</ns3:cad></ns3:TrackPointExtension></extensions></trkpt>
<trkpt lat="56.84626" lon="-4.14432"><ele>498.3</ele><time>2026-04-26T09:40:04Z</time><extensions><ns3:TrackPointExtension><ns3:hr>148</ns3:hr><ns3:cad>85</ns3:cad></ns3:TrackPointExtension></extensions></trkpt>
<trkpt lat="56.84615" lon="-4.14466"><ele>498.8</ele><time>2026-04-26T09:40:14Z</time><extensions><ns3:TrackPointExtension><ns3:hr>152</ns3:hr><ns3:cad>89</ns3:cad></ns3:TrackPointExtension></extensions></trkpt>
<trkpt lat="56.84604" lon="-4.14502"><ele>499.2</ele><time>2026-04-26T09:40:24Z</time><extensions><ns3:TrackPointExtension><ns3:hr>149</ns3:hr><ns3:cad>86</ns3:cad></ns3:TrackPointExtension></extensions></trkpt>
<trkpt lat="56.84594" lon="-4.14537"><ele>499.7</ele><time>2026-04-26T09:40:34Z</time><extensions><ns3:TrackPointExtension><ns3:hr>149</ns3:hr><ns3:cad>85</ns3:cad></ns3:TrackPointExtension></extensions></trkpt>
<trkpt lat="56.84582" lon="-4.14571"><ele>500.2</ele><time>2026-04-26T09:40:44Z</time><extensions><ns3:TrackPointExtension><ns3:hr>152</ns3:hr><ns3:cad>88</ns3:cad></ns3:TrackPointExtension></extensions></trkpt>
<trkpt lat="56.84569" lon="-4.14603"><ele>500.7</ele><time>2026-04-26T09:40:54Z</time><extensions><ns3:TrackPointExtension><ns3:hr>151</ns3:hr><ns3:cad>87</ns3:cad></ns3:TrackPointExtension></extensions></trkpt>
<trkpt lat="56.84559" lon="-4.14638"><ele>501.2</ele><time>2026-04-26T09:41:04Z</time><extensions><ns3:TrackPointExtension><ns3:hr>149</ns3:hr><ns3:cad>88</ns3:cad></ns3:TrackPointExtension></extensions></trkpt>
<trkpt lat="56.84550" lon="-4.14675"><ele>501.7</ele><time>2026-04-26T09:41:14Z</time><extensions><ns3:TrackPointExtension><ns3:hr>149</ns3:hr><ns3:cad>86</ns3:cad></ns3:TrackPointExtension></extensions></trkpt>
<trkpt lat="56.84539" lon="-4.14710"><ele>502.2</ele><time>2026-04-26T09:41:24Z</time><extensions><ns3:TrackPointExtension><ns3:hr>151</ns3:hr><ns3:cad>86</ns3:cad></ns3:TrackPointExtension></extensions></trkpt>
<trkpt lat="56.84528" lon="-4.14745"><ele>502.7</ele><time>2026-04-26T09:41:34Z</time><extensions><ns3:TrackPointExtension><ns3:hr>150</ns3:hr><ns3:cad>86</ns3:cad></ns3:TrackPointExtension></extensions></trkpt>
<trkpt lat="56.84519" lon="-4.14781"><ele>503.1</ele><time>2026-04-26T09:41:44Z</time><extensions><ns3:TrackPointExtension><ns3:hr>150</ns3:hr><ns3:cad>85</ns3:cad></ns3:TrackPointExtension></extensions></trkpt>
<trkpt lat="56.84507" lon="-4.14814"><ele>503.6</ele><time>2026-04-26T09:41:54Z</time><extensions><ns3:TrackPointExtension><ns3:hr>149</ns3:hr><ns3:cad>86</ns3:cad></ns3:TrackPointExtension></extensions></trkpt>
<trkpt lat="56.84494" lon="-4.14847"><ele>504.1</ele><time>2026-04-26T09:42:04Z</time><extensions><ns3:TrackPointExtension><ns3:hr>148</ns3:hr><ns3:cad>85</ns3:cad></ns3:TrackPointExtension></extensions></trkpt>
<trkpt lat="56.84481" lon="-4.14878"><ele>504.6</ele><time>2026-04-26T09:42:14Z</time><extensions><ns3:TrackPointExtension><ns3:hr>150</ns3:hr><ns3:cad>86</ns3:cad></ns3:TrackPointExtension></extensions></trkpt>
<trkpt lat="56.84469" lon="-4.14912"><ele>505.1</ele><time>2026-04-26T09:42:24Z</time><extensions><ns3:TrackPointExtension><ns3:hr>149</ns3:hr><ns3:cad>84</ns3:cad></ns3:TrackPointExtension></extensions></trkpt>
<trkpt lat="56.84458" lon="-4.14947"><ele>505.6</ele><time>2026-04-26T09:42:34Z</time><extensions><ns3:TrackPointExtension><ns3:hr>153</ns3:hr><ns3:cad>85</ns3:cad></ns3:TrackPointExtension></extensions></trkpt>
<trkpt lat="56.84450" lon="-4.14984"><ele>506.1</ele><time>2026-04-26T09:42:44Z</time><extensions><ns3:TrackPointExtension><ns3:hr>150</ns3:hr><ns3:cad>88</ns3:cad></ns3:TrackPointExtension></extensions></trkpt>
<trkpt lat="56.84443" lon="-4.15022"><ele>506.6</ele><time>2026-04-26T09:42:54Z</time><extensions><ns3:TrackPointExtension><ns3:hr>149</ns3:hr><ns3:cad>87</ns3:cad></ns3:TrackPointExtension></extensions></trkpt>
<trkpt lat="56.84437" lon="-4.15061"><ele>507.0</ele><time>2026-04-26T09:43:04Z</time><extensions><ns3:TrackPointExtension><ns3:hr>152</ns3:hr><ns3:cad>88</ns3:cad></ns3:TrackPointExtension></extensions></trkpt>
<trkpt lat="56.84434" lon="-4.15100"><ele>507.5</ele><time>2026-04-26T09:43:14Z</time><extensions><ns3:TrackPointExtension><ns3:hr>151</ns3:hr><ns3:cad>89</ns3:cad></ns3:TrackPointExtension></extensions></trkpt>
<trkpt lat="56.84428" lon="-4.15139"><ele>508.0</ele><time>2026-04-26T09:43:24Z</time><extensions><ns3:TrackPointExtension><ns3:hr>152</ns3:hr><ns3:cad>85</ns3:cad></ns3:TrackPointExtension></extensions></trkpt>
<trkpt lat="56.84425" lon="-4.15179"><ele>508.5</ele><time>2026-04-26T09:43:34Z</time><extensions><ns3:TrackPointExtension><ns3:hr>153</ns3:hr><ns3:cad>88</ns3:cad></ns3:TrackPointExtension></extensions></trkpt>
<trkpt lat="56.84424" lon="-4.15219"><ele>509.0</ele><time>2026-04-26T09:43:44Z</time><extensions><ns3:TrackPointExtension><ns3:hr>150</ns3:hr><ns3:cad>85</ns3:cad></ns3:TrackPointExtension></extensions></trkpt>
<trkpt lat="56.84424" lon="-4.15220"><ele>509.0</ele><time>2026-04-26T09:43:44Z</time><extensions><ns3:TrackPointExtension><ns3:hr>151</ns3:hr><ns3:cad>86</ns3:cad></ns3:TrackPointExtension></extensions></trkpt>
</trkseg></trk></gpx>
