<?xml version="1.0" encoding="UTF-8"?>
<gpx version="1.1" creator="Trail Profile synthetic demo (not a real run)" xmlns="http://www.topografix.com/GPX/1/1" xmlns:ns3="http://www.garmin.com/xmlschemas/TrackPointExtension/v1"><trk><name>Glen Fictional loop (demo)</name><type>trail_running</type><trkseg>
<trkpt lat="56.82020" lon="-4.04967"><ele>300.3</ele><time>2026-06-07T08:30:10Z</time><extensions><ns3:TrackPointExtension><ns3:hr>103</ns3:hr><ns3:cad>89</ns3:cad></ns3:TrackPointExtension></extensions></trkpt>
<trkpt lat="56.82041" lon="-4.04937"><ele>300.6</ele><time>2026-06-07T08:30:20Z</time><extensions><ns3:TrackPointExtension><ns3:hr>120</ns3:hr><ns3:cad>84</ns3:cad></ns3:TrackPointExtension></extensions></trkpt>
<trkpt lat="56.82063" lon="-4.04910"><ele>300.9</ele><time>2026-06-07T08:30:30Z</time><extensions><ns3:TrackPointExtension><ns3:hr>135</ns3:hr><ns3:cad>87</ns3:cad></ns3:TrackPointExtension></extensions></trkpt>
<trkpt lat="56.82086" lon="-4.04886"><ele>301.2</ele><time>2026-06-07T08:30:40Z</time><extensions><ns3:TrackPointExtension><ns3:hr>141</ns3:hr><ns3:cad>89</ns3:cad></ns3:TrackPointExtension></extensions></trkpt>
<trkpt lat="56.82110" lon="-4.04865"><ele>301.5</ele><time>2026-06-07T08:30:50Z</time><extensions><ns3:TrackPointExtension><ns3:hr>146</ns3:hr><ns3:cad>85</ns3:cad></ns3:TrackPointExtension></extensions></trkpt>
<trkpt lat="56.82135" lon="-4.04844"><ele>301.8</ele><time>2026-06-07T08:31:00Z</time><extensions><ns3:TrackPointExtension><ns3:hr>153</ns3:hr><ns3:cad>85</ns3:cad></ns3:TrackPointExtension></extensions></trkpt>
<trkpt lat="56.82159" lon="-4.04823"><ele>302.1</ele><time>2026-06-07T08:31:10Z</time><extensions><ns3:TrackPointExtension><ns3:hr>153</ns3:hr><ns3:cad>87</ns3:cad></ns3:TrackPointExtension></extensions></trkpt>
<trkpt lat="56.82182" lon="-4.04799"><ele>302.4</ele><time>2026-06-07T08:31:20Z</time><extensions><ns3:TrackPointExtension><ns3:hr>155</ns3:hr><ns3:cad>88</ns3:cad></ns3:TrackPointExtension></extensions></trkpt>
<trkpt lat="56.82204" lon="-4.04772"><ele>302.7</ele><time>2026-06-07T08:31:30Z</time><extensions><ns3:TrackPointExtension><ns3:hr>156</ns3:hr><ns3:cad>89</ns3:cad></ns3:TrackPointExtension></extensions></trkpt>
<trkpt lat="56.82228" lon="-4.04749"><ele>303.0</ele><time>2026-06-07T08:31:40Z</time><extensions><ns3:TrackPointExtension><ns3:hr>156</ns3:hr><ns3:cad>86</ns3:cad></ns3:TrackPointExtension></extensions></trkpt>
<trkpt lat="56.82252" lon="-4.04728"><ele>303.3</ele><time>2026-06-07T08:31:50Z</time><extensions><ns3:TrackPointExtension><ns3:hr>159</ns3:hr><ns3:cad>88</ns3:cad></ns3:TrackPointExtension></extensions></trkpt>
<trkpt lat="56.82277" lon="-4.04712"><ele>303.6</ele><time>2026-06-07T08:32:00Z</time><extensions><ns3:TrackPointExtension><ns3:hr>158</ns3:hr><ns3:cad>85</ns3:cad></ns3:TrackPointExtension></extensions></trkpt>
<trkpt lat="56.82303" lon="-4.04700"><ele>303.9</ele><time>2026-06-07T08:32:10Z</time><extensions><ns3:TrackPointExtension><ns3:hr>157</ns3:hr><ns3:cad>85</ns3:cad></ns3:TrackPointExtension></extensions></trkpt>
<trkpt lat="56.82329" lon="-4.04690"><ele>304.2</ele><time>2026-06-07T08:32:20Z</time><extensions><ns3:TrackPointExtension><ns3:hr>159</ns3:hr><ns3:cad>85</ns3:cad></ns3:TrackPointExtension></extensions></trkpt>
<trkpt lat="56.82355" lon="-4.04678"><ele>304.5</ele><time>2026-06-07T08:32:30Z</time><extensions><ns3:TrackPointExtension><ns3:hr>158</ns3:hr><ns3:cad>88</ns3:cad></ns3:TrackPointExtension></extensions></trkpt>
<trkpt lat="56.82381" lon="-4.04670"><ele>304.8</ele><time>2026-06-07T08:32:40Z</time><extensions><ns3:TrackPointExtension><ns3:hr>161</ns3:hr><ns3:cad>86</ns3:cad></ns3:TrackPointExtension></extensions></trkpt>
<trkpt lat="56.82408" lon="-4.04662"><ele>305.1</ele><time>2026-06-07T08:32:50Z</time><extensions><ns3:TrackPointExtension><ns3:hr>157</ns3:hr><ns3:cad>84</ns3:cad></ns3:TrackPointExtension></extensions></trkpt>
<trkpt lat="56.82434" lon="-4.04652"><ele>305.4</ele><time>2026-06-07T08:33:00Z</time><extensions><ns3:TrackPointExtension><ns3:hr>158</ns3:hr><ns3:cad>89</ns3:cad></ns3:TrackPointExtension></extensions></trkpt>
<trkpt lat="56.82460" lon="-4.04644"><ele>305.6</ele><time>2026-06-07T08:33:10Z</time><extensions><ns3:TrackPointExtension><ns3:hr>157</ns3:hr><ns3:cad>86</ns3:cad></ns3:TrackPointExtension></extensions></trkpt>
<trkpt lat="56.82487" lon="-4.04637"><ele>305.9</ele><time>2026-06-07T08:33:20Z</time><extensions><ns3:TrackPointExtension><ns3:hr>158</ns3:hr><ns3:cad>85</ns3:cad></ns3:TrackPointExtension></extensions></trkpt>
<trkpt lat="56.82513" lon="-4.04628"><ele>306.2</ele><time>2026-06-07T08:33:30Z</time><extensions><ns3:TrackPointExtension><ns3:hr>160</ns3:hr><ns3:cad>86</ns3:cad></ns3:TrackPointExtension></extensions></trkpt>
<trkpt lat="56.82538" lon="-4.04614"><ele>306.5</ele><time>2026-06-07T08:33:40Z</time><extensions><ns3:TrackPointExtension><ns3:hr>159</ns3:hr><ns3:cad>88</ns3:cad></ns3:TrackPointExtension></extensions></trkpt>
<trkpt lat="56.82563" lon="-4.04596"><ele>306.8</ele><time>2026-06-07T08:33:50Z</time><extensions><ns3:TrackPointExtension><ns3:hr>157</ns3:hr><ns3:cad>85</ns3:cad></ns3:TrackPointExtension></extensions></trkpt>
<trkpt lat="56.82588" lon="-4.04577"><ele>307.1</ele><time>2026-06-07T08:34:00Z</time><extensions><ns3:TrackPointExtension><ns3:hr>159</ns3:hr><ns3:cad>86</ns3:cad></ns3:TrackPointExtension></extensions></trkpt>
<trkpt lat="56.82613" lon="-4.04559"><ele>307.4</ele><time>2026-06-07T08:34:10Z</time><extensions><ns3:TrackPointExtension><ns3:hr>160</ns3:hr><ns3:cad>87</ns3:cad></ns3:TrackPointExtension></extensions></trkpt>
<trkpt lat="56.82638" lon="-4.04542"><ele>307.7</ele><time>2026-06-07T08:34:20Z</time><extensions><ns3:TrackPointExtension><ns3:hr>159</ns3:hr><ns3:cad>85</ns3:cad></ns3:TrackPointExtension></extensions></trkpt>
<trkpt lat="56.82661" lon="-4.04520"><ele>308.0</ele><time>2026-06-07T08:34:30Z</time><extensions><ns3:TrackPointExtension><ns3:hr>159</ns3:hr><ns3:cad>86</ns3:cad></ns3:TrackPointExtension></extensions></trkpt>
<trkpt lat="56.82685" lon="-4.04497"><ele>308.3</ele><time>2026-06-07T08:34:40Z</time><extensions><ns3:TrackPointExtension><ns3:hr>161</ns3:hr><ns3:cad>89</ns3:cad></ns3:TrackPointExtension></extensions></trkpt>
<trkpt lat="56.82708" lon="-4.04470"><ele>308.6</ele><time>2026-06-07T08:34:50Z</time><extensions><ns3:TrackPointExtension><ns3:hr>159</ns3:hr><ns3:cad>86</ns3:cad></ns3:TrackPointExtension></extensions></trkpt>
<trkpt lat="56.82731" lon="-4.04447"><ele>308.9</ele><time>2026-06-07T08:35:00Z</time><extensions><ns3:TrackPointExtension><ns3:hr>159</ns3:hr><ns3:cad>89</ns3:cad></ns3:TrackPointExtension></extensions></trkpt>
<trkpt lat="56.82738" lon="-4.04442"><ele>309.0</ele><time>2026-06-07T08:35:02Z</time><extensions><ns3:TrackPointExtension><ns3:hr>162</ns3:hr><ns3:cad>85</ns3:cad></ns3:TrackPointExtension></extensions></trkpt>
<trkpt lat="56.82755" lon="-4.04428"><ele>310.9</ele><time>2026-06-07T08:35:12Z</time><extensions><ns3:TrackPointExtension><ns3:hr>159</ns3:hr><ns3:cad>88</ns3:cad></ns3:TrackPointExtension></extensions></trkpt>
<trkpt lat="56.82771" lon="-4.04411"><ele>312.7</ele><time>2026-06-07T08:35:22Z</time><extensions><ns3:TrackPointExtension><ns3:hr>159</ns3:hr><ns3:cad>88</ns3:cad></ns3:TrackPointExtension></extensions></trkpt>
<trkpt lat="56.82788" lon="-4.04397"><ele>314.6</ele><time>2026-06-07T08:35:32Z</time><extensions><ns3:TrackPointExtension><ns3:hr>162</ns3:hr><ns3:cad>85</ns3:cad></ns3:TrackPointExtension></extensions></trkpt>
<trkpt lat="56.82806" lon="-4.04387"><ele>316.5</ele><time>2026-06-07T08:35:42Z</time><extensions><ns3:TrackPointExtension><ns3:hr>161</ns3:hr><ns3:cad>87</ns3:cad></ns3:TrackPointExtension></extensions></trkpt>
<trkpt lat="56.82824" lon="-4.04378"><ele>318.4</ele><time>2026-06-07T08:35:52Z</time><extensions><ns3:TrackPointExtension><ns3:hr>161</ns3:hr><ns3:cad>84</ns3:cad></ns3:TrackPointExtension></extensions></trkpt>
<trkpt lat="56.82841" lon="-4.04367"><ele>320.2</ele><time>2026-06-07T08:36:02Z</time><extensions><ns3:TrackPointExtension><ns3:hr>157</ns3:hr><ns3:cad>88</ns3:cad></ns3:TrackPointExtension></extensions></trkpt>
<trkpt lat="56.82860" lon="-4.04359"><ele>322.1</ele><time>2026-06-07T08:36:12Z</time><extensions><ns3:TrackPointExtension><ns3:hr>161</ns3:hr><ns3:cad>88</ns3:cad></ns3:TrackPointExtension></extensions></trkpt>
<trkpt lat="56.82878" lon="-4.04353"><ele>324.0</ele><time>2026-06-07T08:36:22Z</time><extensions><ns3:TrackPointExtension><ns3:hr>160</ns3:hr><ns3:cad>87</ns3:cad></ns3:TrackPointExtension></extensions></trkpt>
<trkpt lat="56.82896" lon="-4.04344"><ele>325.9</ele><time>2026-06-07T08:36:32Z</time><extensions><ns3:TrackPointExtension><ns3:hr>160</ns3:hr><ns3:cad>86</ns3:cad></ns3:TrackPointExtension></extensions></trkpt>
<trkpt lat="56.82914" lon="-4.04337"><ele>327.7</ele><time>2026-06-07T08:36:42Z</time><extensions><ns3:TrackPointExtension><ns3:hr>162</ns3:hr><ns3:cad>88</ns3:cad></ns3:TrackPointExtension></extensions></trkpt>
<trkpt lat="56.82933" lon="-4.04332"><ele>329.6</ele><time>2026-06-07T08:36:52Z</time><extensions><ns3:TrackPointExtension><ns3:hr>158</ns3:hr><ns3:cad>85</ns3:cad></ns3:TrackPointExtension></extensions></trkpt>
<trkpt lat="56.82951" lon="-4.04327"><ele>331.5</ele><time>2026-06-07T08:37:02Z</time><extensions><ns3:TrackPointExtension><ns3:hr>161</ns3:hr><ns3:cad>85</ns3:cad></ns3:TrackPointExtension></extensions></trkpt>
<trkpt lat="56.82970" lon="-4.04326"><ele>333.4</ele><time>2026-06-07T08:37:12Z</time><extensions><ns3:TrackPointExtension><ns3:hr>157</ns3:hr><ns3:cad>88</ns3:cad></ns3:TrackPointExtension></extensions></trkpt>
<trkpt lat="56.82989" lon="-4.04328"><ele>335.2</ele><time>2026-06-07T08:37:22Z</time><extensions><ns3:TrackPointExtension><ns3:hr>161</ns3:hr><ns3:cad>87</ns3:cad></ns3:TrackPointExtension></extensions></trkpt>
<trkpt lat="56.83008" lon="-4.04327"><ele>337.1</ele><time>2026-06-07T08:37:32Z</time><extensions><ns3:TrackPointExtension><ns3:hr>160</ns3:hr><ns3:cad>87</ns3:cad></ns3:TrackPointExtension></extensions></trkpt>
<trkpt lat="56.83026" lon="-4.04322"><ele>339.0</ele><time>2026-06-07T08:37:42Z</time><extensions><ns3:TrackPointExtension><ns3:hr>162</ns3:hr><ns3:cad>87</ns3:cad></ns3:TrackPointExtension></extensions></trkpt>
<trkpt lat="56.83044" lon="-4.04315"><ele>340.9</ele><time>2026-06-07T08:37:52Z</time><extensions><ns3:TrackPointExtension><ns3:hr>160</ns3:hr><ns3:cad>87</ns3:cad></ns3:TrackPointExtension></extensions></trkpt>
<trkpt lat="56.83063" lon="-4.04309"><ele>342.7</ele><time>2026-06-07T08:38:02Z</time><extensions><ns3:TrackPointExtension><ns3:hr>159</ns3:hr><ns3:cad>87</ns3:cad></ns3:TrackPointExtension></extensions></trkpt>
<trkpt lat="56.83081" lon="-4.04301"><ele>344.6</ele><time>2026-06-07T08:38:12Z</time><extensions><ns3:TrackPointExtension><ns3:hr>159</ns3:hr><ns3:cad>86</ns3:cad></ns3:TrackPointExtension></extensions></trkpt>
<trkpt lat="56.83099" lon="-4.04295"><ele>346.5</ele><time>2026-06-07T08:38:22Z</time><extensions><ns3:TrackPointExtension><ns3:hr>160</ns3:hr><ns3:cad>86</ns3:cad></ns3:TrackPointExtension></extensions></trkpt>
<trkpt lat="56.83118" lon="-4.04289"><ele>348.4</ele><time>2026-06-07T08:38:32Z</time><extensions><ns3:TrackPointExtension><ns3:hr>160</ns3:hr><ns3:cad>88</ns3:cad></ns3:TrackPointExtension></extensions></trkpt>
<trkpt lat="56.83136" lon="-4.04285"><ele>350.2</ele><time>2026-06-07T08:38:42Z</time><extensions><ns3:TrackPointExtension><ns3:hr>160</ns3:hr><ns3:cad>88</ns3:cad></ns3:TrackPointExtension></extensions></trkpt>
<trkpt lat="56.83155" lon="-4.04278"><ele>352.1</ele><time>2026-06-07T08:38:52Z</time><extensions><ns3:TrackPointExtension><ns3:hr>161</ns3:hr><ns3:cad>86</ns3:cad></ns3:TrackPointExtension></extensions></trkpt>
<trkpt lat="56.83173" lon="-4.04274"><ele>354.0</ele><time>2026-06-07T08:39:02Z</time><extensions><ns3:TrackPointExtension><ns3:hr>159</ns3:hr><ns3:cad>85</ns3:cad></ns3:TrackPointExtension></extensions></trkpt>
<trkpt lat="56.83192" lon="-4.04272"><ele>355.9</ele><time>2026-06-07T08:39:12Z</time><extensions><ns3:TrackPointExtension><ns3:hr>160</ns3:hr><ns3:cad>88</ns3:cad></ns3:TrackPointExtension></extensions></trkpt>
<trkpt lat="56.83211" lon="-4.04268"><ele>357.7</ele><time>2026-06-07T08:39:22Z</time><extensions><ns3:TrackPointExtension><ns3:hr>157</ns3:hr><ns3:cad>87</ns3:cad></ns3:TrackPointExtension></extensions></trkpt>
<trkpt lat="56.83229" lon="-4.04261"><ele>359.6</ele><time>2026-06-07T08:39:32Z</time><extensions><ns3:TrackPointExtension><ns3:hr>158</ns3:hr><ns3:cad>85</ns3:cad></ns3:TrackPointExtension></extensions></trkpt>
<trkpt lat="56.83247" lon="-4.04255"><ele>361.5</ele><time>2026-06-07T08:39:42Z</time><extensions><ns3:TrackPointExtension><ns3:hr>158</ns3:hr><ns3:cad>88</ns3:cad></ns3:TrackPointExtension></extensions></trkpt>
<trkpt lat="56.83266" lon="-4.04249"><ele>363.4</ele><time>2026-06-07T08:39:52Z</time><extensions><ns3:TrackPointExtension><ns3:hr>161</ns3:hr><ns3:cad>88</ns3:cad></ns3:TrackPointExtension></extensions></trkpt>
<trkpt lat="56.83284" lon="-4.04246"><ele>365.2</ele><time>2026-06-07T08:40:02Z</time><extensions><ns3:TrackPointExtension><ns3:hr>161</ns3:hr><ns3:cad>87</ns3:cad></ns3:TrackPointExtension></extensions></trkpt>
<trkpt lat="56.83303" lon="-4.04242"><ele>367.1</ele><time>2026-06-07T08:40:12Z</time><extensions><ns3:TrackPointExtension><ns3:hr>160</ns3:hr><ns3:cad>86</ns3:cad></ns3:TrackPointExtension></extensions></trkpt>
<trkpt lat="56.83321" lon="-4.04235"><ele>369.0</ele><time>2026-06-07T08:40:22Z</time><extensions><ns3:TrackPointExtension><ns3:hr>160</ns3:hr><ns3:cad>85</ns3:cad></ns3:TrackPointExtension></extensions></trkpt>
<trkpt lat="56.83339" lon="-4.04226"><ele>370.9</ele><time>2026-06-07T08:40:32Z</time><extensions><ns3:TrackPointExtension><ns3:hr>162</ns3:hr><ns3:cad>88</ns3:cad></ns3:TrackPointExtension></extensions></trkpt>
<trkpt lat="56.83357" lon="-4.04218"><ele>372.7</ele><time>2026-06-07T08:40:42Z</time><extensions><ns3:TrackPointExtension><ns3:hr>161</ns3:hr><ns3:cad>85</ns3:cad></ns3:TrackPointExtension></extensions></trkpt>
<trkpt lat="56.83375" lon="-4.04208"><ele>374.6</ele><time>2026-06-07T08:40:52Z</time><extensions><ns3:TrackPointExtension><ns3:hr>158</ns3:hr><ns3:cad>87</ns3:cad></ns3:TrackPointExtension></extensions></trkpt>
<trkpt lat="56.83393" lon="-4.04198"><ele>376.5</ele><time>2026-06-07T08:41:02Z</time><extensions><ns3:TrackPointExtension><ns3:hr>160</ns3:hr><ns3:cad>84</ns3:cad></ns3:TrackPointExtension></extensions></trkpt>
<trkpt lat="56.83411" lon="-4.04186"><ele>378.3</ele><time>2026-06-07T08:41:12Z</time><extensions><ns3:TrackPointExtension><ns3:hr>161</ns3:hr><ns3:cad>85</ns3:cad></ns3:TrackPointExtension></extensions></trkpt>
<trkpt lat="56.83428" lon="-4.04171"><ele>380.2</ele><time>2026-06-07T08:41:22Z</time><extensions><ns3:TrackPointExtension><ns3:hr>161</ns3:hr><ns3:cad>89</ns3:cad></ns3:TrackPointExtension></extensions></trkpt>
<trkpt lat="56.83445" lon="-4.04157"><ele>382.1</ele><time>2026-06-07T08:41:32Z</time><extensions><ns3:TrackPointExtension><ns3:hr>162</ns3:hr><ns3:cad>88</ns3:cad></ns3:TrackPointExtension></extensions></trkpt>
<trkpt lat="56.83462" lon="-4.04146"><ele>384.0</ele><time>2026-06-07T08:41:42Z</time><extensions><ns3:TrackPointExtension><ns3:hr>161</ns3:hr><ns3:cad>84</ns3:cad></ns3:TrackPointExtension></extensions></trkpt>
<trkpt lat="56.83480" lon="-4.04138"><ele>385.8</ele><time>2026-06-07T08:41:52Z</time><extensions><ns3:TrackPointExtension><ns3:hr>158</ns3:hr><ns3:cad>85</ns3:cad></ns3:TrackPointExtension></extensions></trkpt>
<trkpt lat="56.83499" lon="-4.04133"><ele>387.7</ele><time>2026-06-07T08:42:02Z</time><extensions><ns3:TrackPointExtension><ns3:hr>160</ns3:hr><ns3:cad>84</ns3:cad></ns3:TrackPointExtension></extensions></trkpt>
<trkpt lat="56.83517" lon="-4.04128"><ele>389.6</ele><time>2026-06-07T08:42:12Z</time><extensions><ns3:TrackPointExtension><ns3:hr>160</ns3:hr><ns3:cad>88</ns3:cad></ns3:TrackPointExtension></extensions></trkpt>
<trkpt lat="56.83536" lon="-4.04125"><ele>391.5</ele><time>2026-06-07T08:42:22Z</time><extensions><ns3:TrackPointExtension><ns3:hr>160</ns3:hr><ns3:cad>89</ns3:cad></ns3:TrackPointExtension></extensions></trkpt>
<trkpt lat="56.83555" lon="-4.04123"><ele>393.3</ele><time>2026-06-07T08:42:32Z</time><extensions><ns3:TrackPointExtension><ns3:hr>161</ns3:hr><ns3:cad>85</ns3:cad></ns3:TrackPointExtension></extensions></trkpt>
<trkpt lat="56.83573" lon="-4.04119"><ele>395.2</ele><time>2026-06-07T08:42:42Z</time><extensions><ns3:TrackPointExtension><ns3:hr>161</ns3:hr><ns3:cad>87</ns3:cad></ns3:TrackPointExtension></extensions></trkpt>
<trkpt lat="56.83592" lon="-4.04114"><ele>397.1</ele><time>2026-06-07T08:42:52Z</time><extensions><ns3:TrackPointExtension><ns3:hr>160</ns3:hr><ns3:cad>88</ns3:cad></ns3:TrackPointExtension></extensions></trkpt>
<trkpt lat="56.83610" lon="-4.04109"><ele>399.0</ele><time>2026-06-07T08:43:02Z</time><extensions><ns3:TrackPointExtension><ns3:hr>158</ns3:hr><ns3:cad>86</ns3:cad></ns3:TrackPointExtension></extensions></trkpt>
<trkpt lat="56.83629" lon="-4.04104"><ele>400.8</ele><time>2026-06-07T08:43:12Z</time><extensions><ns3:TrackPointExtension><ns3:hr>159</ns3:hr><ns3:cad>89</ns3:cad></ns3:TrackPointExtension></extensions></trkpt>
<trkpt lat="56.83647" lon="-4.04095"><ele>402.7</ele><time>2026-06-07T08:43:22Z</time><extensions><ns3:TrackPointExtension><ns3:hr>160</ns3:hr><ns3:cad>84</ns3:cad></ns3:TrackPointExtension></extensions></trkpt>
<trkpt lat="56.83665" lon="-4.04086"><ele>404.6</ele><time>2026-06-07T08:43:32Z</time><extensions><ns3:TrackPointExtension><ns3:hr>157</ns3:hr><ns3:cad>85</ns3:cad></ns3:TrackPointExtension></extensions></trkpt>
<trkpt lat="56.83683" lon="-4.04076"><ele>406.5</ele><time>2026-06-07T08:43:42Z</time><extensions><ns3:TrackPointExtension><ns3:hr>158</ns3:hr><ns3:cad>88</ns3:cad></ns3:TrackPointExtension></extensions></trkpt>
<trkpt lat="56.83701" lon="-4.04066"><ele>408.3</ele><time>2026-06-07T08:43:52Z</time><extensions><ns3:TrackPointExtension><ns3:hr>159</ns3:hr><ns3:cad>85</ns3:cad></ns3:TrackPointExtension></extensions></trkpt>
<trkpt lat="56.83718" lon="-4.04054"><ele>410.2</ele><time>2026-06-07T08:44:02Z</time><extensions><ns3:TrackPointExtension><ns3:hr>161</ns3:hr><ns3:cad>84</ns3:cad></ns3:TrackPointExtension></extensions></trkpt>
<trkpt lat="56.83735" lon="-4.04038"><ele>412.1</ele><time>2026-06-07T08:44:12Z</time><extensions><ns3:TrackPointExtension><ns3:hr>160</ns3:hr><ns3:cad>86</ns3:cad></ns3:TrackPointExtension></extensions></trkpt>
<trkpt lat="56.83751" lon="-4.04020"><ele>414.0</ele><time>2026-06-07T08:44:22Z</time><extensions><ns3:TrackPointExtension><ns3:hr>160</ns3:hr><ns3:cad>89</ns3:cad></ns3:TrackPointExtension></extensions></trkpt>
<trkpt lat="56.83767" lon="-4.04004"><ele>415.8</ele><time>2026-06-07T08:44:32Z</time><extensions><ns3:TrackPointExtension><ns3:hr>158</ns3:hr><ns3:cad>86</ns3:cad></ns3:TrackPointExtension></extensions></trkpt>
<trkpt lat="56.83785" lon="-4.03991"><ele>417.7</ele><time>2026-06-07T08:44:42Z</time><extensions><ns3:TrackPointExtension><ns3:hr>158</ns3:hr><ns3:cad>86</ns3:cad></ns3:TrackPointExtension></extensions></trkpt>
<trkpt lat="56.83802" lon="-4.03980"><ele>419.6</ele><time>2026-06-07T08:44:52Z</time><extensions><ns3:TrackPointExtension><ns3:hr>158</ns3:hr><ns3:cad>87</ns3:cad></ns3:TrackPointExtension></extensions></trkpt>
<trkpt lat="56.83820" lon="-4.03971"><ele>421.5</ele><time>2026-06-07T08:45:02Z</time><extensions><ns3:TrackPointExtension><ns3:hr>160</ns3:hr><ns3:cad>86</ns3:cad></ns3:TrackPointExtension></extensions></trkpt>
<trkpt lat="56.83838" lon="-4.03962"><ele>423.3</ele><time>2026-06-07T08:45:12Z</time><extensions><ns3:TrackPointExtension><ns3:hr>158</ns3:hr><ns3:cad>88</ns3:cad></ns3:TrackPointExtension></extensions></trkpt>
<trkpt lat="56.83856" lon="-4.03951"><ele>425.2</ele><time>2026-06-07T08:45:22Z</time><extensions><ns3:TrackPointExtension><ns3:hr>161</ns3:hr><ns3:cad>86</ns3:cad></ns3:TrackPointExtension></extensions></trkpt>
<trkpt lat="56.83873" lon="-4.03937"><ele>427.1</ele><time>2026-06-07T08:45:32Z</time><extensions><ns3:TrackPointExtension><ns3:hr>161</ns3:hr><ns3:cad>88</ns3:cad></ns3:TrackPointExtension></extensions></trkpt>
<trkpt lat="56.83891" lon="-4.03924"><ele>429.0</ele><time>2026-06-07T08:45:42Z</time><extensions><ns3:TrackPointExtension><ns3:hr>158</ns3:hr><ns3:cad>89</ns3:cad></ns3:TrackPointExtension></extensions></trkpt>
<trkpt lat="56.83908" lon="-4.03912"><ele>430.8</ele><time>2026-06-07T08:45:52Z</time><extensions><ns3:TrackPointExtension><ns3:hr>160</ns3:hr><ns3:cad>88</ns3:cad></ns3:TrackPointExtension></extensions></trkpt>
<trkpt lat="56.83926" lon="-4.03902"><ele>432.7</ele><time>2026-06-07T08:46:02Z</time><extensions><ns3:TrackPointExtension><ns3:hr>160</ns3:hr><ns3:cad>86</ns3:cad></ns3:TrackPointExtension></extensions></trkpt>
<trkpt lat="56.83944" lon="-4.03895"><ele>434.6</ele><time>2026-06-07T08:46:12Z</time><extensions><ns3:TrackPointExtension><ns3:hr>159</ns3:hr><ns3:cad>85</ns3:cad></ns3:TrackPointExtension></extensions></trkpt>
<trkpt lat="56.83948" lon="-4.03894"><ele>435.0</ele><time>2026-06-07T08:46:14Z</time><extensions><ns3:TrackPointExtension><ns3:hr>160</ns3:hr><ns3:cad>87</ns3:cad></ns3:TrackPointExtension></extensions></trkpt>
<trkpt lat="56.83962" lon="-4.03890"><ele>437.6</ele><time>2026-06-07T08:46:24Z</time><extensions><ns3:TrackPointExtension><ns3:hr>157</ns3:hr><ns3:cad>87</ns3:cad></ns3:TrackPointExtension></extensions></trkpt>
<trkpt lat="56.83976" lon="-4.03888"><ele>440.2</ele><time>2026-06-07T08:46:34Z</time><extensions><ns3:TrackPointExtension><ns3:hr>159</ns3:hr><ns3:cad>86</ns3:cad></ns3:TrackPointExtension></extensions></trkpt>
<trkpt lat="56.83989" lon="-4.03883"><ele>442.9</ele><time>2026-06-07T08:46:44Z</time><extensions><ns3:TrackPointExtension><ns3:hr>160</ns3:hr><ns3:cad>85</ns3:cad></ns3:TrackPointExtension></extensions></trkpt>
<trkpt lat="56.84003" lon="-4.03877"><ele>445.5</ele><time>2026-06-07T08:46:54Z</time><extensions><ns3:TrackPointExtension><ns3:hr>158</ns3:hr><ns3:cad>84</ns3:cad></ns3:TrackPointExtension></extensions></trkpt>
<trkpt lat="56.84017" lon="-4.03874"><ele>448.1</ele><time>2026-06-07T08:47:04Z</time><extensions><ns3:TrackPointExtension><ns3:hr>158</ns3:hr><ns3:cad>86</ns3:cad></ns3:TrackPointExtension></extensions></trkpt>
<trkpt lat="56.84030" lon="-4.03874"><ele>450.7</ele><time>2026-06-07T08:47:14Z</time><extensions><ns3:TrackPointExtension><ns3:hr>159</ns3:hr><ns3:cad>88</ns3:cad></ns3:TrackPointExtension></extensions></trkpt>
<trkpt lat="56.84044" lon="-4.03876"><ele>453.3</ele><time>2026-06-07T08:47:24Z</time><extensions><ns3:TrackPointExtension><ns3:hr>159</ns3:hr><ns3:cad>86</ns3:cad></ns3:TrackPointExtension></extensions></trkpt>
<trkpt lat="56.84058" lon="-4.03880"><ele>455.9</ele><time>2026-06-07T08:47:34Z</time><extensions><ns3:TrackPointExtension><ns3:hr>159</ns3:hr><ns3:cad>86</ns3:cad></ns3:TrackPointExtension></extensions></trkpt>
<trkpt lat="56.84071" lon="-4.03887"><ele>458.6</ele><time>2026-06-07T08:47:44Z</time><extensions><ns3:TrackPointExtension><ns3:hr>158</ns3:hr><ns3:cad>85</ns3:cad></ns3:TrackPointExtension></extensions></trkpt>
<trkpt lat="56.84084" lon="-4.03895"><ele>461.2</ele><time>2026-06-07T08:47:54Z</time><extensions><ns3:TrackPointExtension><ns3:hr>162</ns3:hr><ns3:cad>86</ns3:cad></ns3:TrackPointExtension></extensions></trkpt>
<trkpt lat="56.84097" lon="-4.03903"><ele>463.8</ele><time>2026-06-07T08:48:04Z</time><extensions><ns3:TrackPointExtension><ns3:hr>160</ns3:hr><ns3:cad>85</ns3:cad></ns3:TrackPointExtension></extensions></trkpt>
<trkpt lat="56.84110" lon="-4.03911"><ele>466.4</ele><time>2026-06-07T08:48:14Z</time><extensions><ns3:TrackPointExtension><ns3:hr>158</ns3:hr><ns3:cad>87</ns3:cad></ns3:TrackPointExtension></extensions></trkpt>
<trkpt lat="56.84124" lon="-4.03919"><ele>469.0</ele><time>2026-06-07T08:48:24Z</time><extensions><ns3:TrackPointExtension><ns3:hr>159</ns3:hr><ns3:cad>86</ns3:cad></ns3:TrackPointExtension></extensions></trkpt>
<trkpt lat="56.84137" lon="-4.03926"><ele>471.7</ele><time>2026-06-07T08:48:34Z</time><extensions><ns3:TrackPointExtension><ns3:hr>158</ns3:hr><ns3:cad>89</ns3:cad></ns3:TrackPointExtension></extensions></trkpt>
<trkpt lat="56.84150" lon="-4.03935"><ele>474.3</ele><time>2026-06-07T08:48:44Z</time><extensions><ns3:TrackPointExtension><ns3:hr>161</ns3:hr><ns3:cad>88</ns3:cad></ns3:TrackPointExtension></extensions></trkpt>
<trkpt lat="56.84162" lon="-4.03946"><ele>476.9</ele><time>2026-06-07T08:48:54Z</time><extensions><ns3:TrackPointExtension><ns3:hr>161</ns3:hr><ns3:cad>85</ns3:cad></ns3:TrackPointExtension></extensions></trkpt>
<trkpt lat="56.84174" lon="-4.03959"><ele>479.5</ele><time>2026-06-07T08:49:04Z</time><extensions><ns3:TrackPointExtension><ns3:hr>159</ns3:hr><ns3:cad>89</ns3:cad></ns3:TrackPointExtension></extensions></trkpt>
<trkpt lat="56.84185" lon="-4.03974"><ele>482.1</ele><time>2026-06-07T08:49:14Z</time><extensions><ns3:TrackPointExtension><ns3:hr>161</ns3:hr><ns3:cad>86</ns3:cad></ns3:TrackPointExtension></extensions></trkpt>
<trkpt lat="56.84196" lon="-4.03990"><ele>484.7</ele><time>2026-06-07T08:49:24Z</time><extensions><ns3:TrackPointExtension><ns3:hr>159</ns3:hr><ns3:cad>84</ns3:cad></ns3:TrackPointExtension></extensions></trkpt>
<trkpt lat="56.84206" lon="-4.04008"><ele>487.4</ele><time>2026-06-07T08:49:34Z</time><extensions><ns3:TrackPointExtension><ns3:hr>160</ns3:hr><ns3:cad>85</ns3:cad></ns3:TrackPointExtension></extensions></trkpt>
<trkpt lat="56.84215" lon="-4.04026"><ele>490.0</ele><time>2026-06-07T08:49:44Z</time><extensions><ns3:TrackPointExtension><ns3:hr>161</ns3:hr><ns3:cad>87</ns3:cad></ns3:TrackPointExtension></extensions></trkpt>
<trkpt lat="56.84226" lon="-4.04043"><ele>492.6</ele><time>2026-06-07T08:49:54Z</time><extensions><ns3:TrackPointExtension><ns3:hr>162</ns3:hr><ns3:cad>88</ns3:cad></ns3:TrackPointExtension></extensions></trkpt>
<trkpt lat="56.84237" lon="-4.04058"><ele>495.2</ele><time>2026-06-07T08:50:04Z</time><extensions><ns3:TrackPointExtension><ns3:hr>159</ns3:hr><ns3:cad>87</ns3:cad></ns3:TrackPointExtension></extensions></trkpt>
<trkpt lat="56.84248" lon="-4.04073"><ele>497.8</ele><time>2026-06-07T08:50:14Z</time><extensions><ns3:TrackPointExtension><ns3:hr>158</ns3:hr><ns3:cad>86</ns3:cad></ns3:TrackPointExtension></extensions></trkpt>
<trkpt lat="56.84259" lon="-4.04089"><ele>500.5</ele><time>2026-06-07T08:50:24Z</time><extensions><ns3:TrackPointExtension><ns3:hr>161</ns3:hr><ns3:cad>84</ns3:cad></ns3:TrackPointExtension></extensions></trkpt>
<trkpt lat="56.84270" lon="-4.04104"><ele>503.1</ele><time>2026-06-07T08:50:34Z</time><extensions><ns3:TrackPointExtension><ns3:hr>160</ns3:hr><ns3:cad>86</ns3:cad></ns3:TrackPointExtension></extensions></trkpt>
<trkpt lat="56.84281" lon="-4.04120"><ele>505.7</ele><time>2026-06-07T08:50:44Z</time><extensions><ns3:TrackPointExtension><ns3:hr>158</ns3:hr><ns3:cad>85</ns3:cad></ns3:TrackPointExtension></extensions></trkpt>
<trkpt lat="56.84290" lon="-4.04138"><ele>508.3</ele><time>2026-06-07T08:50:54Z</time><extensions><ns3:TrackPointExtension><ns3:hr>159</ns3:hr><ns3:cad>86</ns3:cad></ns3:TrackPointExtension></extensions></trkpt>
<trkpt lat="56.84299" lon="-4.04158"><ele>510.9</ele><time>2026-06-07T08:51:04Z</time><extensions><ns3:TrackPointExtension><ns3:hr>160</ns3:hr><ns3:cad>85</ns3:cad></ns3:TrackPointExtension></extensions></trkpt>
<trkpt lat="56.84308" lon="-4.04176"><ele>513.5</ele><time>2026-06-07T08:51:14Z</time><extensions><ns3:TrackPointExtension><ns3:hr>161</ns3:hr><ns3:cad>88</ns3:cad></ns3:TrackPointExtension></extensions></trkpt>
<trkpt lat="56.84318" lon="-4.04194"><ele>516.2</ele><time>2026-06-07T08:51:24Z</time><extensions><ns3:TrackPointExtension><ns3:hr>158</ns3:hr><ns3:cad>86</ns3:cad></ns3:TrackPointExtension></extensions></trkpt>
<trkpt lat="56.84328" lon="-4.04212"><ele>518.8</ele><time>2026-06-07T08:51:34Z</time><extensions><ns3:TrackPointExtension><ns3:hr>162</ns3:hr><ns3:cad>84</ns3:cad></ns3:TrackPointExtension></extensions></trkpt>
<trkpt lat="56.84337" lon="-4.04230"><ele>521.4</ele><time>2026-06-07T08:51:44Z</time><extensions><ns3:TrackPointExtension><ns3:hr>162</ns3:hr><ns3:cad>87</ns3:cad></ns3:TrackPointExtension></extensions></trkpt>
<trkpt lat="56.84348" lon="-4.04247"><ele>524.0</ele><time>2026-06-07T08:51:54Z</time><extensions><ns3:TrackPointExtension><ns3:hr>161</ns3:hr><ns3:cad>87</ns3:cad></ns3:TrackPointExtension></extensions></trkpt>
<trkpt lat="56.84358" lon="-4.04263"><ele>526.6</ele><time>2026-06-07T08:52:04Z</time><extensions><ns3:TrackPointExtension><ns3:hr>161</ns3:hr><ns3:cad>85</ns3:cad></ns3:TrackPointExtension></extensions></trkpt>
<trkpt lat="56.84368" lon="-4.04281"><ele>529.3</ele><time>2026-06-07T08:52:14Z</time><extensions><ns3:TrackPointExtension><ns3:hr>159</ns3:hr><ns3:cad>84</ns3:cad></ns3:TrackPointExtension></extensions></trkpt>
<trkpt lat="56.84378" lon="-4.04300"><ele>531.9</ele><time>2026-06-07T08:52:24Z</time><extensions><ns3:TrackPointExtension><ns3:hr>162</ns3:hr><ns3:cad>87</ns3:cad></ns3:TrackPointExtension></extensions></trkpt>
<trkpt lat="56.84388" lon="-4.04317"><ele>534.5</ele><time>2026-06-07T08:52:34Z</time><extensions><ns3:TrackPointExtension><ns3:hr>162</ns3:hr><ns3:cad>86</ns3:cad></ns3:TrackPointExtension></extensions></trkpt>
<trkpt lat="56.84397" lon="-4.04336"><ele>537.1</ele><time>2026-06-07T08:52:44Z</time><extensions><ns3:TrackPointExtension><ns3:hr>160</ns3:hr><ns3:cad>84</ns3:cad></ns3:TrackPointExtension></extensions></trkpt>
<trkpt lat="56.84405" lon="-4.04357"><ele>539.7</ele><time>2026-06-07T08:52:54Z</time><extensions><ns3:TrackPointExtension><ns3:hr>160</ns3:hr><ns3:cad>89</ns3:cad></ns3:TrackPointExtension></extensions></trkpt>
<trkpt lat="56.84413" lon="-4.04377"><ele>542.3</ele><time>2026-06-07T08:53:04Z</time><extensions><ns3:TrackPointExtension><ns3:hr>158</ns3:hr><ns3:cad>85</ns3:cad></ns3:TrackPointExtension></extensions></trkpt>
<trkpt lat="56.84422" lon="-4.04396"><ele>545.0</ele><time>2026-06-07T08:53:14Z</time><extensions><ns3:TrackPointExtension><ns3:hr>159</ns3:hr><ns3:cad>88</ns3:cad></ns3:TrackPointExtension></extensions></trkpt>
<trkpt lat="56.84431" lon="-4.04416"><ele>547.6</ele><time>2026-06-07T08:53:24Z</time><extensions><ns3:TrackPointExtension><ns3:hr>159</ns3:hr><ns3:cad>86</ns3:cad></ns3:TrackPointExtension></extensions></trkpt>
<trkpt lat="56.84439" lon="-4.04436"><ele>550.2</ele><time>2026-06-07T08:53:34Z</time><extensions><ns3:TrackPointExtension><ns3:hr>162</ns3:hr><ns3:cad>88</ns3:cad></ns3:TrackPointExtension></extensions></trkpt>
<trkpt lat="56.84448" lon="-4.04456"><ele>552.8</ele><time>2026-06-07T08:53:44Z</time><extensions><ns3:TrackPointExtension><ns3:hr>162</ns3:hr><ns3:cad>87</ns3:cad></ns3:TrackPointExtension></extensions></trkpt>
<trkpt lat="56.84456" lon="-4.04476"><ele>555.4</ele><time>2026-06-07T08:53:54Z</time><extensions><ns3:TrackPointExtension><ns3:hr>161</ns3:hr><ns3:cad>84</ns3:cad></ns3:TrackPointExtension></extensions></trkpt>
<trkpt lat="56.84463" lon="-4.04498"><ele>558.1</ele><time>2026-06-07T08:54:04Z</time><extensions><ns3:TrackPointExtension><ns3:hr>162</ns3:hr><ns3:cad>87</ns3:cad></ns3:TrackPointExtension></extensions></trkpt>
<trkpt lat="56.84472" lon="-4.04517"><ele>560.7</ele><time>2026-06-07T08:54:14Z</time><extensions><ns3:TrackPointExtension><ns3:hr>158</ns3:hr><ns3:cad>87</ns3:cad></ns3:TrackPointExtension></extensions></trkpt>
<trkpt lat="56.84481" lon="-4.04537"><ele>563.3</ele><time>2026-06-07T08:54:24Z</time><extensions><ns3:TrackPointExtension><ns3:hr>158</ns3:hr><ns3:cad>86</ns3:cad></ns3:TrackPointExtension></extensions></trkpt>
<trkpt lat="56.84490" lon="-4.04556"><ele>565.9</ele><time>2026-06-07T08:54:34Z</time><extensions><ns3:TrackPointExtension><ns3:hr>161</ns3:hr><ns3:cad>86</ns3:cad></ns3:TrackPointExtension></extensions></trkpt>
<trkpt lat="56.84499" lon="-4.04576"><ele>568.5</ele><time>2026-06-07T08:54:44Z</time><extensions><ns3:TrackPointExtension><ns3:hr>158</ns3:hr><ns3:cad>89</ns3:cad></ns3:TrackPointExtension></extensions></trkpt>
<trkpt lat="56.84508" lon="-4.04594"><ele>571.1</ele><time>2026-06-07T08:54:54Z</time><extensions><ns3:TrackPointExtension><ns3:hr>163</ns3:hr><ns3:cad>88</ns3:cad></ns3:TrackPointExtension></extensions></trkpt>
<trkpt lat="56.84517" lon="-4.04614"><ele>573.8</ele><time>2026-06-07T08:55:04Z</time><extensions><ns3:TrackPointExtension><ns3:hr>162</ns3:hr><ns3:cad>84</ns3:cad></ns3:TrackPointExtension></extensions></trkpt>
<trkpt lat="56.84524" lon="-4.04635"><ele>576.4</ele><time>2026-06-07T08:55:14Z</time><extensions><ns3:TrackPointExtension><ns3:hr>159</ns3:hr><ns3:cad>87</ns3:cad></ns3:TrackPointExtension></extensions></trkpt>
<trkpt lat="56.84531" lon="-4.04657"><ele>579.0</ele><time>2026-06-07T08:55:24Z</time><extensions><ns3:TrackPointExtension><ns3:hr>160</ns3:hr><ns3:cad>88</ns3:cad></ns3:TrackPointExtension></extensions></trkpt>
<trkpt lat="56.84539" lon="-4.04678"><ele>581.6</ele><time>2026-06-07T08:55:34Z</time><extensions><ns3:TrackPointExtension><ns3:hr>162</ns3:hr><ns3:cad>88</ns3:cad></ns3:TrackPointExtension></extensions></trkpt>
<trkpt lat="56.84547" lon="-4.04698"><ele>584.2</ele><time>2026-06-07T08:55:44Z</time><extensions><ns3:TrackPointExtension><ns3:hr>159</ns3:hr><ns3:cad>89</ns3:cad></ns3:TrackPointExtension></extensions></trkpt>
<trkpt lat="56.84557" lon="-4.04716"><ele>586.9</ele><time>2026-06-07T08:55:54Z</time><extensions><ns3:TrackPointExtension><ns3:hr>161</ns3:hr><ns3:cad>88</ns3:cad></ns3:TrackPointExtension></extensions></trkpt>
<trkpt lat="56.84561" lon="-4.04725"><ele>588.0</ele><time>2026-06-07T08:55:59Z</time><extensions><ns3:TrackPointExtension><ns3:hr>158</ns3:hr><ns3:cad>87</ns3:cad></ns3:TrackPointExtension></extensions></trkpt>
<trkpt lat="56.84567" lon="-4.04742"><ele>591.0</ele><time>2026-06-07T08:56:09Z</time><extensions><ns3:TrackPointExtension><ns3:hr>161</ns3:hr><ns3:cad>57</ns3:cad></ns3:TrackPointExtension></extensions></trkpt>
<trkpt lat="56.84572" lon="-4.04761"><ele>594.1</ele><time>2026-06-07T08:56:19Z</time><extensions><ns3:TrackPointExtension><ns3:hr>160</ns3:hr><ns3:cad>58</ns3:cad></ns3:TrackPointExtension></extensions></trkpt>
<trkpt lat="56.84576" lon="-4.04780"><ele>597.1</ele><time>2026-06-07T08:56:29Z</time><extensions><ns3:TrackPointExtension><ns3:hr>162</ns3:hr><ns3:cad>59</ns3:cad></ns3:TrackPointExtension></extensions></trkpt>
<trkpt lat="56.84580" lon="-4.04800"><ele>600.1</ele><time>2026-06-07T08:56:39Z</time><extensions><ns3:TrackPointExtension><ns3:hr>161</ns3:hr><ns3:cad>57</ns3:cad></ns3:TrackPointExtension></extensions></trkpt>
<trkpt lat="56.84582" lon="-4.04820"><ele>603.1</ele><time>2026-06-07T08:56:49Z</time><extensions><ns3:TrackPointExtension><ns3:hr>162</ns3:hr><ns3:cad>56</ns3:cad></ns3:TrackPointExtension></extensions></trkpt>
<trkpt lat="56.84583" lon="-4.04841"><ele>606.2</ele><time>2026-06-07T08:56:59Z</time><extensions><ns3:TrackPointExtension><ns3:hr>160</ns3:hr><ns3:cad>58</ns3:cad></ns3:TrackPointExtension></extensions></trkpt>
<trkpt lat="56.84585" lon="-4.04861"><ele>609.2</ele><time>2026-06-07T08:57:09Z</time><extensions><ns3:TrackPointExtension><ns3:hr>163</ns3:hr><ns3:cad>57</ns3:cad></ns3:TrackPointExtension></extensions></trkpt>
<trkpt lat="56.84587" lon="-4.04881"><ele>612.2</ele><time>2026-06-07T08:57:19Z</time><extensions><ns3:TrackPointExtension><ns3:hr>162</ns3:hr><ns3:cad>58</ns3:cad></ns3:TrackPointExtension></extensions></trkpt>
<trkpt lat="56.84588" lon="-4.04902"><ele>615.2</ele><time>2026-06-07T08:57:29Z</time><extensions><ns3:TrackPointExtension><ns3:hr>159</ns3:hr><ns3:cad>57</ns3:cad></ns3:TrackPointExtension></extensions></trkpt>
<trkpt lat="56.84588" lon="-4.04923"><ele>618.3</ele><time>2026-06-07T08:57:39Z</time><extensions><ns3:TrackPointExtension><ns3:hr>158</ns3:hr><ns3:cad>56</ns3:cad></ns3:TrackPointExtension></extensions></trkpt>
<trkpt lat="56.84589" lon="-4.04943"><ele>621.3</ele><time>2026-06-07T08:57:49Z</time><extensions><ns3:TrackPointExtension><ns3:hr>158</ns3:hr><ns3:cad>55</ns3:cad></ns3:TrackPointExtension></extensions></trkpt>
<trkpt lat="56.84590" lon="-4.04964"><ele>624.3</ele><time>2026-06-07T08:57:59Z</time><extensions><ns3:TrackPointExtension><ns3:hr>158</ns3:hr><ns3:cad>57</ns3:cad></ns3:TrackPointExtension></extensions></trkpt>
<trkpt lat="56.84590" lon="-4.04985"><ele>627.3</ele><time>2026-06-07T08:58:09Z</time><extensions><ns3:TrackPointExtension><ns3:hr>160</ns3:hr><ns3:cad>55</ns3:cad></ns3:TrackPointExtension></extensions></trkpt>
<trkpt lat="56.84588" lon="-4.05005"><ele>630.4</ele><time>2026-06-07T08:58:19Z</time><extensions><ns3:TrackPointExtension><ns3:hr>158</ns3:hr><ns3:cad>56</ns3:cad></ns3:TrackPointExtension></extensions></trkpt>
<trkpt lat="56.84588" lon="-4.05026"><ele>633.4</ele><time>2026-06-07T08:58:29Z</time><extensions><ns3:TrackPointExtension><ns3:hr>161</ns3:hr><ns3:cad>55</ns3:cad></ns3:TrackPointExtension></extensions></trkpt>
<trkpt lat="56.84587" lon="-4.05047"><ele>636.4</ele><time>2026-06-07T08:58:39Z</time><extensions><ns3:TrackPointExtension><ns3:hr>160</ns3:hr><ns3:cad>54</ns3:cad></ns3:TrackPointExtension></extensions></trkpt>
<trkpt lat="56.84585" lon="-4.05067"><ele>639.4</ele><time>2026-06-07T08:58:49Z</time><extensions><ns3:TrackPointExtension><ns3:hr>161</ns3:hr><ns3:cad>59</ns3:cad></ns3:TrackPointExtension></extensions></trkpt>
<trkpt lat="56.84582" lon="-4.05087"><ele>642.5</ele><time>2026-06-07T08:58:59Z</time><extensions><ns3:TrackPointExtension><ns3:hr>160</ns3:hr><ns3:cad>57</ns3:cad></ns3:TrackPointExtension></extensions></trkpt>
<trkpt lat="56.84581" lon="-4.05108"><ele>645.5</ele><time>2026-06-07T08:59:09Z</time><extensions><ns3:TrackPointExtension><ns3:hr>162</ns3:hr><ns3:cad>56</ns3:cad></ns3:TrackPointExtension></extensions></trkpt>
<trkpt lat="56.84580" lon="-4.05128"><ele>648.5</ele><time>2026-06-07T08:59:19Z</time><extensions><ns3:TrackPointExtension><ns3:hr>163</ns3:hr><ns3:cad>54</ns3:cad></ns3:TrackPointExtension></extensions></trkpt>
<trkpt lat="56.84580" lon="-4.05149"><ele>651.5</ele><time>2026-06-07T08:59:29Z</time><extensions><ns3:TrackPointExtension><ns3:hr>158</ns3:hr><ns3:cad>58</ns3:cad></ns3:TrackPointExtension></extensions></trkpt>
<trkpt lat="56.84579" lon="-4.05170"><ele>654.6</ele><time>2026-06-07T08:59:39Z</time><extensions><ns3:TrackPointExtension><ns3:hr>162</ns3:hr><ns3:cad>56</ns3:cad></ns3:TrackPointExtension></extensions></trkpt>
<trkpt lat="56.84577" lon="-4.05190"><ele>657.6</ele><time>2026-06-07T08:59:49Z</time><extensions><ns3:TrackPointExtension><ns3:hr>160</ns3:hr><ns3:cad>57</ns3:cad></ns3:TrackPointExtension></extensions></trkpt>
<trkpt lat="56.84575" lon="-4.05211"><ele>660.6</ele><time>2026-06-07T08:59:59Z</time><extensions><ns3:TrackPointExtension><ns3:hr>159</ns3:hr><ns3:cad>55</ns3:cad></ns3:TrackPointExtension></extensions></trkpt>
<trkpt lat="56.84573" lon="-4.05231"><ele>663.6</ele><time>2026-06-07T09:00:09Z</time><extensions><ns3:TrackPointExtension><ns3:hr>160</ns3:hr><ns3:cad>56</ns3:cad></ns3:TrackPointExtension></extensions></trkpt>
<trkpt lat="56.84571" lon="-4.05251"><ele>666.7</ele><time>2026-06-07T09:00:19Z</time><extensions><ns3:TrackPointExtension><ns3:hr>159</ns3:hr><ns3:cad>55</ns3:cad></ns3:TrackPointExtension></extensions></trkpt>
<trkpt lat="56.84569" lon="-4.05272"><ele>669.7</ele><time>2026-06-07T09:00:29Z</time><extensions><ns3:TrackPointExtension><ns3:hr>160</ns3:hr><ns3:cad>55</ns3:cad></ns3:TrackPointExtension></extensions></trkpt>
<trkpt lat="56.84567" lon="-4.05292"><ele>672.7</ele><time>2026-06-07T09:00:39Z</time><extensions><ns3:TrackPointExtension><ns3:hr>160</ns3:hr><ns3:cad>55</ns3:cad></ns3:TrackPointExtension></extensions></trkpt>
<trkpt lat="56.84564" lon="-4.05312"><ele>675.7</ele><time>2026-06-07T09:00:49Z</time><extensions><ns3:TrackPointExtension><ns3:hr>163</ns3:hr><ns3:cad>54</ns3:cad></ns3:TrackPointExtension></extensions></trkpt>
<trkpt lat="56.84562" lon="-4.05332"><ele>678.8</ele><time>2026-06-07T09:00:59Z</time><extensions><ns3:TrackPointExtension><ns3:hr>159</ns3:hr><ns3:cad>56</ns3:cad></ns3:TrackPointExtension></extensions></trkpt>
<trkpt lat="56.84559" lon="-4.05352"><ele>681.8</ele><time>2026-06-07T09:01:09Z</time><extensions><ns3:TrackPointExtension><ns3:hr>159</ns3:hr><ns3:cad>57</ns3:cad></ns3:TrackPointExtension></extensions></trkpt>
<trkpt lat="56.84555" lon="-4.05372"><ele>684.8</ele><time>2026-06-07T09:01:19Z</time><extensions><ns3:TrackPointExtension><ns3:hr>160</ns3:hr><ns3:cad>58</ns3:cad></ns3:TrackPointExtension></extensions></trkpt>
<trkpt lat="56.84552" lon="-4.05392"><ele>687.8</ele><time>2026-06-07T09:01:29Z</time><extensions><ns3:TrackPointExtension><ns3:hr>163</ns3:hr><ns3:cad>58</ns3:cad></ns3:TrackPointExtension></extensions></trkpt>
<trkpt lat="56.84547" lon="-4.05411"><ele>690.9</ele><time>2026-06-07T09:01:39Z</time><extensions><ns3:TrackPointExtension><ns3:hr>159</ns3:hr><ns3:cad>55</ns3:cad></ns3:TrackPointExtension></extensions></trkpt>
<trkpt lat="56.84543" lon="-4.05430"><ele>693.9</ele><time>2026-06-07T09:01:49Z</time><extensions><ns3:TrackPointExtension><ns3:hr>162</ns3:hr><ns3:cad>56</ns3:cad></ns3:TrackPointExtension></extensions></trkpt>
<trkpt lat="56.84539" lon="-4.05449"><ele>696.9</ele><time>2026-06-07T09:01:59Z</time><extensions><ns3:TrackPointExtension><ns3:hr>160</ns3:hr><ns3:cad>54</ns3:cad></ns3:TrackPointExtension></extensions></trkpt>
<trkpt lat="56.84535" lon="-4.05468"><ele>699.9</ele><time>2026-06-07T09:02:09Z</time><extensions><ns3:TrackPointExtension><ns3:hr>159</ns3:hr><ns3:cad>57</ns3:cad></ns3:TrackPointExtension></extensions></trkpt>
<trkpt lat="56.84530" lon="-4.05487"><ele>703.0</ele><time>2026-06-07T09:02:19Z</time><extensions><ns3:TrackPointExtension><ns3:hr>162</ns3:hr><ns3:cad>55</ns3:cad></ns3:TrackPointExtension></extensions></trkpt>
<trkpt lat="56.84524" lon="-4.05505"><ele>706.0</ele><time>2026-06-07T09:02:29Z</time><extensions><ns3:TrackPointExtension><ns3:hr>160</ns3:hr><ns3:cad>58</ns3:cad></ns3:TrackPointExtension></extensions></trkpt>
<trkpt lat="56.84518" lon="-4.05522"><ele>709.0</ele><time>2026-06-07T09:02:39Z</time><extensions><ns3:TrackPointExtension><ns3:hr>158</ns3:hr><ns3:cad>58</ns3:cad></ns3:TrackPointExtension></extensions></trkpt>
<trkpt lat="56.84512" lon="-4.05539"><ele>712.0</ele><time>2026-06-07T09:02:49Z</time><extensions><ns3:TrackPointExtension><ns3:hr>162</ns3:hr><ns3:cad>58</ns3:cad></ns3:TrackPointExtension></extensions></trkpt>
<trkpt lat="56.84506" lon="-4.05557"><ele>715.1</ele><time>2026-06-07T09:02:59Z</time><extensions><ns3:TrackPointExtension><ns3:hr>158</ns3:hr><ns3:cad>55</ns3:cad></ns3:TrackPointExtension></extensions></trkpt>
<trkpt lat="56.84501" lon="-4.05576"><ele>718.1</ele><time>2026-06-07T09:03:09Z</time><extensions><ns3:TrackPointExtension><ns3:hr>161</ns3:hr><ns3:cad>55</ns3:cad></ns3:TrackPointExtension></extensions></trkpt>
<trkpt lat="56.84496" lon="-4.05595"><ele>721.1</ele><time>2026-06-07T09:03:19Z</time><extensions><ns3:TrackPointExtension><ns3:hr>159</ns3:hr><ns3:cad>55</ns3:cad></ns3:TrackPointExtension></extensions></trkpt>
<trkpt lat="56.84492" lon="-4.05614"><ele>724.1</ele><time>2026-06-07T09:03:29Z</time><extensions><ns3:TrackPointExtension><ns3:hr>162</ns3:hr><ns3:cad>57</ns3:cad></ns3:TrackPointExtension></extensions></trkpt>
<trkpt lat="56.84488" lon="-4.05633"><ele>727.2</ele><time>2026-06-07T09:03:39Z</time><extensions><ns3:TrackPointExtension><ns3:hr>162</ns3:hr><ns3:cad>59</ns3:cad></ns3:TrackPointExtension></extensions></trkpt>
<trkpt lat="56.84483" lon="-4.05652"><ele>730.2</ele><time>2026-06-07T09:03:49Z</time><extensions><ns3:TrackPointExtension><ns3:hr>159</ns3:hr><ns3:cad>57</ns3:cad></ns3:TrackPointExtension></extensions></trkpt>
<trkpt lat="56.84479" lon="-4.05662"><ele>732.0</ele><time>2026-06-07T09:03:55Z</time><extensions><ns3:TrackPointExtension><ns3:hr>158</ns3:hr><ns3:cad>56</ns3:cad></ns3:TrackPointExtension></extensions></trkpt>
<trkpt lat="56.84465" lon="-4.05705"><ele>728.3</ele><time>2026-06-07T09:04:05Z</time><extensions><ns3:TrackPointExtension><ns3:hr>159</ns3:hr><ns3:cad>86</ns3:cad></ns3:TrackPointExtension></extensions></trkpt>
<trkpt lat="56.84449" lon="-4.05748"><ele>724.6</ele><time>2026-06-07T09:04:15Z</time><extensions><ns3:TrackPointExtension><ns3:hr>162</ns3:hr><ns3:cad>88</ns3:cad></ns3:TrackPointExtension></extensions></trkpt>
<trkpt lat="56.84434" lon="-4.05791"><ele>720.8</ele><time>2026-06-07T09:04:25Z</time><extensions><ns3:TrackPointExtension><ns3:hr>159</ns3:hr><ns3:cad>85</ns3:cad></ns3:TrackPointExtension></extensions></trkpt>
<trkpt lat="56.84421" lon="-4.05835"><ele>717.1</ele><time>2026-06-07T09:04:35Z</time><extensions><ns3:TrackPointExtension><ns3:hr>160</ns3:hr><ns3:cad>86</ns3:cad></ns3:TrackPointExtension></extensions></trkpt>
<trkpt lat="56.84408" lon="-4.05881"><ele>713.4</ele><time>2026-06-07T09:04:45Z</time><extensions><ns3:TrackPointExtension><ns3:hr>159</ns3:hr><ns3:cad>85</ns3:cad></ns3:TrackPointExtension></extensions></trkpt>
<trkpt lat="56.84398" lon="-4.05928"><ele>709.7</ele><time>2026-06-07T09:04:55Z</time><extensions><ns3:TrackPointExtension><ns3:hr>162</ns3:hr><ns3:cad>85</ns3:cad></ns3:TrackPointExtension></extensions></trkpt>
<trkpt lat="56.84386" lon="-4.05974"><ele>705.9</ele><time>2026-06-07T09:05:05Z</time><extensions><ns3:TrackPointExtension><ns3:hr>162</ns3:hr><ns3:cad>87</ns3:cad></ns3:TrackPointExtension></extensions></trkpt>
<trkpt lat="56.84373" lon="-4.06019"><ele>702.2</ele><time>2026-06-07T09:05:15Z</time><extensions><ns3:TrackPointExtension><ns3:hr>159</ns3:hr><ns3:cad>85</ns3:cad></ns3:TrackPointExtension></extensions></trkpt>
<trkpt lat="56.84359" lon="-4.06064"><ele>698.5</ele><time>2026-06-07T09:05:25Z</time><extensions><ns3:TrackPointExtension><ns3:hr>162</ns3:hr><ns3:cad>85</ns3:cad></ns3:TrackPointExtension></extensions></trkpt>
<trkpt lat="56.84344" lon="-4.06106"><ele>694.8</ele><time>2026-06-07T09:05:35Z</time><extensions><ns3:TrackPointExtension><ns3:hr>161</ns3:hr><ns3:cad>87</ns3:cad></ns3:TrackPointExtension></extensions></trkpt>
<trkpt lat="56.84330" lon="-4.06151"><ele>691.1</ele><time>2026-06-07T09:05:45Z</time><extensions><ns3:TrackPointExtension><ns3:hr>162</ns3:hr><ns3:cad>86</ns3:cad></ns3:TrackPointExtension></extensions></trkpt>
<trkpt lat="56.84314" lon="-4.06192"><ele>687.3</ele><time>2026-06-07T09:05:55Z</time><extensions><ns3:TrackPointExtension><ns3:hr>158</ns3:hr><ns3:cad>87</ns3:cad></ns3:TrackPointExtension></extensions></trkpt>
<trkpt lat="56.84297" lon="-4.06232"><ele>683.6</ele><time>2026-06-07T09:06:05Z</time><extensions><ns3:TrackPointExtension><ns3:hr>160</ns3:hr><ns3:cad>85</ns3:cad></ns3:TrackPointExtension></extensions></trkpt>
<trkpt lat="56.84279" lon="-4.06272"><ele>679.9</ele><time>2026-06-07T09:06:15Z</time><extensions><ns3:TrackPointExtension><ns3:hr>160</ns3:hr><ns3:cad>85</ns3:cad></ns3:TrackPointExtension></extensions></trkpt>
<trkpt lat="56.84262" lon="-4.06313"><ele>676.2</ele><time>2026-06-07T09:06:25Z</time><extensions><ns3:TrackPointExtension><ns3:hr>160</ns3:hr><ns3:cad>89</ns3:cad></ns3:TrackPointExtension></extensions></trkpt>
<trkpt lat="56.84244" lon="-4.06350"><ele>672.4</ele><time>2026-06-07T09:06:35Z</time><extensions><ns3:TrackPointExtension><ns3:hr>160</ns3:hr><ns3:cad>85</ns3:cad></ns3:TrackPointExtension></extensions></trkpt>
<trkpt lat="56.84224" lon="-4.06387"><ele>668.7</ele><time>2026-06-07T09:06:45Z</time><extensions><ns3:TrackPointExtension><ns3:hr>161</ns3:hr><ns3:cad>85</ns3:cad></ns3:TrackPointExtension></extensions></trkpt>
<trkpt lat="56.84205" lon="-4.06424"><ele>665.0</ele><time>2026-06-07T09:06:55Z</time><extensions><ns3:TrackPointExtension><ns3:hr>160</ns3:hr><ns3:cad>85</ns3:cad></ns3:TrackPointExtension></extensions></trkpt>
<trkpt lat="56.84186" lon="-4.06460"><ele>661.3</ele><time>2026-06-07T09:07:05Z</time><extensions><ns3:TrackPointExtension><ns3:hr>160</ns3:hr><ns3:cad>88</ns3:cad></ns3:TrackPointExtension></extensions></trkpt>
<trkpt lat="56.84168" lon="-4.06500"><ele>657.6</ele><time>2026-06-07T09:07:15Z</time><extensions><ns3:TrackPointExtension><ns3:hr>160</ns3:hr><ns3:cad>87</ns3:cad></ns3:TrackPointExtension></extensions></trkpt>
<trkpt lat="56.84153" lon="-4.06543"><ele>653.8</ele><time>2026-06-07T09:07:25Z</time><extensions><ns3:TrackPointExtension><ns3:hr>161</ns3:hr><ns3:cad>88</ns3:cad></ns3:TrackPointExtension></extensions></trkpt>
<trkpt lat="56.84137" lon="-4.06585"><ele>650.1</ele><time>2026-06-07T09:07:35Z</time><extensions><ns3:TrackPointExtension><ns3:hr>162</ns3:hr><ns3:cad>87</ns3:cad></ns3:TrackPointExtension></extensions></trkpt>
<trkpt lat="56.84129" lon="-4.06609"><ele>648.0</ele><time>2026-06-07T09:07:40Z</time><extensions><ns3:TrackPointExtension><ns3:hr>161</ns3:hr><ns3:cad>88</ns3:cad></ns3:TrackPointExtension></extensions></trkpt>
<trkpt lat="56.84116" lon="-4.06655"><ele>645.1</ele><time>2026-06-07T09:07:50Z</time><extensions><ns3:TrackPointExtension><ns3:hr>161</ns3:hr><ns3:cad>84</ns3:cad></ns3:TrackPointExtension></extensions></trkpt>
<trkpt lat="56.84103" lon="-4.06702"><ele>642.3</ele><time>2026-06-07T09:08:00Z</time><extensions><ns3:TrackPointExtension><ns3:hr>161</ns3:hr><ns3:cad>88</ns3:cad></ns3:TrackPointExtension></extensions></trkpt>
<trkpt lat="56.84089" lon="-4.06748"><ele>639.4</ele><time>2026-06-07T09:08:10Z</time><extensions><ns3:TrackPointExtension><ns3:hr>162</ns3:hr><ns3:cad>84</ns3:cad></ns3:TrackPointExtension></extensions></trkpt>
<trkpt lat="56.84077" lon="-4.06795"><ele>636.5</ele><time>2026-06-07T09:08:20Z</time><extensions><ns3:TrackPointExtension><ns3:hr>163</ns3:hr><ns3:cad>89</ns3:cad></ns3:TrackPointExtension></extensions></trkpt>
<trkpt lat="56.84063" lon="-4.06841"><ele>633.7</ele><time>2026-06-07T09:08:30Z</time><extensions><ns3:TrackPointExtension><ns3:hr>162</ns3:hr><ns3:cad>88</ns3:cad></ns3:TrackPointExtension></extensions></trkpt>
<trkpt lat="56.84049" lon="-4.06886"><ele>630.8</ele><time>2026-06-07T09:08:40Z</time><extensions><ns3:TrackPointExtension><ns3:hr>159</ns3:hr><ns3:cad>87</ns3:cad></ns3:TrackPointExtension></extensions></trkpt>
<trkpt lat="56.84035" lon="-4.06931"><ele>628.0</ele><time>2026-06-07T09:08:50Z</time><extensions><ns3:TrackPointExtension><ns3:hr>161</ns3:hr><ns3:cad>86</ns3:cad></ns3:TrackPointExtension></extensions></trkpt>
<trkpt lat="56.84020" lon="-4.06977"><ele>625.1</ele><time>2026-06-07T09:09:00Z</time><extensions><ns3:TrackPointExtension><ns3:hr>163</ns3:hr><ns3:cad>85</ns3:cad></ns3:TrackPointExtension></extensions></trkpt>
<trkpt lat="56.84009" lon="-4.07024"><ele>622.2</ele><time>2026-06-07T09:09:10Z</time><extensions><ns3:TrackPointExtension><ns3:hr>163</ns3:hr><ns3:cad>85</ns3:cad></ns3:TrackPointExtension></extensions></trkpt>
<trkpt lat="56.83998" lon="-4.07073"><ele>619.4</ele><time>2026-06-07T09:09:20Z</time><extensions><ns3:TrackPointExtension><ns3:hr>159</ns3:hr><ns3:cad>89</ns3:cad></ns3:TrackPointExtension></extensions></trkpt>
<trkpt lat="56.83987" lon="-4.07121"><ele>616.5</ele><time>2026-06-07T09:09:30Z</time><extensions><ns3:TrackPointExtension><ns3:hr>159</ns3:hr><ns3:cad>86</ns3:cad></ns3:TrackPointExtension></extensions></trkpt>
<trkpt lat="56.83978" lon="-4.07171"><ele>613.6</ele><time>2026-06-07T09:09:40Z</time><extensions><ns3:TrackPointExtension><ns3:hr>159</ns3:hr><ns3:cad>88</ns3:cad></ns3:TrackPointExtension></extensions></trkpt>
<trkpt lat="56.83968" lon="-4.07220"><ele>610.8</ele><time>2026-06-07T09:09:50Z</time><extensions><ns3:TrackPointExtension><ns3:hr>159</ns3:hr><ns3:cad>89</ns3:cad></ns3:TrackPointExtension></extensions></trkpt>
<trkpt lat="56.83962" lon="-4.07271"><ele>607.9</ele><time>2026-06-07T09:10:00Z</time><extensions><ns3:TrackPointExtension><ns3:hr>159</ns3:hr><ns3:cad>88</ns3:cad></ns3:TrackPointExtension></extensions></trkpt>
<trkpt lat="56.83958" lon="-4.07323"><ele>605.0</ele><time>2026-06-07T09:10:10Z</time><extensions><ns3:TrackPointExtension><ns3:hr>162</ns3:hr><ns3:cad>88</ns3:cad></ns3:TrackPointExtension></extensions></trkpt>
<trkpt lat="56.83956" lon="-4.07375"><ele>602.2</ele><time>2026-06-07T09:10:20Z</time><extensions><ns3:TrackPointExtension><ns3:hr>160</ns3:hr><ns3:cad>86</ns3:cad></ns3:TrackPointExtension></extensions></trkpt>
<trkpt lat="56.83953" lon="-4.07427"><ele>599.3</ele><time>2026-06-07T09:10:30Z</time><extensions><ns3:TrackPointExtension><ns3:hr>160</ns3:hr><ns3:cad>86</ns3:cad></ns3:TrackPointExtension></extensions></trkpt>
<trkpt lat="56.83949" lon="-4.07479"><ele>596.5</ele><time>2026-06-07T09:10:40Z</time><extensions><ns3:TrackPointExtension><ns3:hr>160</ns3:hr><ns3:cad>86</ns3:cad></ns3:TrackPointExtension></extensions></trkpt>
<trkpt lat="56.83944" lon="-4.07530"><ele>593.6</ele><time>2026-06-07T09:10:50Z</time><extensions><ns3:TrackPointExtension><ns3:hr>160</ns3:hr><ns3:cad>87</ns3:cad></ns3:TrackPointExtension></extensions></trkpt>
<trkpt lat="56.83936" lon="-4.07580"><ele>590.7</ele><time>2026-06-07T09:11:00Z</time><extensions><ns3:TrackPointExtension><ns3:hr>162</ns3:hr><ns3:cad>86</ns3:cad></ns3:TrackPointExtension></extensions></trkpt>
<trkpt lat="56.83925" lon="-4.07628"><ele>587.9</ele><time>2026-06-07T09:11:10Z</time><extensions><ns3:TrackPointExtension><ns3:hr>161</ns3:hr><ns3:cad>88</ns3:cad></ns3:TrackPointExtension></extensions></trkpt>
<trkpt lat="56.83911" lon="-4.07674"><ele>585.0</ele><time>2026-06-07T09:11:20Z</time><extensions><ns3:TrackPointExtension><ns3:hr>161</ns3:hr><ns3:cad>85</ns3:cad></ns3:TrackPointExtension></extensions></trkpt>
<trkpt lat="56.83895" lon="-4.07718"><ele>582.1</ele><time>2026-06-07T09:11:30Z</time><extensions><ns3:TrackPointExtension><ns3:hr>162</ns3:hr><ns3:cad>85</ns3:cad></ns3:TrackPointExtension></extensions></trkpt>
<trkpt lat="56.83877" lon="-4.07758"><ele>579.3</ele><time>2026-06-07T09:11:40Z</time><extensions><ns3:TrackPointExtension><ns3:hr>162</ns3:hr><ns3:cad>86</ns3:cad></ns3:TrackPointExtension></extensions></trkpt>
<trkpt lat="56.83857" lon="-4.07796"><ele>576.4</ele><time>2026-06-07T09:11:50Z</time><extensions><ns3:TrackPointExtension><ns3:hr>163</ns3:hr><ns3:cad>89</ns3:cad></ns3:TrackPointExtension></extensions></trkpt>
<trkpt lat="56.83837" lon="-4.07833"><ele>573.5</ele><time>2026-06-07T09:12:00Z</time><extensions><ns3:TrackPointExtension><ns3:hr>159</ns3:hr><ns3:cad>87</ns3:cad></ns3:TrackPointExtension></extensions></trkpt>
<trkpt lat="56.83817" lon="-4.07870"><ele>570.7</ele><time>2026-06-07T09:12:10Z</time><extensions><ns3:TrackPointExtension><ns3:hr>159</ns3:hr><ns3:cad>88</ns3:cad></ns3:TrackPointExtension></extensions></trkpt>
<trkpt lat="56.83799" lon="-4.07910"><ele>567.8</ele><time>2026-06-07T09:12:20Z</time><extensions><ns3:TrackPointExtension><ns3:hr>159</ns3:hr><ns3:cad>86</ns3:cad></ns3:TrackPointExtension></extensions></trkpt>
<trkpt lat="56.83780" lon="-4.07950"><ele>564.9</ele><time>2026-06-07T09:12:30Z</time><extensions><ns3:TrackPointExtension><ns3:hr>163</ns3:hr><ns3:cad>87</ns3:cad></ns3:TrackPointExtension></extensions></trkpt>
<trkpt lat="56.83762" lon="-4.07990"><ele>562.1</ele><time>2026-06-07T09:12:40Z</time><extensions><ns3:TrackPointExtension><ns3:hr>159</ns3:hr><ns3:cad>86</ns3:cad></ns3:TrackPointExtension></extensions></trkpt>
<trkpt lat="56.83743" lon="-4.08030"><ele>559.2</ele><time>2026-06-07T09:12:50Z</time><extensions><ns3:TrackPointExtension><ns3:hr>162</ns3:hr><ns3:cad>88</ns3:cad></ns3:TrackPointExtension></extensions></trkpt>
<trkpt lat="56.83723" lon="-4.08065"><ele>556.4</ele><time>2026-06-07T09:13:00Z</time><extensions><ns3:TrackPointExtension><ns3:hr>161</ns3:hr><ns3:cad>87</ns3:cad></ns3:TrackPointExtension></extensions></trkpt>
<trkpt lat="56.83701" lon="-4.08101"><ele>553.5</ele><time>2026-06-07T09:13:10Z</time><extensions><ns3:TrackPointExtension><ns3:hr>162</ns3:hr><ns3:cad>85</ns3:cad></ns3:TrackPointExtension></extensions></trkpt>
<trkpt lat="56.83681" lon="-4.08138"><ele>550.6</ele><time>2026-06-07T09:13:20Z</time><extensions><ns3:TrackPointExtension><ns3:hr>160</ns3:hr><ns3:cad>88</ns3:cad></ns3:TrackPointExtension></extensions></trkpt>
<trkpt lat="56.83663" lon="-4.08178"><ele>547.8</ele><time>2026-06-07T09:13:30Z</time><extensions><ns3:TrackPointExtension><ns3:hr>160</ns3:hr><ns3:cad>87</ns3:cad></ns3:TrackPointExtension></extensions></trkpt>
<trkpt lat="56.83642" lon="-4.08214"><ele>544.9</ele><time>2026-06-07T09:13:40Z</time><extensions><ns3:TrackPointExtension><ns3:hr>161</ns3:hr><ns3:cad>87</ns3:cad></ns3:TrackPointExtension></extensions></trkpt>
<trkpt lat="56.83623" lon="-4.08252"><ele>542.0</ele><time>2026-06-07T09:13:50Z</time><extensions><ns3:TrackPointExtension><ns3:hr>163</ns3:hr><ns3:cad>88</ns3:cad></ns3:TrackPointExtension></extensions></trkpt>
<trkpt lat="56.83607" lon="-4.08276"><ele>540.0</ele><time>2026-06-07T09:13:58Z</time><extensions><ns3:TrackPointExtension><ns3:hr>161</ns3:hr><ns3:cad>85</ns3:cad></ns3:TrackPointExtension></extensions></trkpt>
<trkpt lat="56.83590" lon="-4.08298"><ele>541.4</ele><time>2026-06-07T09:14:08Z</time><extensions><ns3:TrackPointExtension><ns3:hr>159</ns3:hr><ns3:cad>87</ns3:cad></ns3:TrackPointExtension></extensions></trkpt>
<trkpt lat="56.83573" lon="-4.08323"><ele>542.8</ele><time>2026-06-07T09:14:18Z</time><extensions><ns3:TrackPointExtension><ns3:hr>160</ns3:hr><ns3:cad>86</ns3:cad></ns3:TrackPointExtension></extensions></trkpt>
<trkpt lat="56.83558" lon="-4.08351"><ele>544.3</ele><time>2026-06-07T09:14:28Z</time><extensions><ns3:TrackPointExtension><ns3:hr>163</ns3:hr><ns3:cad>84</ns3:cad></ns3:TrackPointExtension></extensions></trkpt>
<trkpt lat="56.83546" lon="-4.08382"><ele>545.7</ele><time>2026-06-07T09:14:38Z</time><extensions><ns3:TrackPointExtension><ns3:hr>161</ns3:hr><ns3:cad>86</ns3:cad></ns3:TrackPointExtension></extensions></trkpt>
<trkpt lat="56.83531" lon="-4.08411"><ele>547.1</ele><time>2026-06-07T09:14:48Z</time><extensions><ns3:TrackPointExtension><ns3:hr>163</ns3:hr><ns3:cad>87</ns3:cad></ns3:TrackPointExtension></extensions></trkpt>
<trkpt lat="56.83516" lon="-4.08438"><ele>548.5</ele><time>2026-06-07T09:14:58Z</time><extensions><ns3:TrackPointExtension><ns3:hr>159</ns3:hr><ns3:cad>88</ns3:cad></ns3:TrackPointExtension></extensions></trkpt>
<trkpt lat="56.83502" lon="-4.08468"><ele>550.0</ele><time>2026-06-07T09:15:08Z</time><extensions><ns3:TrackPointExtension><ns3:hr>162</ns3:hr><ns3:cad>86</ns3:cad></ns3:TrackPointExtension></extensions></trkpt>
<trkpt lat="56.83489" lon="-4.08498"><ele>551.4</ele><time>2026-06-07T09:15:18Z</time><extensions><ns3:TrackPointExtension><ns3:hr>161</ns3:hr><ns3:cad>88</ns3:cad></ns3:TrackPointExtension></extensions></trkpt>
<trkpt lat="56.83474" lon="-4.08526"><ele>552.8</ele><time>2026-06-07T09:15:28Z</time><extensions><ns3:TrackPointExtension><ns3:hr>163</ns3:hr><ns3:cad>86</ns3:cad></ns3:TrackPointExtension></extensions></trkpt>
<trkpt lat="56.83458" lon="-4.08552"><ele>554.2</ele><time>2026-06-07T09:15:38Z</time><extensions><ns3:TrackPointExtension><ns3:hr>159</ns3:hr><ns3:cad>89</ns3:cad></ns3:TrackPointExtension></extensions></trkpt>
<trkpt lat="56.83442" lon="-4.08578"><ele>555.6</ele><time>2026-06-07T09:15:48Z</time><extensions><ns3:TrackPointExtension><ns3:hr>162</ns3:hr><ns3:cad>89</ns3:cad></ns3:TrackPointExtension></extensions></trkpt>
<trkpt lat="56.83428" lon="-4.08607"><ele>557.1</ele><time>2026-06-07T09:15:58Z</time><extensions><ns3:TrackPointExtension><ns3:hr>162</ns3:hr><ns3:cad>85</ns3:cad></ns3:TrackPointExtension></extensions></trkpt>
<trkpt lat="56.83413" lon="-4.08635"><ele>558.5</ele><time>2026-06-07T09:16:08Z</time><extensions><ns3:TrackPointExtension><ns3:hr>163</ns3:hr><ns3:cad>85</ns3:cad></ns3:TrackPointExtension></extensions></trkpt>
<trkpt lat="56.83399" lon="-4.08665"><ele>559.9</ele><time>2026-06-07T09:16:18Z</time><extensions><ns3:TrackPointExtension><ns3:hr>161</ns3:hr><ns3:cad>88</ns3:cad></ns3:TrackPointExtension></extensions></trkpt>
<trkpt lat="56.83386" lon="-4.08695"><ele>561.3</ele><time>2026-06-07T09:16:28Z</time><extensions><ns3:TrackPointExtension><ns3:hr>163</ns3:hr><ns3:cad>85</ns3:cad></ns3:TrackPointExtension></extensions></trkpt>
<trkpt lat="56.83373" lon="-4.08726"><ele>562.8</ele><time>2026-06-07T09:16:38Z</time><extensions><ns3:TrackPointExtension><ns3:hr>159</ns3:hr><ns3:cad>85</ns3:cad></ns3:TrackPointExtension></extensions></trkpt>
<trkpt lat="56.83359" lon="-4.08754"><ele>564.2</ele><time>2026-06-07T09:16:48Z</time><extensions><ns3:TrackPointExtension><ns3:hr>162</ns3:hr><ns3:cad>88</ns3:cad></ns3:TrackPointExtension></extensions></trkpt>
<trkpt lat="56.83344" lon="-4.08782"><ele>565.6</ele><time>2026-06-07T09:16:58Z</time><extensions><ns3:TrackPointExtension><ns3:hr>163</ns3:hr><ns3:cad>86</ns3:cad></ns3:TrackPointExtension></extensions></trkpt>
<trkpt lat="56.83329" lon="-4.08810"><ele>567.0</ele><time>2026-06-07T09:17:08Z</time><extensions><ns3:TrackPointExtension><ns3:hr>164</ns3:hr><ns3:cad>85</ns3:cad></ns3:TrackPointExtension></extensions></trkpt>
<trkpt lat="56.83313" lon="-4.08835"><ele>568.5</ele><time>2026-06-07T09:17:18Z</time><extensions><ns3:TrackPointExtension><ns3:hr>160</ns3:hr><ns3:cad>86</ns3:cad></ns3:TrackPointExtension></extensions></trkpt>
<trkpt lat="56.83296" lon="-4.08858"><ele>569.9</ele><time>2026-06-07T09:17:28Z</time><extensions><ns3:TrackPointExtension><ns3:hr>160</ns3:hr><ns3:cad>87</ns3:cad></ns3:TrackPointExtension></extensions></trkpt>
<trkpt lat="56.83277" lon="-4.08878"><ele>571.3</ele><time>2026-06-07T09:17:38Z</time><extensions><ns3:TrackPointExtension><ns3:hr>161</ns3:hr><ns3:cad>84</ns3:cad></ns3:TrackPointExtension></extensions></trkpt>
<trkpt lat="56.83260" lon="-4.08901"><ele>572.7</ele><time>2026-06-07T09:17:48Z</time><extensions><ns3:TrackPointExtension><ns3:hr>163</ns3:hr><ns3:cad>86</ns3:cad></ns3:TrackPointExtension></extensions></trkpt>
<trkpt lat="56.83243" lon="-4.08924"><ele>574.1</ele><time>2026-06-07T09:17:58Z</time><extensions><ns3:TrackPointExtension><ns3:hr>161</ns3:hr><ns3:cad>88</ns3:cad></ns3:TrackPointExtension></extensions></trkpt>
<trkpt lat="56.83227" lon="-4.08950"><ele>575.6</ele><time>2026-06-07T09:18:08Z</time><extensions><ns3:TrackPointExtension><ns3:hr>163</ns3:hr><ns3:cad>87</ns3:cad></ns3:TrackPointExtension></extensions></trkpt>
<trkpt lat="56.83210" lon="-4.08973"><ele>577.0</ele><time>2026-06-07T09:18:18Z</time><extensions><ns3:TrackPointExtension><ns3:hr>159</ns3:hr><ns3:cad>87</ns3:cad></ns3:TrackPointExtension></extensions></trkpt>
<trkpt lat="56.83192" lon="-4.08994"><ele>578.4</ele><time>2026-06-07T09:18:28Z</time><extensions><ns3:TrackPointExtension><ns3:hr>161</ns3:hr><ns3:cad>87</ns3:cad></ns3:TrackPointExtension></extensions></trkpt>
<trkpt lat="56.83174" lon="-4.09014"><ele>579.8</ele><time>2026-06-07T09:18:38Z</time><extensions><ns3:TrackPointExtension><ns3:hr>160</ns3:hr><ns3:cad>86</ns3:cad></ns3:TrackPointExtension></extensions></trkpt>
<trkpt lat="56.83156" lon="-4.09037"><ele>581.3</ele><time>2026-06-07T09:18:48Z</time><extensions><ns3:TrackPointExtension><ns3:hr>161</ns3:hr><ns3:cad>85</ns3:cad></ns3:TrackPointExtension></extensions></trkpt>
<trkpt lat="56.83138" lon="-4.09058"><ele>582.7</ele><time>2026-06-07T09:18:58Z</time><extensions><ns3:TrackPointExtension><ns3:hr>160</ns3:hr><ns3:cad>87</ns3:cad></ns3:TrackPointExtension></extensions></trkpt>
<trkpt lat="56.83120" lon="-4.09077"><ele>584.1</ele><time>2026-06-07T09:19:08Z</time><extensions><ns3:TrackPointExtension><ns3:hr>163</ns3:hr><ns3:cad>86</ns3:cad></ns3:TrackPointExtension></extensions></trkpt>
<trkpt lat="56.83100" lon="-4.09093"><ele>585.5</ele><time>2026-06-07T09:19:18Z</time><extensions><ns3:TrackPointExtension><ns3:hr>160</ns3:hr><ns3:cad>84</ns3:cad></ns3:TrackPointExtension></extensions></trkpt>
<trkpt lat="56.83081" lon="-4.09110"><ele>586.9</ele><time>2026-06-07T09:19:28Z</time><extensions><ns3:TrackPointExtension><ns3:hr>159</ns3:hr><ns3:cad>84</ns3:cad></ns3:TrackPointExtension></extensions></trkpt>
<trkpt lat="56.83061" lon="-4.09124"><ele>588.4</ele><time>2026-06-07T09:19:38Z</time><extensions><ns3:TrackPointExtension><ns3:hr>161</ns3:hr><ns3:cad>89</ns3:cad></ns3:TrackPointExtension></extensions></trkpt>
<trkpt lat="56.83041" lon="-4.09136"><ele>589.8</ele><time>2026-06-07T09:19:48Z</time><extensions><ns3:TrackPointExtension><ns3:hr>162</ns3:hr><ns3:cad>86</ns3:cad></ns3:TrackPointExtension></extensions></trkpt>
<trkpt lat="56.83022" lon="-4.09153"><ele>591.2</ele><time>2026-06-07T09:19:58Z</time><extensions><ns3:TrackPointExtension><ns3:hr>161</ns3:hr><ns3:cad>86</ns3:cad></ns3:TrackPointExtension></extensions></trkpt>
<trkpt lat="56.83002" lon="-4.09166"><ele>592.6</ele><time>2026-06-07T09:20:08Z</time><extensions><ns3:TrackPointExtension><ns3:hr>163</ns3:hr><ns3:cad>87</ns3:cad></ns3:TrackPointExtension></extensions></trkpt>
<trkpt lat="56.82984" lon="-4.09183"><ele>594.0</ele><time>2026-06-07T09:20:17Z</time><extensions><ns3:TrackPointExtension><ns3:hr>161</ns3:hr><ns3:cad>85</ns3:cad></ns3:TrackPointExtension></extensions></trkpt>
<trkpt lat="56.82956" lon="-4.09211"><ele>591.5</ele><time>2026-06-07T09:20:27Z</time><extensions><ns3:TrackPointExtension><ns3:hr>161</ns3:hr><ns3:cad>84</ns3:cad></ns3:TrackPointExtension></extensions></trkpt>
<trkpt lat="56.82930" lon="-4.09243"><ele>589.1</ele><time>2026-06-07T09:20:37Z</time><extensions><ns3:TrackPointExtension><ns3:hr>161</ns3:hr><ns3:cad>85</ns3:cad></ns3:TrackPointExtension></extensions></trkpt>
<trkpt lat="56.82906" lon="-4.09280"><ele>586.6</ele><time>2026-06-07T09:20:47Z</time><extensions><ns3:TrackPointExtension><ns3:hr>160</ns3:hr><ns3:cad>87</ns3:cad></ns3:TrackPointExtension></extensions></trkpt>
<trkpt lat="56.82880" lon="-4.09314"><ele>584.2</ele><time>2026-06-07T09:20:57Z</time><extensions><ns3:TrackPointExtension><ns3:hr>163</ns3:hr><ns3:cad>87</ns3:cad></ns3:TrackPointExtension></extensions></trkpt>
<trkpt lat="56.82853" lon="-4.09343"><ele>581.7</ele><time>2026-06-07T09:21:07Z</time><extensions><ns3:TrackPointExtension><ns3:hr>162</ns3:hr><ns3:cad>85</ns3:cad></ns3:TrackPointExtension></extensions></trkpt>
<trkpt lat="56.82825" lon="-4.09371"><ele>579.3</ele><time>2026-06-07T09:21:17Z</time><extensions><ns3:TrackPointExtension><ns3:hr>161</ns3:hr><ns3:cad>87</ns3:cad></ns3:TrackPointExtension></extensions></trkpt>
<trkpt lat="56.82797" lon="-4.09394"><ele>576.8</ele><time>2026-06-07T09:21:27Z</time><extensions><ns3:TrackPointExtension><ns3:hr>160</ns3:hr><ns3:cad>88</ns3:cad></ns3:TrackPointExtension></extensions></trkpt>
<trkpt lat="56.82769" lon="-4.09421"><ele>574.4</ele><time>2026-06-07T09:21:37Z</time><extensions><ns3:TrackPointExtension><ns3:hr>164</ns3:hr><ns3:cad>87</ns3:cad></ns3:TrackPointExtension></extensions></trkpt>
<trkpt lat="56.82740" lon="-4.09443"><ele>571.9</ele><time>2026-06-07T09:21:47Z</time><extensions><ns3:TrackPointExtension><ns3:hr>162</ns3:hr><ns3:cad>85</ns3:cad></ns3:TrackPointExtension></extensions></trkpt>
<trkpt lat="56.82710" lon="-4.09461"><ele>569.4</ele><time>2026-06-07T09:21:57Z</time><extensions><ns3:TrackPointExtension><ns3:hr>161</ns3:hr><ns3:cad>85</ns3:cad></ns3:TrackPointExtension></extensions></trkpt>
<trkpt lat="56.82679" lon="-4.09477"><ele>567.0</ele><time>2026-06-07T09:22:07Z</time><extensions><ns3:TrackPointExtension><ns3:hr>163</ns3:hr><ns3:cad>85</ns3:cad></ns3:TrackPointExtension></extensions></trkpt>
<trkpt lat="56.82649" lon="-4.09495"><ele>564.5</ele><time>2026-06-07T09:22:17Z</time><extensions><ns3:TrackPointExtension><ns3:hr>162</ns3:hr><ns3:cad>85</ns3:cad></ns3:TrackPointExtension></extensions></trkpt>
<trkpt lat="56.82619" lon="-4.09511"><ele>562.1</ele><time>2026-06-07T09:22:27Z</time><extensions><ns3:TrackPointExtension><ns3:hr>161</ns3:hr><ns3:cad>84</ns3:cad></ns3:TrackPointExtension></extensions></trkpt>
<trkpt lat="56.82588" lon="-4.09523"><ele>559.6</ele><time>2026-06-07T09:22:37Z</time><extensions><ns3:TrackPointExtension><ns3:hr>159</ns3:hr><ns3:cad>84</ns3:cad></ns3:TrackPointExtension></extensions></trkpt>
<trkpt lat="56.82557" lon="-4.09532"><ele>557.2</ele><time>2026-06-07T09:22:47Z</time><extensions><ns3:TrackPointExtension><ns3:hr>162</ns3:hr><ns3:cad>88</ns3:cad></ns3:TrackPointExtension></extensions></trkpt>
<trkpt lat="56.82527" lon="-4.09545"><ele>554.7</ele><time>2026-06-07T09:22:57Z</time><extensions><ns3:TrackPointExtension><ns3:hr>162</ns3:hr><ns3:cad>87</ns3:cad></ns3:TrackPointExtension></extensions></trkpt>
<trkpt lat="56.82496" lon="-4.09556"><ele>552.3</ele><time>2026-06-07T09:23:07Z</time><extensions><ns3:TrackPointExtension><ns3:hr>162</ns3:hr><ns3:cad>89</ns3:cad></ns3:TrackPointExtension></extensions></trkpt>
<trkpt lat="56.82465" lon="-4.09570"><ele>549.8</ele><time>2026-06-07T09:23:17Z</time><extensions><ns3:TrackPointExtension><ns3:hr>163</ns3:hr><ns3:cad>87</ns3:cad></ns3:TrackPointExtension></extensions></trkpt>
<trkpt lat="56.82434" lon="-4.09580"><ele>547.3</ele><time>2026-06-07T09:23:27Z</time><extensions><ns3:TrackPointExtension><ns3:hr>159</ns3:hr><ns3:cad>86</ns3:cad></ns3:TrackPointExtension></extensions></trkpt>
<trkpt lat="56.82403" lon="-4.09583"><ele>544.9</ele><time>2026-06-07T09:23:37Z</time><extensions><ns3:TrackPointExtension><ns3:hr>163</ns3:hr><ns3:cad>87</ns3:cad></ns3:TrackPointExtension></extensions></trkpt>
<trkpt lat="56.82372" lon="-4.09592"><ele>542.4</ele><time>2026-06-07T09:23:47Z</time><extensions><ns3:TrackPointExtension><ns3:hr>162</ns3:hr><ns3:cad>87</ns3:cad></ns3:TrackPointExtension></extensions></trkpt>
<trkpt lat="56.82340" lon="-4.09597"><ele>540.0</ele><time>2026-06-07T09:23:57Z</time><extensions><ns3:TrackPointExtension><ns3:hr>162</ns3:hr><ns3:cad>89</ns3:cad></ns3:TrackPointExtension></extensions></trkpt>
<trkpt lat="56.82309" lon="-4.09606"><ele>537.5</ele><time>2026-06-07T09:24:07Z</time><extensions><ns3:TrackPointExtension><ns3:hr>161</ns3:hr><ns3:cad>87</ns3:cad></ns3:TrackPointExtension></extensions></trkpt>
<trkpt lat="56.82278" lon="-4.09610"><ele>535.1</ele><time>2026-06-07T09:24:17Z</time><extensions><ns3:TrackPointExtension><ns3:hr>161</ns3:hr><ns3:cad>88</ns3:cad></ns3:TrackPointExtension></extensions></trkpt>
<trkpt lat="56.82246" lon="-4.09612"><ele>532.6</ele><time>2026-06-07T09:24:27Z</time><extensions><ns3:TrackPointExtension><ns3:hr>160</ns3:hr><ns3:cad>86</ns3:cad></ns3:TrackPointExtension></extensions></trkpt>
<trkpt lat="56.82215" lon="-4.09615"><ele>530.2</ele><time>2026-06-07T09:24:37Z</time><extensions><ns3:TrackPointExtension><ns3:hr>161</ns3:hr><ns3:cad>87</ns3:cad></ns3:TrackPointExtension></extensions></trkpt>
<trkpt lat="56.82183" lon="-4.09612"><ele>527.7</ele><time>2026-06-07T09:24:47Z</time><extensions><ns3:TrackPointExtension><ns3:hr>163</ns3:hr><ns3:cad>84</ns3:cad></ns3:TrackPointExtension></extensions></trkpt>
<trkpt lat="56.82152" lon="-4.09607"><ele>525.3</ele><time>2026-06-07T09:24:57Z</time><extensions><ns3:TrackPointExtension><ns3:hr>160</ns3:hr><ns3:cad>88</ns3:cad></ns3:TrackPointExtension></extensions></trkpt>
<trkpt lat="56.82121" lon="-4.09596"><ele>522.8</ele><time>2026-06-07T09:25:07Z</time><extensions><ns3:TrackPointExtension><ns3:hr>163</ns3:hr><ns3:cad>88</ns3:cad></ns3:TrackPointExtension></extensions></trkpt>
<trkpt lat="56.82090" lon="-4.09581"><ele>520.3</ele><time>2026-06-07T09:25:17Z</time><extensions><ns3:TrackPointExtension><ns3:hr>163</ns3:hr><ns3:cad>87</ns3:cad></ns3:TrackPointExtension></extensions></trkpt>
<trkpt lat="56.82060" lon="-4.09567"><ele>517.9</ele><time>2026-06-07T09:25:27Z</time><extensions><ns3:TrackPointExtension><ns3:hr>160</ns3:hr><ns3:cad>89</ns3:cad></ns3:TrackPointExtension></extensions></trkpt>
<trkpt lat="56.82029" lon="-4.09559"><ele>515.4</ele><time>2026-06-07T09:25:37Z</time><extensions><ns3:TrackPointExtension><ns3:hr>162</ns3:hr><ns3:cad>87</ns3:cad></ns3:TrackPointExtension></extensions></trkpt>
<trkpt lat="56.81997" lon="-4.09555"><ele>513.0</ele><time>2026-06-07T09:25:47Z</time><extensions><ns3:TrackPointExtension><ns3:hr>160</ns3:hr><ns3:cad>86</ns3:cad></ns3:TrackPointExtension></extensions></trkpt>
<trkpt lat="56.81966" lon="-4.09552"><ele>510.5</ele><time>2026-06-07T09:25:57Z</time><extensions><ns3:TrackPointExtension><ns3:hr>159</ns3:hr><ns3:cad>86</ns3:cad></ns3:TrackPointExtension></extensions></trkpt>
<trkpt lat="56.81934" lon="-4.09553"><ele>508.1</ele><time>2026-06-07T09:26:07Z</time><extensions><ns3:TrackPointExtension><ns3:hr>164</ns3:hr><ns3:cad>85</ns3:cad></ns3:TrackPointExtension></extensions></trkpt>
<trkpt lat="56.81903" lon="-4.09550"><ele>505.6</ele><time>2026-06-07T09:26:17Z</time><extensions><ns3:TrackPointExtension><ns3:hr>160</ns3:hr><ns3:cad>88</ns3:cad></ns3:TrackPointExtension></extensions></trkpt>
<trkpt lat="56.81871" lon="-4.09548"><ele>503.2</ele><time>2026-06-07T09:26:27Z</time><extensions><ns3:TrackPointExtension><ns3:hr>163</ns3:hr><ns3:cad>88</ns3:cad></ns3:TrackPointExtension></extensions></trkpt>
<trkpt lat="56.81840" lon="-4.09553"><ele>500.7</ele><time>2026-06-07T09:26:37Z</time><extensions><ns3:TrackPointExtension><ns3:hr>160</ns3:hr><ns3:cad>86</ns3:cad></ns3:TrackPointExtension></extensions></trkpt>
<trkpt lat="56.81809" lon="-4.09563"><ele>498.2</ele><time>2026-06-07T09:26:47Z</time><extensions><ns3:TrackPointExtension><ns3:hr>162</ns3:hr><ns3:cad>88</ns3:cad></ns3:TrackPointExtension></extensions></trkpt>
<trkpt lat="56.81777" lon="-4.09567"><ele>495.8</ele><time>2026-06-07T09:26:57Z</time><extensions><ns3:TrackPointExtension><ns3:hr>164</ns3:hr><ns3:cad>86</ns3:cad></ns3:TrackPointExtension></extensions></trkpt>
<trkpt lat="56.81746" lon="-4.09570"><ele>493.3</ele><time>2026-06-07T09:27:07Z</time><extensions><ns3:TrackPointExtension><ns3:hr>161</ns3:hr><ns3:cad>86</ns3:cad></ns3:TrackPointExtension></extensions></trkpt>
<trkpt lat="56.81714" lon="-4.09567"><ele>490.9</ele><time>2026-06-07T09:27:17Z</time><extensions><ns3:TrackPointExtension><ns3:hr>162</ns3:hr><ns3:cad>85</ns3:cad></ns3:TrackPointExtension></extensions></trkpt>
<trkpt lat="56.81690" lon="-4.09567"><ele>489.0</ele><time>2026-06-07T09:27:25Z</time><extensions><ns3:TrackPointExtension><ns3:hr>164</ns3:hr><ns3:cad>87</ns3:cad></ns3:TrackPointExtension></extensions></trkpt>
<trkpt lat="56.81665" lon="-4.09562"><ele>489.6</ele><time>2026-06-07T09:27:35Z</time><extensions><ns3:TrackPointExtension><ns3:hr>160</ns3:hr><ns3:cad>85</ns3:cad></ns3:TrackPointExtension></extensions></trkpt>
<trkpt lat="56.81639" lon="-4.09562"><ele>490.1</ele><time>2026-06-07T09:27:45Z</time><extensions><ns3:TrackPointExtension><ns3:hr>164</ns3:hr><ns3:cad>85</ns3:cad></ns3:TrackPointExtension></extensions></trkpt>
<trkpt lat="56.81614" lon="-4.09565"><ele>490.7</ele><time>2026-06-07T09:27:55Z</time><extensions><ns3:TrackPointExtension><ns3:hr>161</ns3:hr><ns3:cad>88</ns3:cad></ns3:TrackPointExtension></extensions></trkpt>
<trkpt lat="56.81588" lon="-4.09565"><ele>491.3</ele><time>2026-06-07T09:28:05Z</time><extensions><ns3:TrackPointExtension><ns3:hr>161</ns3:hr><ns3:cad>86</ns3:cad></ns3:TrackPointExtension></extensions></trkpt>
<trkpt lat="56.81563" lon="-4.09561"><ele>491.8</ele><time>2026-06-07T09:28:15Z</time><extensions><ns3:TrackPointExtension><ns3:hr>164</ns3:hr><ns3:cad>89</ns3:cad></ns3:TrackPointExtension></extensions></trkpt>
<trkpt lat="56.81538" lon="-4.09553"><ele>492.4</ele><time>2026-06-07T09:28:25Z</time><extensions><ns3:TrackPointExtension><ns3:hr>163</ns3:hr><ns3:cad>85</ns3:cad></ns3:TrackPointExtension></extensions></trkpt>
<trkpt lat="56.81513" lon="-4.09548"><ele>493.0</ele><time>2026-06-07T09:28:35Z</time><extensions><ns3:TrackPointExtension><ns3:hr>162</ns3:hr><ns3:cad>86</ns3:cad></ns3:TrackPointExtension></extensions></trkpt>
<trkpt lat="56.81487" lon="-4.09546"><ele>493.5</ele><time>2026-06-07T09:28:45Z</time><extensions><ns3:TrackPointExtension><ns3:hr>163</ns3:hr><ns3:cad>86</ns3:cad></ns3:TrackPointExtension></extensions></trkpt>
<trkpt lat="56.81462" lon="-4.09542"><ele>494.1</ele><time>2026-06-07T09:28:55Z</time><extensions><ns3:TrackPointExtension><ns3:hr>164</ns3:hr><ns3:cad>86</ns3:cad></ns3:TrackPointExtension></extensions></trkpt>
<trkpt lat="56.81436" lon="-4.09537"><ele>494.7</ele><time>2026-06-07T09:29:05Z</time><extensions><ns3:TrackPointExtension><ns3:hr>163</ns3:hr><ns3:cad>86</ns3:cad></ns3:TrackPointExtension></extensions></trkpt>
<trkpt lat="56.81411" lon="-4.09531"><ele>495.2</ele><time>2026-06-07T09:29:15Z</time><extensions><ns3:TrackPointExtension><ns3:hr>159</ns3:hr><ns3:cad>88</ns3:cad></ns3:TrackPointExtension></extensions></trkpt>
<trkpt lat="56.81386" lon="-4.09526"><ele>495.8</ele><time>2026-06-07T09:29:25Z</time><extensions><ns3:TrackPointExtension><ns3:hr>162</ns3:hr><ns3:cad>87</ns3:cad></ns3:TrackPointExtension></extensions></trkpt>
<trkpt lat="56.81360" lon="-4.09519"><ele>496.4</ele><time>2026-06-07T09:29:35Z</time><extensions><ns3:TrackPointExtension><ns3:hr>161</ns3:hr><ns3:cad>85</ns3:cad></ns3:TrackPointExtension></extensions></trkpt>
<trkpt lat="56.81335" lon="-4.09513"><ele>497.0</ele><time>2026-06-07T09:29:45Z</time><extensions><ns3:TrackPointExtension><ns3:hr>161</ns3:hr><ns3:cad>88</ns3:cad></ns3:TrackPointExtension></extensions></trkpt>
<trkpt lat="56.81310" lon="-4.09506"><ele>497.5</ele><time>2026-06-07T09:29:55Z</time><extensions><ns3:TrackPointExtension><ns3:hr>160</ns3:hr><ns3:cad>88</ns3:cad></ns3:TrackPointExtension></extensions></trkpt>
<trkpt lat="56.81285" lon="-4.09494"><ele>498.1</ele><time>2026-06-07T09:30:05Z</time><extensions><ns3:TrackPointExtension><ns3:hr>163</ns3:hr><ns3:cad>88</ns3:cad></ns3:TrackPointExtension></extensions></trkpt>
<trkpt lat="56.81261" lon="-4.09482"><ele>498.7</ele><time>2026-06-07T09:30:15Z</time><extensions><ns3:TrackPointExtension><ns3:hr>163</ns3:hr><ns3:cad>89</ns3:cad></ns3:TrackPointExtension></extensions></trkpt>
<trkpt lat="56.81236" lon="-4.09473"><ele>499.2</ele><time>2026-06-07T09:30:25Z</time><extensions><ns3:TrackPointExtension><ns3:hr>160</ns3:hr><ns3:cad>85</ns3:cad></ns3:TrackPointExtension></extensions></trkpt>
<trkpt lat="56.81211" lon="-4.09463"><ele>499.8</ele><time>2026-06-07T09:30:35Z</time><extensions><ns3:TrackPointExtension><ns3:hr>161</ns3:hr><ns3:cad>87</ns3:cad></ns3:TrackPointExtension></extensions></trkpt>
<trkpt lat="56.81185" lon="-4.09456"><ele>500.4</ele><time>2026-06-07T09:30:45Z</time><extensions><ns3:TrackPointExtension><ns3:hr>163</ns3:hr><ns3:cad>86</ns3:cad></ns3:TrackPointExtension></extensions></trkpt>
<trkpt lat="56.81160" lon="-4.09446"><ele>500.9</ele><time>2026-06-07T09:30:55Z</time><extensions><ns3:TrackPointExtension><ns3:hr>164</ns3:hr><ns3:cad>85</ns3:cad></ns3:TrackPointExtension></extensions></trkpt>
<trkpt lat="56.81136" lon="-4.09431"><ele>501.5</ele><time>2026-06-07T09:31:05Z</time><extensions><ns3:TrackPointExtension><ns3:hr>164</ns3:hr><ns3:cad>87</ns3:cad></ns3:TrackPointExtension></extensions></trkpt>
<trkpt lat="56.81112" lon="-4.09417"><ele>502.1</ele><time>2026-06-07T09:31:15Z</time><extensions><ns3:TrackPointExtension><ns3:hr>163</ns3:hr><ns3:cad>86</ns3:cad></ns3:TrackPointExtension></extensions></trkpt>
<trkpt lat="56.81087" lon="-4.09406"><ele>502.6</ele><time>2026-06-07T09:31:25Z</time><extensions><ns3:TrackPointExtension><ns3:hr>161</ns3:hr><ns3:cad>87</ns3:cad></ns3:TrackPointExtension></extensions></trkpt>
<trkpt lat="56.81063" lon="-4.09393"><ele>503.2</ele><time>2026-06-07T09:31:35Z</time><extensions><ns3:TrackPointExtension><ns3:hr>160</ns3:hr><ns3:cad>87</ns3:cad></ns3:TrackPointExtension></extensions></trkpt>
<trkpt lat="56.81039" lon="-4.09376"><ele>503.8</ele><time>2026-06-07T09:31:45Z</time><extensions><ns3:TrackPointExtension><ns3:hr>164</ns3:hr><ns3:cad>86</ns3:cad></ns3:TrackPointExtension></extensions></trkpt>
<trkpt lat="56.81016" lon="-4.09356"><ele>504.3</ele><time>2026-06-07T09:31:55Z</time><extensions><ns3:TrackPointExtension><ns3:hr>161</ns3:hr><ns3:cad>87</ns3:cad></ns3:TrackPointExtension></extensions></trkpt>
<trkpt lat="56.80993" lon="-4.09336"><ele>504.9</ele><time>2026-06-07T09:32:05Z</time><extensions><ns3:TrackPointExtension><ns3:hr>163</ns3:hr><ns3:cad>88</ns3:cad></ns3:TrackPointExtension></extensions></trkpt>
<trkpt lat="56.80969" lon="-4.09318"><ele>505.5</ele><time>2026-06-07T09:32:15Z</time><extensions><ns3:TrackPointExtension><ns3:hr>162</ns3:hr><ns3:cad>87</ns3:cad></ns3:TrackPointExtension></extensions></trkpt>
<trkpt lat="56.80946" lon="-4.09300"><ele>506.0</ele><time>2026-06-07T09:32:25Z</time><extensions><ns3:TrackPointExtension><ns3:hr>164</ns3:hr><ns3:cad>86</ns3:cad></ns3:TrackPointExtension></extensions></trkpt>
<trkpt lat="56.80922" lon="-4.09282"><ele>506.6</ele><time>2026-06-07T09:32:35Z</time><extensions><ns3:TrackPointExtension><ns3:hr>161</ns3:hr><ns3:cad>84</ns3:cad></ns3:TrackPointExtension></extensions></trkpt>
<trkpt lat="56.80899" lon="-4.09265"><ele>507.2</ele><time>2026-06-07T09:32:45Z</time><extensions><ns3:TrackPointExtension><ns3:hr>161</ns3:hr><ns3:cad>87</ns3:cad></ns3:TrackPointExtension></extensions></trkpt>
<trkpt lat="56.80875" lon="-4.09248"><ele>507.7</ele><time>2026-06-07T09:32:55Z</time><extensions><ns3:TrackPointExtension><ns3:hr>163</ns3:hr><ns3:cad>87</ns3:cad></ns3:TrackPointExtension></extensions></trkpt>
<trkpt lat="56.80852" lon="-4.09227"><ele>508.3</ele><time>2026-06-07T09:33:05Z</time><extensions><ns3:TrackPointExtension><ns3:hr>160</ns3:hr><ns3:cad>86</ns3:cad></ns3:TrackPointExtension></extensions></trkpt>
<trkpt lat="56.80829" lon="-4.09208"><ele>508.9</ele><time>2026-06-07T09:33:15Z</time><extensions><ns3:TrackPointExtension><ns3:hr>160</ns3:hr><ns3:cad>85</ns3:cad></ns3:TrackPointExtension></extensions></trkpt>
<trkpt lat="56.80824" lon="-4.09205"><ele>509.0</ele><time>2026-06-07T09:33:17Z</time><extensions><ns3:TrackPointExtension><ns3:hr>163</ns3:hr><ns3:cad>86</ns3:cad></ns3:TrackPointExtension></extensions></trkpt>
</trkseg></trk></gpx>
